id,strLocation,latitude,longitude,city,state,zip,Store
102 S 9th St MO 65201,1.0,38.950278000000004,-92.32739699999999,Columbia,MO,65201,Panera Bread
3709 S Providence Rd MO 65203,1.0,38.90939,-92.33636899999999,Columbia,MO,65203,Panera Bread
100 Brickton Road MO 65203,0.95,38.948232,-92.29525500000001,Columbia,MO,65201,Panera Bread
598 Columbia Dr MO 65203,0.33,38.88248,-92.397824,Columbia,MO,65203,Panera Bread
2300 Bernadette Dr MO 65203,1.0,38.963767,-92.373859,Columbia,MO,65203,Panera Bread
102 S 9th St MO 65201,1.0,38.950278000000004,-92.32739699999999,Columbia,MO,65201,Panera Bread
3709 S Providence Rd MO 65203,1.0,38.90939,-92.33636899999999,Columbia,MO,65203,Panera Bread
100 Brickton Road MO 65203,0.95,38.948232,-92.29525500000001,Columbia,MO,65201,Panera Bread
598 Columbia Dr MO 65203,0.33,38.88248,-92.397824,Columbia,MO,65203,Panera Bread
2300 Bernadette Dr MO 65203,1.0,38.963767,-92.373859,Columbia,MO,65203,Panera Bread
2214 Missouri Boulevard MO 65109,1.0,38.581828,-92.20888599999999,Jefferson City,MO,65109,Panera Bread
2226 Missouri Blvd MO 65109,1.0,38.581983,-92.209967,Jefferson City,MO,65109,Panera Bread
2214 Missouri Boulevard MO 65109,1.0,38.581828,-92.20888599999999,Jefferson City,MO,65109,Panera Bread
2226 Missouri Blvd MO 65109,1.0,38.581983,-92.209967,Jefferson City,MO,65109,Panera Bread
2405 Grand Blvd MO 64108,1.0,39.081708,-94.581458,Kansas City,MO,64108,Panera Bread
4117 Mill St MO 64111,1.0,39.052009999999996,-94.59179300000001,Kansas City,MO,64111,Panera Bread
4700 Pennsylvania Ave MO 64112,1.0,39.042052000000005,-94.594087,Kansas City,MO,64112,Panera Bread
6301 Brookside Plaza MO 64113,1.0,39.013581,-94.590466,Kansas City,MO,64113,Panera Bread
1128 W 103rd St MO 64114,1.0,38.942294,-94.606306,Kansas City,MO,64114,Panera Bread
311 Ne Englewood Road MO 64118,1.0,39.194128000000006,-94.57889200000001,Kansas City,MO,64118,Panera Bread
6145 Nw Barry Rd MO 64154,1.0,39.246641,-94.649734,Kansas City,MO,64154,Panera Bread
8580 Church Rd MO 64157,0.75,39.246402,-94.459807,Kansas City,MO,64158,Panera Bread
2405 Grand Blvd MO 64108,1.0,39.081708,-94.581458,Kansas City,MO,64108,Panera Bread
4117 Mill St MO 64111,1.0,39.052009999999996,-94.59179300000001,Kansas City,MO,64111,Panera Bread
4700 Pennsylvania Ave MO 64112,1.0,39.042052000000005,-94.594087,Kansas City,MO,64112,Panera Bread
6301 Brookside Plaza MO 64113,1.0,39.013581,-94.590466,Kansas City,MO,64113,Panera Bread
1128 W 103rd St MO 64114,1.0,38.942294,-94.606306,Kansas City,MO,64114,Panera Bread
311 Ne Englewood Road MO 64118,1.0,39.194128000000006,-94.57889200000001,Kansas City,MO,64118,Panera Bread
6145 Nw Barry Rd MO 64154,1.0,39.246641,-94.649734,Kansas City,MO,64154,Panera Bread
8580 Church Rd MO 64157,0.75,39.246402,-94.459807,Kansas City,MO,64158,Panera Bread
3175 West Broadway Boulevard MO 65301,1.0,38.708825,-93.266377,Sedalia,MO,65301,Panera Bread
3171 W Broadway Blvd MO 65301,1.0,38.708783000000004,-93.266285,Sedalia,MO,65301,Panera Bread
3175 West Broadway Boulevard MO 65301,1.0,38.708825,-93.266377,Sedalia,MO,65301,Panera Bread
3171 W Broadway Blvd MO 65301,1.0,38.708783000000004,-93.266285,Sedalia,MO,65301,Panera Bread
500 S National Ave MO 65802,1.0,37.204813,-93.275894,Springfield,MO,65802,Panera Bread
2535 N Kansas Expy MO 65803,1.0,37.243612,-93.312125,Springfield,MO,65803,Panera Bread
1949 E Sunshine St MO 65804,1.0,37.182752,-93.259027,Springfield,MO,65804,Panera Bread
2040 W Vista St MO 65807,1.0,37.165221,-93.32060899999999,Springfield,MO,65807,Panera Bread
1570 W Battlefield St MO 65807,1.0,37.159966,-93.3121,Springfield,MO,65807,Panera Bread
2924 W Sunshine St MO 65807,1.0,37.182567999999996,-93.336477,Springfield,MO,65807,Panera Bread
3837 S Campbell Ave MO 65807,1.0,37.144298,-93.297069,Springfield,MO,65807,Panera Bread
4100 South Campbell Avenue MO 65807,1.0,37.140003,-93.295309,Springfield,MO,65807,Panera Bread
2740 S Austin Ave MO 65807,1.0,37.164815000000004,-93.323257,Springfield,MO,65807,Panera Bread
500 S National Ave MO 65802,1.0,37.204813,-93.275894,Springfield,MO,65802,Panera Bread
2535 N Kansas Expy MO 65803,1.0,37.243612,-93.312125,Springfield,MO,65803,Panera Bread
1949 E Sunshine St MO 65804,1.0,37.182752,-93.259027,Springfield,MO,65804,Panera Bread
2040 W Vista St MO 65807,1.0,37.165221,-93.32060899999999,Springfield,MO,65807,Panera Bread
1570 W Battlefield St MO 65807,1.0,37.159966,-93.3121,Springfield,MO,65807,Panera Bread
2924 W Sunshine St MO 65807,1.0,37.182567999999996,-93.336477,Springfield,MO,65807,Panera Bread
3837 S Campbell Ave MO 65807,1.0,37.144298,-93.297069,Springfield,MO,65807,Panera Bread
4100 South Campbell Avenue MO 65807,1.0,37.140003,-93.295309,Springfield,MO,65807,Panera Bread
2740 S Austin Ave MO 65807,1.0,37.164815000000004,-93.323257,Springfield,MO,65807,Panera Bread
2079 Zumbehl Road MO 63303,1.0,38.783983,-90.535699,Saint Charles,MO,63303,Panera Bread
6185 Mid Rivers Mall Dr MO 63304,1.0,38.742399,-90.63492600000001,Saint Peters,MO,63304,Panera Bread
2079 Zumbehl Road MO 63303,1.0,38.783983,-90.535699,Saint Charles,MO,63303,Panera Bread
6185 Mid Rivers Mall Dr MO 63304,1.0,38.742399,-90.63492600000001,Saint Peters,MO,63304,Panera Bread
116 N 6th St MO 63101,1.0,38.626338,-90.19080600000001,Saint Louis,MO,63101,Panera Bread
2018 S 7th Street MO 63104,1.0,38.606611,-90.202624,Saint Louis,MO,63104,Panera Bread
4561 Forest Park Ave MO 63108,1.0,38.639194,-90.26117099999999,Saint Louis,MO,63108,Panera Bread
4651 Maryland Ave MO 63108,1.0,38.645055,-90.26099,Saint Louis,MO,63108,Panera Bread
6607 Chippewa St MO 63109,1.0,38.591253,-90.305201,Saint Louis,MO,63109,Panera Bread
1008 Loughborough Avenue MO 63111,1.0,38.556442,-90.26255,Saint Louis,MO,63111,Panera Bread
3114 S Grand Blvd MO 63118,1.0,38.602036,-90.24195999999999,Saint Louis,MO,63118,Panera Bread
116 N 6th St MO 63101,1.0,38.626338,-90.19080600000001,Saint Louis,MO,63101,Panera Bread
2018 S 7th Street MO 63104,1.0,38.606611,-90.202624,Saint Louis,MO,63104,Panera Bread
4561 Forest Park Ave MO 63108,1.0,38.639194,-90.26117099999999,Saint Louis,MO,63108,Panera Bread
4651 Maryland Ave MO 63108,1.0,38.645055,-90.26099,Saint Louis,MO,63108,Panera Bread
6607 Chippewa St MO 63109,1.0,38.591253,-90.305201,Saint Louis,MO,63109,Panera Bread
1008 Loughborough Avenue MO 63111,1.0,38.556442,-90.26255,Saint Louis,MO,63111,Panera Bread
3114 S Grand Blvd MO 63118,1.0,38.602036,-90.24195999999999,Saint Louis,MO,63118,Panera Bread
290 Mid Rivers Mall Drive MO 63376,1.0,38.793642999999996,-90.622987,Saint Peters,MO,63376,Panera Bread
290 Mid Rivers Mall Drive MO 63376,1.0,38.793642999999996,-90.622987,Saint Peters,MO,63376,Panera Bread
290 Mid Rivers Mall Drive MO 63376,1.0,38.793642999999996,-90.622987,Saint Peters,MO,63376,Panera Bread
290 Mid Rivers Mall Drive MO 63376,1.0,38.793642999999996,-90.622987,Saint Peters,MO,63376,Panera Bread
5 W Rand Rd IL 60004,1.0,42.112531,-87.981668,Arlington Heights,IL,60004,Panera Bread
1734 W Algonquin Rd IL 60005,0.9,42.175841,-88.32225799999999,Algonquin,IL,60102,Panera Bread
31 S Evergreen Ave IL 60005,1.0,42.082288,-87.980995,Arlington Heights,IL,60005,Panera Bread
1736 W Algonquin Rd IL 60005,1.0,42.057748,-88.005353,Arlington Heights,IL,60005,Panera Bread
5 W Rand Rd IL 60004,1.0,42.112531,-87.981668,Arlington Heights,IL,60004,Panera Bread
1734 W Algonquin Rd IL 60005,0.9,42.175841,-88.32225799999999,Algonquin,IL,60102,Panera Bread
31 S Evergreen Ave IL 60005,1.0,42.082288,-87.980995,Arlington Heights,IL,60005,Panera Bread
1736 W Algonquin Rd IL 60005,1.0,42.057748,-88.005353,Arlington Heights,IL,60005,Panera Bread
2987 Kirk Road IL 60502,1.0,41.816726,-88.27881,Aurora,IL,60502,Panera Bread
1304 Fox Valley Center IL 60504,0.87,41.75865,-88.214209,Aurora,IL,60504,Panera Bread
195 Fox Valley Ctr IL 60504,1.0,41.759739,-88.2148,Aurora,IL,60504,Panera Bread
740 N Route 59 IL 60504,1.0,41.765878,-88.206568,Aurora,IL,60504,Panera Bread
1330 Orchard Rd IL 60506,0.9,41.783506,-88.37626800000001,Aurora,IL,60506,Panera Bread
2987 Kirk Road IL 60502,1.0,41.816726,-88.27881,Aurora,IL,60502,Panera Bread
1304 Fox Valley Center IL 60504,0.87,41.75865,-88.214209,Aurora,IL,60504,Panera Bread
195 Fox Valley Ctr IL 60504,1.0,41.759739,-88.2148,Aurora,IL,60504,Panera Bread
740 N Route 59 IL 60504,1.0,41.765878,-88.206568,Aurora,IL,60504,Panera Bread
1330 Orchard Rd IL 60506,0.9,41.783506,-88.37626800000001,Aurora,IL,60506,Panera Bread
370 W Army Trail Rd IL 60108,1.0,41.939131,-88.113252,Bloomingdale,IL,60108,Panera Bread
905 Stratford Square Mall IL 60108,0.33,41.950022,-88.091865,Bloomingdale,IL,60108,Panera Bread
370 W Army Trail Rd IL 60108,1.0,41.939131,-88.113252,Bloomingdale,IL,60108,Panera Bread
905 Stratford Square Mall IL 60108,0.33,41.950022,-88.091865,Bloomingdale,IL,60108,Panera Bread
1401 S Veterans Pkwy IL 61701,1.0,40.4604,-88.967461,Bloomington,IL,61701,Panera Bread
1401 N Veterans Pkwy IL 61701,1.0,40.4604,-88.967461,Bloomington,IL,61701,Panera Bread
1401 S Veterans Pkwy IL 61701,1.0,40.4604,-88.967461,Bloomington,IL,61701,Panera Bread
1401 N Veterans Pkwy IL 61701,1.0,40.4604,-88.967461,Bloomington,IL,61701,Panera Bread
714 E Boughton Rd IL 60440,1.0,41.724803,-88.037525,Bolingbrook,IL,60440,Panera Bread
1196 W Boughton Rd IL 60440,1.0,41.70493,-88.123183,Bolingbrook,IL,60440,Panera Bread
714 E Boughton Rd IL 60440,1.0,41.724803,-88.037525,Bolingbrook,IL,60440,Panera Bread
1196 W Boughton Rd IL 60440,1.0,41.70493,-88.123183,Bolingbrook,IL,60440,Panera Bread
1228 West Dundee Road IL 60089,1.0,42.14014,-87.98719799999999,Buffalo Grove,IL,60089,Panera Bread
1228 West Dundee Road IL 60089,1.0,42.14014,-87.98719799999999,Buffalo Grove,IL,60089,Panera Bread
1224 W Dundee Rd IL 60089,1.0,42.14014,-87.987027,Buffalo Grove,IL,60089,Panera Bread
1228 West Dundee Road IL 60089,1.0,42.14014,-87.98719799999999,Buffalo Grove,IL,60089,Panera Bread
1228 West Dundee Road IL 60089,1.0,42.14014,-87.98719799999999,Buffalo Grove,IL,60089,Panera Bread
1224 W Dundee Rd IL 60089,1.0,42.14014,-87.987027,Buffalo Grove,IL,60089,Panera Bread
1126 E Walnut St IL 62901,1.0,37.727112,-89.195296,Carbondale,IL,62901,Panera Bread
1126 E Walnut St IL 62901,1.0,37.727112,-89.195296,Carbondale,IL,62901,Panera Bread
510 E John St IL 61820,1.0,40.109336,-88.230856,Champaign,IL,61820,Panera Bread
616 E Green St IL 61820,1.0,40.110436,-88.229312,Champaign,IL,61820,Panera Bread
1903 Convenience Pl IL 61820,1.0,40.138424,-88.24314100000001,Champaign,IL,61820,Panera Bread
1765 W Kirby Ave IL 61821,1.0,40.097834999999996,-88.275385,Champaign,IL,61821,Panera Bread
510 E John St IL 61820,1.0,40.109336,-88.230856,Champaign,IL,61820,Panera Bread
616 E Green St IL 61820,1.0,40.110436,-88.229312,Champaign,IL,61820,Panera Bread
1903 Convenience Pl IL 61820,1.0,40.138424,-88.24314100000001,Champaign,IL,61820,Panera Bread
1765 W Kirby Ave IL 61821,1.0,40.097834999999996,-88.275385,Champaign,IL,61821,Panera Bread
501 South State Street IL 60605,1.0,41.875507,-87.626968,Chicago,IL,60605,Panera Bread
250 South Wacker Drive IL 60606,1.0,41.878289,-87.637229,Chicago,IL,60606,Panera Bread
1101 S Canal St IL 60607,1.0,41.868494,-87.63908599999999,Chicago,IL,60607,Panera Bread
"600 W Van Buren St, Ste 102 IL 60607",1.0,41.876583000000004,-87.64249699999999,Chicago,IL,60607,Panera Bread
635 N Fairbanks Court IL 60611,1.0,41.893519,-87.620125,Chicago,IL,60611,Panera Bread
616 W Diversey Pkwy IL 60614,1.0,41.932966,-87.64402,Chicago,IL,60614,Panera Bread
2070 N Clybourn Ave IL 60614,1.0,41.919284999999995,-87.661693,Chicago,IL,60614,Panera Bread
1191 N Ogden Ave IL 60622,0.6,41.888807,-87.660666,Chicago,IL,60622,Panera Bread
2314 W 95th St IL 60643,1.0,41.721558,-87.680499,Chicago,IL,60643,Panera Bread
2310 W Logan Boulevard IL 60647,1.0,41.930401,-87.68656,Chicago,IL,60647,Panera Bread
2700 N Elston Ave IL 60647,1.0,41.930481,-87.685861,Chicago,IL,60647,Panera Bread
6059 N Lincoln Ave IL 60659,1.0,41.993829999999996,-87.712197,Chicago,IL,60659,Panera Bread
501 South State Street IL 60605,1.0,41.875507,-87.626968,Chicago,IL,60605,Panera Bread
250 South Wacker Drive IL 60606,1.0,41.878289,-87.637229,Chicago,IL,60606,Panera Bread
1101 S Canal St IL 60607,1.0,41.868494,-87.63908599999999,Chicago,IL,60607,Panera Bread
"600 W Van Buren St, Ste 102 IL 60607",1.0,41.876583000000004,-87.64249699999999,Chicago,IL,60607,Panera Bread
635 N Fairbanks Court IL 60611,1.0,41.893519,-87.620125,Chicago,IL,60611,Panera Bread
616 W Diversey Pkwy IL 60614,1.0,41.932966,-87.64402,Chicago,IL,60614,Panera Bread
2070 N Clybourn Ave IL 60614,1.0,41.919284999999995,-87.661693,Chicago,IL,60614,Panera Bread
1191 N Ogden Ave IL 60622,0.6,41.888807,-87.660666,Chicago,IL,60622,Panera Bread
2314 W 95th St IL 60643,1.0,41.721558,-87.680499,Chicago,IL,60643,Panera Bread
2310 W Logan Boulevard IL 60647,1.0,41.930401,-87.68656,Chicago,IL,60647,Panera Bread
2700 N Elston Ave IL 60647,1.0,41.930481,-87.685861,Chicago,IL,60647,Panera Bread
6059 N Lincoln Ave IL 60659,1.0,41.993829999999996,-87.712197,Chicago,IL,60659,Panera Bread
2165 75th St IL 60561,0.85,41.748253000000005,-87.998482,Darien,IL,60561,Panera Bread
2161 75th St IL 60561,0.84,41.748253000000005,-87.998482,Darien,IL,60561,Panera Bread
2165 75th St IL 60561,0.85,41.748253000000005,-87.998482,Darien,IL,60561,Panera Bread
2161 75th St IL 60561,0.84,41.748253000000005,-87.998482,Darien,IL,60561,Panera Bread
1211 Half Day Road IL 60015,1.0,42.199469,-87.86057,Deerfield,IL,60015,Panera Bread
1211 Half Day Road IL 60015,1.0,42.199469,-87.86057,Deerfield,IL,60015,Panera Bread
2001 Milwaukee Ave IL 60015,1.0,42.169422,-87.92154599999999,Deerfield,IL,60015,Panera Bread
2001 Milwaukee Ave IL 60015,1.0,42.169422,-87.92154599999999,Deerfield,IL,60015,Panera Bread
190 Waukegan Rd IL 60015,1.0,42.155453,-87.83796600000001,Deerfield,IL,60015,Panera Bread
1211 Half Day Road IL 60015,1.0,42.199469,-87.86057,Deerfield,IL,60015,Panera Bread
1211 Half Day Road IL 60015,1.0,42.199469,-87.86057,Deerfield,IL,60015,Panera Bread
2001 Milwaukee Ave IL 60015,1.0,42.169422,-87.92154599999999,Deerfield,IL,60015,Panera Bread
2001 Milwaukee Ave IL 60015,1.0,42.169422,-87.92154599999999,Deerfield,IL,60015,Panera Bread
190 Waukegan Rd IL 60015,1.0,42.155453,-87.83796600000001,Deerfield,IL,60015,Panera Bread
1518 Market St IL 60016,1.0,42.042341,-87.885141,Des Plaines,IL,60016,Panera Bread
500 E Touhy Ave IL 60018,1.0,42.009623,-87.911123,Des Plaines,IL,60018,Panera Bread
1518 Market St IL 60016,1.0,42.042341,-87.885141,Des Plaines,IL,60016,Panera Bread
500 E Touhy Ave IL 60018,1.0,42.009623,-87.911123,Des Plaines,IL,60018,Panera Bread
1400 Butterfield Rd IL 60515,1.0,41.83421,-88.020217,Downers Grove,IL,60515,Panera Bread
160 Ogden Ave IL 60515,1.0,41.810028,-87.98994,Downers Grove,IL,60515,Panera Bread
1400 Butterfield Rd IL 60515,1.0,41.83421,-88.020217,Downers Grove,IL,60515,Panera Bread
160 Ogden Ave IL 60515,1.0,41.810028,-87.98994,Downers Grove,IL,60515,Panera Bread
North And York Rd IL 60126,0.67,41.88353,-87.946413,Elmhurst,IL,60126,Panera Bread
108 W North Ave IL 60126,1.0,41.906107,-87.940163,Elmhurst,IL,60126,Panera Bread
North And York Rd IL 60126,0.67,41.88353,-87.946413,Elmhurst,IL,60126,Panera Bread
108 W North Ave IL 60126,1.0,41.906107,-87.940163,Elmhurst,IL,60126,Panera Bread
7400 W North Ave IL 60707,1.0,41.908645,-87.810653,Elmwood Park,IL,60707,Panera Bread
7330 W North Ave IL 60707,1.0,41.908972999999996,-87.80954,Elmwood Park,IL,60707,Panera Bread
7400 W North Ave IL 60707,1.0,41.908645,-87.810653,Elmwood Park,IL,60707,Panera Bread
7330 W North Ave IL 60707,1.0,41.908972999999996,-87.80954,Elmwood Park,IL,60707,Panera Bread
5917 N Illinois St IL 62208,1.0,38.585846000000004,-89.98499100000001,Fairview Heights,IL,62208,Panera Bread
226 Saint Clair Sq IL 62208,1.0,38.595,-89.982846,Fairview Heights,IL,62208,Panera Bread
5917 N Illinois St IL 62208,1.0,38.585846000000004,-89.98499100000001,Fairview Heights,IL,62208,Panera Bread
226 Saint Clair Sq IL 62208,1.0,38.595,-89.982846,Fairview Heights,IL,62208,Panera Bread
435 N La Grange Rd IL 60526,0.9,41.822625,-87.870701,La Grange Park,IL,60526,Panera Bread
439 North La Grange Road IL 60526,0.9,41.822646,-87.870729,La Grange Park,IL,60526,Panera Bread
435 N La Grange Rd IL 60526,0.9,41.822625,-87.870701,La Grange Park,IL,60526,Panera Bread
439 North La Grange Road IL 60526,0.9,41.822646,-87.870729,La Grange Park,IL,60526,Panera Bread
830 S Milwaukee Ave IL 60048,1.0,42.274269,-87.950564,Libertyville,IL,60048,Panera Bread
832 N Milwaukee Ave IL 60048,1.0,42.292190999999995,-87.954611,Libertyville,IL,60048,Panera Bread
830 S Milwaukee Ave IL 60048,1.0,42.274269,-87.950564,Libertyville,IL,60048,Panera Bread
832 N Milwaukee Ave IL 60048,1.0,42.292190999999995,-87.954611,Libertyville,IL,60048,Panera Bread
1191 E Ogden Ave IL 60563,1.0,41.79611,-88.124133,Naperville,IL,60563,Panera Bread
2775 Show Place Dr IL 60564,0.22,41.681478999999996,-88.201424,Naperville,IL,60564,Panera Bread
2775 Showplace Drive IL 60564,1.0,41.713535,-88.207627,Naperville,IL,60564,Panera Bread
1191 E Ogden Ave IL 60563,1.0,41.79611,-88.124133,Naperville,IL,60563,Panera Bread
2775 Show Place Dr IL 60564,0.22,41.681478999999996,-88.201424,Naperville,IL,60564,Panera Bread
2775 Showplace Drive IL 60564,1.0,41.713535,-88.207627,Naperville,IL,60564,Panera Bread
9400 North Milwaukee Avenue IL 60714,1.0,42.050393,-87.834538,Niles,IL,60714,Panera Bread
9465 N Milwaukee Ave IL 60714,1.0,42.052908,-87.835291,Niles,IL,60714,Panera Bread
7023 W Dempster St IL 60714,0.8,42.040262,-87.802136,Niles,IL,60714,Panera Bread
9400 North Milwaukee Avenue IL 60714,1.0,42.050393,-87.834538,Niles,IL,60714,Panera Bread
9465 N Milwaukee Ave IL 60714,1.0,42.052908,-87.835291,Niles,IL,60714,Panera Bread
7023 W Dempster St IL 60714,0.8,42.040262,-87.802136,Niles,IL,60714,Panera Bread
3120 Green Mt Crossing Dr IL 62269,0.86,38.574107,-89.928009,O'fallon,IL,62269,Panera Bread
3120 Green Mt Crossing Dr IL 62269,0.86,38.574107,-89.928009,O'fallon,IL,62269,Panera Bread
15845 S Harlem Ave IL 60462,1.0,41.603282,-87.794037,Orland Park,IL,60462,Panera Bread
9505 W 142nd St IL 60462,0.8,41.632342,-87.851677,Orland Park,IL,60462,Panera Bread
W 142nd St IL 60462,0.6,41.633253,-87.830431,Orland Park,IL,60462,Panera Bread
534 Orland Square Dr IL 60462,1.0,41.620787,-87.852544,Orland Park,IL,60462,Panera Bread
15252 S La Grange Rd IL 60462,0.22,41.625307,-87.83293,Orland Park,IL,60462,Panera Bread
15845 S Harlem Ave IL 60462,1.0,41.603282,-87.794037,Orland Park,IL,60462,Panera Bread
9505 W 142nd St IL 60462,0.8,41.632342,-87.851677,Orland Park,IL,60462,Panera Bread
W 142nd St IL 60462,0.6,41.633253,-87.830431,Orland Park,IL,60462,Panera Bread
534 Orland Square Dr IL 60462,1.0,41.620787,-87.852544,Orland Park,IL,60462,Panera Bread
15252 S La Grange Rd IL 60462,0.22,41.625307,-87.83293,Orland Park,IL,60462,Panera Bread
1101 W Bird Blvd IL 61615,1.0,40.796167,-89.61183,Peoria,IL,61615,Panera Bread
2601 W Lake Ave IL 61615,1.0,40.739601,-89.636893,Peoria,IL,61615,Panera Bread
2515 West Lake Avenue IL 61615,0.9,40.739742,-89.638018,Peoria,IL,61615,Panera Bread
1101 W Bird Blvd IL 61615,1.0,40.796167,-89.61183,Peoria,IL,61615,Panera Bread
2601 W Lake Ave IL 61615,1.0,40.739601,-89.636893,Peoria,IL,61615,Panera Bread
2515 West Lake Avenue IL 61615,0.9,40.739742,-89.638018,Peoria,IL,61615,Panera Bread
2360 Il-59 IL 60544,0.8,41.630938,-88.20273900000001,Plainfield,IL,60586,Panera Bread
12632 South Route 59 IL 60544,0.33,41.632457,-88.169698,Plainfield,IL,60544,Panera Bread
4722 Caton Farm Road IL 60586,1.0,41.564692,-88.199496,Plainfield,IL,60586,Panera Bread
2360 Il-59 IL 60544,0.8,41.630938,-88.20273900000001,Plainfield,IL,60586,Panera Bread
12632 South Route 59 IL 60544,0.33,41.632457,-88.169698,Plainfield,IL,60544,Panera Bread
4722 Caton Farm Road IL 60586,1.0,41.564692,-88.199496,Plainfield,IL,60586,Panera Bread
2970 Us-34 IL 60548,0.6,41.644728,-88.61758499999999,Sandwich,IL,60548,Panera Bread
2970 Us-34 IL 60548,0.6,41.644728,-88.61758499999999,Sandwich,IL,60548,Panera Bread
Us-34 IL 60548,1.0,41.644728,-88.61758499999999,Sandwich,IL,60548,Panera Bread
2970 Us-34 IL 60548,0.6,41.644728,-88.61758499999999,Sandwich,IL,60548,Panera Bread
2970 Us-34 IL 60548,0.6,41.644728,-88.61758499999999,Sandwich,IL,60548,Panera Bread
Us-34 IL 60548,1.0,41.644728,-88.61758499999999,Sandwich,IL,60548,Panera Bread
622 E Golf Rd IL 60173,1.0,42.05057,-88.065167,Schaumburg,IL,60173,Panera Bread
1140 N Plaza Dr IL 60173,1.0,42.049518,-88.04341600000001,Schaumburg,IL,60173,Panera Bread
2415 W Schaumburg Rd IL 60194,1.0,42.024503,-88.14043000000001,Schaumburg,IL,60194,Panera Bread
622 E Golf Rd IL 60173,1.0,42.05057,-88.065167,Schaumburg,IL,60173,Panera Bread
1140 N Plaza Dr IL 60173,1.0,42.049518,-88.04341600000001,Schaumburg,IL,60173,Panera Bread
2415 W Schaumburg Rd IL 60194,1.0,42.024503,-88.14043000000001,Schaumburg,IL,60194,Panera Bread
5508 Touhy Avenue IL 60077,1.0,42.012064,-87.76505,Skokie,IL,60077,Panera Bread
9611 Skokie Blvd IL 60077,0.95,42.055695,-87.746156,Skokie,IL,60076,Panera Bread
5508 Touhy Avenue IL 60077,1.0,42.012064,-87.76505,Skokie,IL,60077,Panera Bread
9611 Skokie Blvd IL 60077,0.95,42.055695,-87.746156,Skokie,IL,60076,Panera Bread
2484 Randall Rd IL 60177,0.7,42.091921,-88.336111,Elgin,IL,60123,Panera Bread
369 Randall Road IL 60177,1.0,41.995561,-88.338172,South Elgin,IL,60177,Panera Bread
2484 Randall Rd IL 60177,0.7,42.091921,-88.336111,Elgin,IL,60123,Panera Bread
369 Randall Road IL 60177,1.0,41.995561,-88.338172,South Elgin,IL,60177,Panera Bread
3019 S Dirksen Pkwy IL 62703,1.0,39.762349,-89.60740200000001,Springfield,IL,62703,Panera Bread
3101 W White Oaks Dr IL 62704,1.0,39.763116,-89.70972900000001,Springfield,IL,62704,Panera Bread
3019 S Dirksen Pkwy IL 62703,1.0,39.762349,-89.60740200000001,Springfield,IL,62703,Panera Bread
3101 W White Oaks Dr IL 62704,1.0,39.763116,-89.70972900000001,Springfield,IL,62704,Panera Bread
700 N Milwaukee Ave IL 60061,1.0,42.237571,-87.946711,Vernon Hills,IL,60061,Panera Bread
447 N Milwaukee Ave IL 60061,1.0,42.234344,-87.942566,Vernon Hills,IL,60061,Panera Bread
700 N Milwaukee Ave IL 60061,1.0,42.237571,-87.946711,Vernon Hills,IL,60061,Panera Bread
447 N Milwaukee Ave IL 60061,1.0,42.234344,-87.942566,Vernon Hills,IL,60061,Panera Bread
