id,strLocation,latitude,longitude,city,state,zip,Store
3996 Jeffco Blvd MO 63010,1.0,38.40569,-90.376802,Arnold,MO,63010,McDonald's
130 Arnold Crossroads Ctr MO 63010,0.88,38.445494000000004,-90.374454,Arnold,MO,63010,McDonald's
2201 Michigan Ave MO 63010,1.0,38.43704,-90.377478,Arnold,MO,63010,McDonald's
2005 Richardson Rd MO 63010,1.0,38.418378999999995,-90.390784,Arnold,MO,63010,McDonald's
3996 Jeffco Blvd MO 63010,1.0,38.40569,-90.376802,Arnold,MO,63010,McDonald's
130 Arnold Crossroads Ctr MO 63010,0.88,38.445494000000004,-90.374454,Arnold,MO,63010,McDonald's
2201 Michigan Ave MO 63010,1.0,38.43704,-90.377478,Arnold,MO,63010,McDonald's
2005 Richardson Rd MO 63010,1.0,38.418378999999995,-90.390784,Arnold,MO,63010,McDonald's
1500 Sw State Route 7 MO 64014,1.0,39.035975,-94.271045,Blue Springs,MO,64014,McDonald's
814 Nw State Route 7 MO 64014,1.0,39.028058,-94.27131800000001,Blue Springs,MO,64014,McDonald's
4491 Sw State Route 7 MO 64014,0.33,39.00569,-94.252933,Blue Springs,MO,64014,McDonald's
1515 Nw Woods Chapel Rd MO 64015,1.0,39.033134999999994,-94.305986,Blue Springs,MO,64015,McDonald's
920 SW US Highway 40 MO 64015,1.0,39.008868,-94.276729,Blue Springs,MO,64015,McDonald's
1500 Sw State Route 7 MO 64014,1.0,39.035975,-94.271045,Blue Springs,MO,64014,McDonald's
814 Nw State Route 7 MO 64014,1.0,39.028058,-94.27131800000001,Blue Springs,MO,64014,McDonald's
4491 Sw State Route 7 MO 64014,0.33,39.00569,-94.252933,Blue Springs,MO,64014,McDonald's
1515 Nw Woods Chapel Rd MO 64015,1.0,39.033134999999994,-94.305986,Blue Springs,MO,64015,McDonald's
920 SW US Highway 40 MO 64015,1.0,39.008868,-94.276729,Blue Springs,MO,64015,McDonald's
515 W Main St MO 65616,1.0,36.644413,-93.22273,Branson,MO,65616,McDonald's
2214 W 76 Country Blvd MO 65616,1.0,36.641176,-93.263875,Branson,MO,65616,McDonald's
1361 State Highway 248 MO 65616,1.0,36.663609,-93.240089,Branson,MO,65616,McDonald's
140 Corporate Pl MO 65616,1.0,36.687683,-93.21818,Branson,MO,65616,McDonald's
515 W Main St MO 65616,1.0,36.644413,-93.22273,Branson,MO,65616,McDonald's
2214 W 76 Country Blvd MO 65616,1.0,36.641176,-93.263875,Branson,MO,65616,McDonald's
1361 State Highway 248 MO 65616,1.0,36.663609,-93.240089,Branson,MO,65616,McDonald's
140 Corporate Pl MO 65616,1.0,36.687683,-93.21818,Branson,MO,65616,McDonald's
1925 Broadway St MO 63701,1.0,37.313049,-89.54475500000001,Cape Girardeau,MO,63701,McDonald's
3419 William St MO 63701,1.0,37.302703,-89.583526,Cape Girardeau,MO,63701,McDonald's
528 Helena St MO 63701,1.0,37.312034000000004,-89.545998,Cape Girardeau,MO,63701,McDonald's
W Park Mall MO 63703,1.0,37.298932,-89.574442,Cape Girardeau,MO,63703,McDonald's
1925 Broadway St MO 63701,1.0,37.313049,-89.54475500000001,Cape Girardeau,MO,63701,McDonald's
3419 William St MO 63701,1.0,37.302703,-89.583526,Cape Girardeau,MO,63701,McDonald's
528 Helena St MO 63701,1.0,37.312034000000004,-89.545998,Cape Girardeau,MO,63701,McDonald's
W Park Mall MO 63703,1.0,37.298932,-89.574442,Cape Girardeau,MO,63703,McDonald's
2812 Hazel St MO 64836,1.0,37.140138,-94.319482,Carthage,MO,64836,McDonald's
1111 W Central Ave MO 64836,0.9,37.178726,-94.324652,Carthage,MO,64836,McDonald's
2812 Hazel St MO 64836,1.0,37.140138,-94.319482,Carthage,MO,64836,McDonald's
1111 W Central Ave MO 64836,0.9,37.178726,-94.324652,Carthage,MO,64836,McDonald's
Jackson St MO 64601,1.0,39.793553,-93.551076,Chillicothe,MO,64601,McDonald's
810 W Business 36 MO 64601,0.33,39.795225,-93.588876,Chillicothe,MO,64601,McDonald's
Jackson St MO 64601,1.0,39.793553,-93.551076,Chillicothe,MO,64601,McDonald's
810 W Business 36 MO 64601,0.33,39.795225,-93.588876,Chillicothe,MO,64601,McDonald's
415 Conley Rd MO 65201,1.0,38.954901,-92.296588,Columbia,MO,65201,McDonald's
909 Lowry St MO 65201,1.0,38.945189,-92.32748199999999,Columbia,MO,65201,McDonald's
500 E Nifong Blvd MO 65201,1.0,38.909554,-92.332705,Columbia,MO,65201,McDonald's
3206 Clark Ln MO 65202,1.0,38.963254,-92.28992099999999,Columbia,MO,65202,McDonald's
1012 Smiley Ln MO 65202,1.0,38.992745,-92.324348,Columbia,MO,65202,McDonald's
205 Basin Dr MO 65203,1.0,38.959209,-92.381953,Columbia,MO,65203,McDonald's
415 Conley Rd MO 65201,1.0,38.954901,-92.296588,Columbia,MO,65201,McDonald's
909 Lowry St MO 65201,1.0,38.945189,-92.32748199999999,Columbia,MO,65201,McDonald's
500 E Nifong Blvd MO 65201,1.0,38.909554,-92.332705,Columbia,MO,65201,McDonald's
3206 Clark Ln MO 65202,1.0,38.963254,-92.28992099999999,Columbia,MO,65202,McDonald's
1012 Smiley Ln MO 65202,1.0,38.992745,-92.324348,Columbia,MO,65202,McDonald's
205 Basin Dr MO 65203,1.0,38.959209,-92.381953,Columbia,MO,65203,McDonald's
119 Crown Hill Rd MO 64024,1.0,39.338702000000005,-94.24901700000001,Excelsior Springs,MO,64024,McDonald's
2221 Happy Ln MO 64024,0.22,39.332601000000004,-94.274632,Excelsior Springs,MO,64024,McDonald's
119 Crown Hill Rd MO 64024,1.0,39.338702000000005,-94.24901700000001,Excelsior Springs,MO,64024,McDonald's
2221 Happy Ln MO 64024,0.22,39.332601000000004,-94.274632,Excelsior Springs,MO,64024,McDonald's
1700 W Columbia St MO 63640,1.0,37.771109,-90.446821,Farmington,MO,63640,McDonald's
207 W Karsch Blvd MO 63640,1.0,37.788105,-90.422852,Farmington,MO,63640,McDonald's
426 Yellowstone Dr MO 63640,1.0,37.792025,-90.430435,Farmington,MO,63640,McDonald's
1700 W Columbia St MO 63640,1.0,37.771109,-90.446821,Farmington,MO,63640,McDonald's
207 W Karsch Blvd MO 63640,1.0,37.788105,-90.422852,Farmington,MO,63640,McDonald's
426 Yellowstone Dr MO 63640,1.0,37.792025,-90.430435,Farmington,MO,63640,McDonald's
1150 E Gannon Dr MO 63028,1.0,38.209369,-90.401843,Festus,MO,63028,McDonald's
515 S Truman Blvd MO 63028,0.9,38.215018,-90.387496,Festus,MO,63028,McDonald's
650 S Truman Blvd MO 63028,1.0,38.212715,-90.390964,Festus,MO,63028,McDonald's
1150 E Gannon Dr MO 63028,1.0,38.209369,-90.401843,Festus,MO,63028,McDonald's
515 S Truman Blvd MO 63028,0.9,38.215018,-90.387496,Festus,MO,63028,McDonald's
650 S Truman Blvd MO 63028,1.0,38.212715,-90.390964,Festus,MO,63028,McDonald's
12407 Blue Ridge Ext MO 64030,1.0,38.900422999999996,-94.532318,Grandview,MO,64030,McDonald's
5100 Harry Truman Dr MO 64030,1.0,38.89934,-94.533001,Grandview,MO,64030,McDonald's
12407 Blue Ridge Ext MO 64030,1.0,38.900422999999996,-94.532318,Grandview,MO,64030,McDonald's
5100 Harry Truman Dr MO 64030,1.0,38.89934,-94.533001,Grandview,MO,64030,McDonald's
1865 Highway 13 MO 64037,0.33,39.063373999999996,-93.74083,Higginsville,MO,64037,McDonald's
6676 Hwy 13 MO 64037,1.0,39.003561,-93.7351,Higginsville,MO,64037,McDonald's
1865 Highway 13 MO 64037,0.33,39.063373999999996,-93.74083,Higginsville,MO,64037,McDonald's
6676 Hwy 13 MO 64037,1.0,39.003561,-93.7351,Higginsville,MO,64037,McDonald's
11115 E 23rd St S MO 64052,1.0,39.079953,-94.446526,Independence,MO,64052,McDonald's
11700 Us 24 MO 64054,1.0,39.102509999999995,-94.436803,Independence,MO,64054,McDonald's
1401 S Noland Rd MO 64055,1.0,39.075207,-94.413669,Independence,MO,64055,McDonald's
1115 E 23rd St S MO 64055,1.0,39.07853,-94.401387,Independence,MO,64055,McDonald's
11801 E Us-40 MO 64055,0.85,39.045738,-94.441074,Independence,MO,64052,McDonald's
16802 Gudgell Rd MO 64055,1.0,39.071981,-94.379692,Independence,MO,64055,McDonald's
4226 S Noland Rd MO 64055,1.0,39.043189,-94.41564100000001,Independence,MO,64055,McDonald's
18910 Us 40 MO 64055,1.0,39.032112,-94.35651899999999,Independence,MO,64055,McDonald's
4000 Bolger Rd MO 64055,1.0,39.052246999999994,-94.372511,Independence,MO,64055,McDonald's
3921 Bolger Rd MO 64055,0.9,39.047472,-94.36565300000001,Independence,MO,64055,McDonald's
16235 Us 24 E MO 64056,1.0,39.117277,-94.38265899999999,Independence,MO,64056,McDonald's
11115 E 23rd St S MO 64052,1.0,39.079953,-94.446526,Independence,MO,64052,McDonald's
11700 Us 24 MO 64054,1.0,39.102509999999995,-94.436803,Independence,MO,64054,McDonald's
1401 S Noland Rd MO 64055,1.0,39.075207,-94.413669,Independence,MO,64055,McDonald's
1115 E 23rd St S MO 64055,1.0,39.07853,-94.401387,Independence,MO,64055,McDonald's
11801 E Us-40 MO 64055,0.85,39.045738,-94.441074,Independence,MO,64052,McDonald's
16802 Gudgell Rd MO 64055,1.0,39.071981,-94.379692,Independence,MO,64055,McDonald's
4226 S Noland Rd MO 64055,1.0,39.043189,-94.41564100000001,Independence,MO,64055,McDonald's
18910 Us 40 MO 64055,1.0,39.032112,-94.35651899999999,Independence,MO,64055,McDonald's
4000 Bolger Rd MO 64055,1.0,39.052246999999994,-94.372511,Independence,MO,64055,McDonald's
3921 Bolger Rd MO 64055,0.9,39.047472,-94.36565300000001,Independence,MO,64055,McDonald's
16235 Us 24 E MO 64056,1.0,39.117277,-94.38265899999999,Independence,MO,64056,McDonald's
815 Eastland Dr MO 65101,1.0,38.54953,-92.149665,Jefferson City,MO,65101,McDonald's
219 E Dunklin St MO 65101,1.0,38.57163,-92.174964,Jefferson City,MO,65101,McDonald's
1406 Missouri Blvd MO 65109,1.0,38.579288,-92.193426,Jefferson City,MO,65109,McDonald's
1918 Jefferson St MO 65109,1.0,38.553186,-92.199536,Jefferson City,MO,65109,McDonald's
3124 S 10 Mile Dr MO 65109,1.0,38.580579,-92.235171,Jefferson City,MO,65109,McDonald's
1425 Missouri Blvd MO 65109,1.0,38.579114000000004,-92.195151,Jefferson City,MO,65109,McDonald's
724 W Stadium Blvd MO 65109,1.0,38.580086,-92.21929200000001,Jefferson City,MO,65109,McDonald's
2003 Southridge Dr MO 65109,1.0,38.550733,-92.205236,Jefferson City,MO,65109,McDonald's
815 Eastland Dr MO 65101,1.0,38.54953,-92.149665,Jefferson City,MO,65101,McDonald's
219 E Dunklin St MO 65101,1.0,38.57163,-92.174964,Jefferson City,MO,65101,McDonald's
1406 Missouri Blvd MO 65109,1.0,38.579288,-92.193426,Jefferson City,MO,65109,McDonald's
1918 Jefferson St MO 65109,1.0,38.553186,-92.199536,Jefferson City,MO,65109,McDonald's
3124 S 10 Mile Dr MO 65109,1.0,38.580579,-92.235171,Jefferson City,MO,65109,McDonald's
1425 Missouri Blvd MO 65109,1.0,38.579114000000004,-92.195151,Jefferson City,MO,65109,McDonald's
724 W Stadium Blvd MO 65109,1.0,38.580086,-92.21929200000001,Jefferson City,MO,65109,McDonald's
2003 Southridge Dr MO 65109,1.0,38.550733,-92.205236,Jefferson City,MO,65109,McDonald's
1531 W 7th St MO 64801,0.9,37.084975,-94.53068499999999,Joplin,MO,64801,McDonald's
2701 N Main St MO 64801,1.0,37.114956,-94.50954399999999,Joplin,MO,64801,McDonald's
101 N Range Line Rd MO 64801,1.0,37.090685,-94.47699300000001,Joplin,MO,64801,McDonald's
1123 S Range Line Rd MO 64801,1.0,37.079136,-94.477335,Joplin,MO,64801,McDonald's
3330 N Range Line Rd MO 64801,1.0,37.118959000000004,-94.475985,Joplin,MO,64801,McDonald's
2731 S Main St MO 64804,1.0,37.060157000000004,-94.514191,Joplin,MO,64804,McDonald's
1501 S Range Line Rd MO 64804,0.84,37.073063,-94.477141,Joplin,MO,64804,McDonald's
4436 Highway 43 MO 64804,0.6,37.053437,-94.514813,Joplin,MO,64804,McDonald's
3140 Mc Clelland Blvd MO 64804,1.0,37.055898,-94.53275500000001,Joplin,MO,64804,McDonald's
1907 E 20th St MO 64804,1.0,37.069705,-94.493611,Joplin,MO,64804,McDonald's
1531 W 7th St MO 64801,0.9,37.084975,-94.53068499999999,Joplin,MO,64801,McDonald's
2701 N Main St MO 64801,1.0,37.114956,-94.50954399999999,Joplin,MO,64801,McDonald's
101 N Range Line Rd MO 64801,1.0,37.090685,-94.47699300000001,Joplin,MO,64801,McDonald's
1123 S Range Line Rd MO 64801,1.0,37.079136,-94.477335,Joplin,MO,64801,McDonald's
3330 N Range Line Rd MO 64801,1.0,37.118959000000004,-94.475985,Joplin,MO,64801,McDonald's
2731 S Main St MO 64804,1.0,37.060157000000004,-94.514191,Joplin,MO,64804,McDonald's
1501 S Range Line Rd MO 64804,0.84,37.073063,-94.477141,Joplin,MO,64804,McDonald's
4436 Highway 43 MO 64804,0.6,37.053437,-94.514813,Joplin,MO,64804,McDonald's
3140 Mc Clelland Blvd MO 64804,1.0,37.055898,-94.53275500000001,Joplin,MO,64804,McDonald's
1907 E 20th St MO 64804,1.0,37.069705,-94.493611,Joplin,MO,64804,McDonald's
1100 Main St MO 64105,1.0,39.100563,-94.583561,Kansas City,MO,64105,McDonald's
2301 Holmes St MO 64108,1.0,39.084213,-94.575255,Kansas City,MO,64108,McDonald's
3255 Main St MO 64111,1.0,39.066988,-94.585132,Kansas City,MO,64111,McDonald's
3741 Broadway St MO 64111,1.0,39.059615,-94.59045400000001,Kansas City,MO,64111,McDonald's
500 Nichols Rd MO 64112,1.0,39.041656,-94.59431500000001,Kansas City,MO,64112,McDonald's
7887 State Line Rd MO 64114,1.0,38.986046,-94.607744,Kansas City,MO,64114,McDonald's
1300 W 103rd St MO 64114,1.0,38.942316,-94.607303,Kansas City,MO,64114,McDonald's
8326 Wornall Rd MO 64114,1.0,38.976337,-94.59536,Kansas City,MO,64114,McDonald's
4002 N Oak Trfy MO 64116,1.0,39.167448,-94.57746800000001,Kansas City,MO,64116,McDonald's
2200 Vernon St MO 64116,1.0,39.146868,-94.55636700000001,Kansas City,MO,64116,McDonald's
4400 N Chouteau Trfy MO 64117,1.0,39.1731,-94.535263,Kansas City,MO,64117,McDonald's
7412 N Oak Trfy MO 64118,1.0,39.228559000000004,-94.576229,Kansas City,MO,64118,McDonald's
6305 N Antioch Rd MO 64119,1.0,39.20843,-94.54832900000001,Kansas City,MO,64119,McDonald's
290 Us 69 MO 64119,1.0,39.199958,-94.50003000000001,Kansas City,MO,64119,McDonald's
7207 N Hwy M1 MO 64119,0.3,39.227657,-94.545053,Kansas City,MO,64119,McDonald's
6701 E Front St MO 64120,1.0,39.129752,-94.503562,Kansas City,MO,64120,McDonald's
5347 Independence Ave MO 64124,1.0,39.10502,-94.519696,Kansas City,MO,64124,McDonald's
1421 Prospect Ave MO 64127,1.0,39.095496000000004,-94.551194,Kansas City,MO,64127,McDonald's
3051 Van Brunt Blvd MO 64128,1.0,39.069225,-94.520122,Kansas City,MO,64128,McDonald's
6996 Eastwood Trfy MO 64129,1.0,39.031296000000005,-94.503578,Kansas City,MO,64129,McDonald's
6406 Troost Ave MO 64131,1.0,39.011065,-94.575159,Kansas City,MO,64131,McDonald's
11290 Holmes Rd MO 64131,1.0,38.921490000000006,-94.584058,Kansas City,MO,64131,McDonald's
8304 Hickman Mills Dr MO 64132,1.0,38.975998,-94.55545699999999,Kansas City,MO,64132,McDonald's
8909 E Mo-350 MO 64133,1.0,38.997236,-94.478852,Kansas City,MO,64133,McDonald's
4398 E 115th St MO 64137,1.0,38.917303000000004,-94.537074,Kansas City,MO,64137,McDonald's
5620 E Bannister Rd MO 64137,1.0,38.95366,-94.525798,Kansas City,MO,64137,McDonald's
7700 E 87th St MO 64138,1.0,38.966649,-94.49867900000001,Raytown,MO,64138,McDonald's
13100 Mo-350 MO 64139,0.85,38.965678000000004,-94.42841700000001,Kansas City,MO,64138,McDonald's
13301 State Line Rd MO 64145,1.0,38.886239,-94.607394,Kansas City,MO,64145,McDonald's
5353 Nw 64th St MO 64151,1.0,39.209955,-94.64222099999999,Kansas City,MO,64151,McDonald's
6830 Nw 83rd Ter MO 64152,0.65,39.245669,-94.659747,Kansas City,MO,64151,McDonald's
9551 N Mcgee St MO 64155,1.0,39.265413,-94.576397,Kansas City,MO,64155,McDonald's
150 Nw Barry Rd MO 64155,1.0,39.247114,-94.58272,Kansas City,MO,64155,McDonald's
9701 N Ash Ave MO 64157,1.0,39.26794,-94.451153,Kansas City,MO,64157,McDonald's
9851 Ne Barry Rd MO 64157,0.85,39.244029,-94.46248800000001,Kansas City,MO,64158,McDonald's
8301 N Church Rd MO 64158,0.86,39.243107,-94.45963499999999,Kansas City,MO,64158,McDonald's
1100 Main St MO 64105,1.0,39.100563,-94.583561,Kansas City,MO,64105,McDonald's
2301 Holmes St MO 64108,1.0,39.084213,-94.575255,Kansas City,MO,64108,McDonald's
3255 Main St MO 64111,1.0,39.066988,-94.585132,Kansas City,MO,64111,McDonald's
3741 Broadway St MO 64111,1.0,39.059615,-94.59045400000001,Kansas City,MO,64111,McDonald's
500 Nichols Rd MO 64112,1.0,39.041656,-94.59431500000001,Kansas City,MO,64112,McDonald's
7887 State Line Rd MO 64114,1.0,38.986046,-94.607744,Kansas City,MO,64114,McDonald's
1300 W 103rd St MO 64114,1.0,38.942316,-94.607303,Kansas City,MO,64114,McDonald's
8326 Wornall Rd MO 64114,1.0,38.976337,-94.59536,Kansas City,MO,64114,McDonald's
4002 N Oak Trfy MO 64116,1.0,39.167448,-94.57746800000001,Kansas City,MO,64116,McDonald's
2200 Vernon St MO 64116,1.0,39.146868,-94.55636700000001,Kansas City,MO,64116,McDonald's
4400 N Chouteau Trfy MO 64117,1.0,39.1731,-94.535263,Kansas City,MO,64117,McDonald's
7412 N Oak Trfy MO 64118,1.0,39.228559000000004,-94.576229,Kansas City,MO,64118,McDonald's
6305 N Antioch Rd MO 64119,1.0,39.20843,-94.54832900000001,Kansas City,MO,64119,McDonald's
290 Us 69 MO 64119,1.0,39.199958,-94.50003000000001,Kansas City,MO,64119,McDonald's
7207 N Hwy M1 MO 64119,0.3,39.227657,-94.545053,Kansas City,MO,64119,McDonald's
6701 E Front St MO 64120,1.0,39.129752,-94.503562,Kansas City,MO,64120,McDonald's
5347 Independence Ave MO 64124,1.0,39.10502,-94.519696,Kansas City,MO,64124,McDonald's
1421 Prospect Ave MO 64127,1.0,39.095496000000004,-94.551194,Kansas City,MO,64127,McDonald's
3051 Van Brunt Blvd MO 64128,1.0,39.069225,-94.520122,Kansas City,MO,64128,McDonald's
6996 Eastwood Trfy MO 64129,1.0,39.031296000000005,-94.503578,Kansas City,MO,64129,McDonald's
6406 Troost Ave MO 64131,1.0,39.011065,-94.575159,Kansas City,MO,64131,McDonald's
11290 Holmes Rd MO 64131,1.0,38.921490000000006,-94.584058,Kansas City,MO,64131,McDonald's
8304 Hickman Mills Dr MO 64132,1.0,38.975998,-94.55545699999999,Kansas City,MO,64132,McDonald's
8909 E Mo-350 MO 64133,1.0,38.997236,-94.478852,Kansas City,MO,64133,McDonald's
4398 E 115th St MO 64137,1.0,38.917303000000004,-94.537074,Kansas City,MO,64137,McDonald's
5620 E Bannister Rd MO 64137,1.0,38.95366,-94.525798,Kansas City,MO,64137,McDonald's
7700 E 87th St MO 64138,1.0,38.966649,-94.49867900000001,Raytown,MO,64138,McDonald's
13100 Mo-350 MO 64139,0.85,38.965678000000004,-94.42841700000001,Kansas City,MO,64138,McDonald's
13301 State Line Rd MO 64145,1.0,38.886239,-94.607394,Kansas City,MO,64145,McDonald's
5353 Nw 64th St MO 64151,1.0,39.209955,-94.64222099999999,Kansas City,MO,64151,McDonald's
6830 Nw 83rd Ter MO 64152,0.65,39.245669,-94.659747,Kansas City,MO,64151,McDonald's
9551 N Mcgee St MO 64155,1.0,39.265413,-94.576397,Kansas City,MO,64155,McDonald's
150 Nw Barry Rd MO 64155,1.0,39.247114,-94.58272,Kansas City,MO,64155,McDonald's
9701 N Ash Ave MO 64157,1.0,39.26794,-94.451153,Kansas City,MO,64157,McDonald's
9851 Ne Barry Rd MO 64157,0.85,39.244029,-94.46248800000001,Kansas City,MO,64158,McDonald's
8301 N Church Rd MO 64158,0.86,39.243107,-94.45963499999999,Kansas City,MO,64158,McDonald's
2210 N Baltimore St MO 63501,1.0,40.215056,-92.58223199999999,Kirksville,MO,63501,McDonald's
1401 S Baltimore St MO 63501,0.9,40.183588,-92.57208100000001,Kirksville,MO,63501,McDonald's
2210 N Baltimore St MO 63501,1.0,40.215056,-92.58223199999999,Kirksville,MO,63501,McDonald's
1401 S Baltimore St MO 63501,0.9,40.183588,-92.57208100000001,Kirksville,MO,63501,McDonald's
885 Robert Raymond Dr MO 63367,1.0,38.768727,-90.782544,Lake Saint Louis,MO,63367,McDonald's
885 Robert Raymond Dr MO 63367,1.0,38.768727,-90.782544,Lake Saint Louis,MO,63367,McDonald's
885 Robert Raymond Dr MO 63367,1.0,38.768727,-90.782544,Lake Saint Louis,MO,63367,McDonald's
885 Robert Raymond Dr MO 63367,1.0,38.768727,-90.782544,Lake Saint Louis,MO,63367,McDonald's
885 Robert Raymond Dr MO 63367,1.0,38.768727,-90.782544,Lake Saint Louis,MO,63367,McDonald's
885 Robert Raymond Dr MO 63367,1.0,38.768727,-90.782544,Lake Saint Louis,MO,63367,McDonald's
885 Robert Raymond Dr MO 63367,1.0,38.768727,-90.782544,Lake Saint Louis,MO,63367,McDonald's
885 Robert Raymond Dr MO 63367,1.0,38.768727,-90.782544,Lake Saint Louis,MO,63367,McDonald's
900 E Langsford Rd MO 64063,1.0,38.917781,-94.361899,Lees Summit,MO,64063,McDonald's
1809 Blue Pkwy MO 64063,1.0,38.903604,-94.33890500000001,Lees Summit,MO,64063,McDonald's
901 Nw Chipman Rd MO 64063,1.0,38.925345,-94.399091,Lees Summit,MO,64063,McDonald's
900 Ne Columbus St MO 64086,1.0,38.92126,-94.359712,Lees Summit,MO,64086,McDonald's
900 E Langsford Rd MO 64063,1.0,38.917781,-94.361899,Lees Summit,MO,64063,McDonald's
1809 Blue Pkwy MO 64063,1.0,38.903604,-94.33890500000001,Lees Summit,MO,64063,McDonald's
901 Nw Chipman Rd MO 64063,1.0,38.925345,-94.399091,Lees Summit,MO,64063,McDonald's
900 Ne Columbus St MO 64086,1.0,38.92126,-94.359712,Lees Summit,MO,64086,McDonald's
1304 E Highway 24 MO 65270,0.6,39.437961,-92.445983,Moberly,MO,65270,McDonald's
1501 N Morley St MO 65270,1.0,39.434248,-92.433081,Moberly,MO,65270,McDonald's
1304 E Highway 24 MO 65270,0.6,39.437961,-92.445983,Moberly,MO,65270,McDonald's
1501 N Morley St MO 65270,1.0,39.434248,-92.433081,Moberly,MO,65270,McDonald's
3200 Lusk Dr MO 64850,0.6,36.84171,-94.39426999999999,Neosho,MO,64850,McDonald's
708 S Neosho Blvd MO 64850,1.0,36.862898,-94.382068,Neosho,MO,64850,McDonald's
3200 Lusk Dr MO 64850,0.6,36.84171,-94.39426999999999,Neosho,MO,64850,McDonald's
708 S Neosho Blvd MO 64850,1.0,36.862898,-94.382068,Neosho,MO,64850,McDonald's
201 W Austin Blvd MO 64772,1.0,37.837334999999996,-94.358026,Nevada,MO,64772,McDonald's
2250 Lincoln Ave MO 89301,1.0,39.254771999999996,-114.875658,Ely,NV,89301,McDonald's
201 W Austin Blvd MO 64772,1.0,37.837334999999996,-94.358026,Nevada,MO,64772,McDonald's
2250 Lincoln Ave MO 89301,1.0,39.254771999999996,-114.875658,Ely,NV,89301,McDonald's
4001 Crusher Dr MO 63304,0.33,38.703508,-90.66752199999999,Saint Charles,MO,63304,McDonald's
2144 W Terra Ln MO 63366,1.0,38.805288,-90.769806,O Fallon,MO,63366,McDonald's
1001 N Main St MO 63366,1.0,38.822025,-90.700147,O Fallon,MO,63366,McDonald's
101 McDonald Ln MO 63366,1.0,38.801726,-90.69935100000001,O Fallon,MO,63366,McDonald's
2915 Highway K MO 63368,1.0,38.758881,-90.700941,O Fallon,MO,63368,McDonald's
4001 Crusher Dr MO 63304,0.33,38.703508,-90.66752199999999,Saint Charles,MO,63304,McDonald's
2144 W Terra Ln MO 63366,1.0,38.805288,-90.769806,O Fallon,MO,63366,McDonald's
1001 N Main St MO 63366,1.0,38.822025,-90.700147,O Fallon,MO,63366,McDonald's
101 McDonald Ln MO 63366,1.0,38.801726,-90.69935100000001,O Fallon,MO,63366,McDonald's
2915 Highway K MO 63368,1.0,38.758881,-90.700941,O Fallon,MO,63368,McDonald's
Osage Beach Pkwy MO 65065,1.0,38.131001,-92.671943,Osage Beach,MO,65065,McDonald's
4072 Highway 54 MO 65065,0.6,38.088544,-92.69074499999999,Osage Beach,MO,65065,McDonald's
Osage Beach Pkwy MO 65065,1.0,38.131001,-92.671943,Osage Beach,MO,65065,McDonald's
4072 Highway 54 MO 65065,0.6,38.088544,-92.69074499999999,Osage Beach,MO,65065,McDonald's
5699 Fox Creek Rd MO 63069,1.0,38.506475,-90.678605,Eureka,MO,63069,McDonald's
1620 W Union St MO 63069,1.0,38.484178,-90.759105,Pacific,MO,63069,McDonald's
5699 Fox Creek Rd MO 63069,1.0,38.506475,-90.678605,Eureka,MO,63069,McDonald's
1620 W Union St MO 63069,1.0,38.484178,-90.759105,Pacific,MO,63069,McDonald's
1302 S Perryville Blvd MO 63775,1.0,37.711603000000004,-89.89165,Perryville,MO,63775,McDonald's
S Perryville Blvd MO 63775,1.0,37.71137,-89.890815,Perryville,MO,63775,McDonald's
1302 S Perryville Blvd MO 63775,1.0,37.711603000000004,-89.89165,Perryville,MO,63775,McDonald's
S Perryville Blvd MO 63775,1.0,37.71137,-89.890815,Perryville,MO,63775,McDonald's
2783 N Westwood Blvd MO 63901,1.0,36.787172999999996,-90.430801,Poplar Bluff,MO,63901,McDonald's
333 S Westwood Blvd MO 63901,1.0,36.756026,-90.408245,Poplar Bluff,MO,63901,McDonald's
2783 N Westwood Blvd MO 63901,1.0,36.787172999999996,-90.430801,Poplar Bluff,MO,63901,McDonald's
333 S Westwood Blvd MO 63901,1.0,36.756026,-90.408245,Poplar Bluff,MO,63901,McDonald's
5260 Blue Ridge Blvd MO 64133,1.0,39.026517999999996,-94.442468,Raytown,MO,64133,McDonald's
8909 E State Route 350 MO 64133,1.0,38.997236,-94.478852,Kansas City,MO,64133,McDonald's
5260 Blue Ridge Blvd MO 64133,1.0,39.026517999999996,-94.442468,Raytown,MO,64133,McDonald's
8909 E State Route 350 MO 64133,1.0,38.997236,-94.478852,Kansas City,MO,64133,McDonald's
500 S Bishop Ave MO 65401,1.0,37.938696,-91.77748000000001,Rolla,MO,65401,McDonald's
1106 Kingshighway St MO 65401,1.0,37.944427000000005,-91.785588,Rolla,MO,65401,McDonald's
500 S Bishop Ave MO 65401,1.0,37.938696,-91.77748000000001,Rolla,MO,65401,McDonald's
1106 Kingshighway St MO 65401,1.0,37.944427000000005,-91.785588,Rolla,MO,65401,McDonald's
3101 W Broadway Blvd MO 65301,1.0,38.708564,-93.264932,Sedalia,MO,65301,McDonald's
1611 S Limit Ave MO 65301,0.6,38.672579,-93.251594,Sedalia,MO,65301,McDonald's
3201 W Broadway Blvd MO 65301,1.0,38.709145,-93.267354,Sedalia,MO,65301,McDonald's
3101 W Broadway Blvd MO 65301,1.0,38.708564,-93.264932,Sedalia,MO,65301,McDonald's
1611 S Limit Ave MO 65301,0.6,38.672579,-93.251594,Sedalia,MO,65301,McDonald's
3201 W Broadway Blvd MO 65301,1.0,38.709145,-93.267354,Sedalia,MO,65301,McDonald's
2605 E Malone Ave MO 63801,1.0,36.89093,-89.53609300000001,Sikeston,MO,63801,McDonald's
E Malone Ave MO 63801,1.0,36.885019,-89.559776,Sikeston,MO,63801,McDonald's
1301 S Main St MO 63801,0.9,36.864246,-89.582202,Sikeston,MO,63801,McDonald's
2605 E Malone Ave MO 63801,1.0,36.89093,-89.53609300000001,Sikeston,MO,63801,McDonald's
E Malone Ave MO 63801,1.0,36.885019,-89.559776,Sikeston,MO,63801,McDonald's
1301 S Main St MO 63801,0.9,36.864246,-89.582202,Sikeston,MO,63801,McDonald's
3510 W Chestnut Expy MO 65802,1.0,37.211708,-93.349638,Springfield,MO,65802,McDonald's
3250 E Chestnut Expy MO 65802,1.0,37.209263,-93.228759,Springfield,MO,65802,McDonald's
528 S Glenstone Ave MO 65802,1.0,37.204126,-93.26139599999999,Springfield,MO,65802,McDonald's
234 South National Avenue MO 65802,1.0,37.208365,-93.27558,Springfield,MO,65802,McDonald's
2811 N Kansas Expy MO 65803,1.0,37.247765,-93.31142,Springfield,MO,65803,McDonald's
1114 W Kearney St MO 65803,1.0,37.240512,-93.303953,Springfield,MO,65803,McDonald's
2220 N Glenstone Ave MO 65803,1.0,37.236674,-93.26055500000001,Springfield,MO,65803,McDonald's
2115 E Independence St MO 65804,1.0,37.142661,-93.256063,Springfield,MO,65804,McDonald's
1221 E Kingsley St MO 65804,1.0,37.140109,-93.277466,Springfield,MO,65804,McDonald's
2512 E Sunshine St MO 65804,1.0,37.180644,-93.246274,Springfield,MO,65804,McDonald's
1607 E Battlefield St MO 65804,1.0,37.160002,-93.266769,Springfield,MO,65804,McDonald's
3320 E Battlefield St MO 65804,1.0,37.157647999999995,-93.227589,Springfield,MO,65804,McDonald's
2021 E Independence St MO 65804,1.0,37.144143,-93.25843,Springfield,MO,65804,McDonald's
1925 E Marsa Dr MO 65804,1.0,37.187148,-93.258803,Springfield,MO,65804,McDonald's
4022 W Republic Rd MO 65807,1.0,37.138678000000006,-93.363248,Springfield,MO,65807,McDonald's
1717 W Battlefield St MO 65807,1.0,37.160322,-93.314572,Springfield,MO,65807,McDonald's
4101 S Campbell Ave MO 65807,1.0,37.139864,-93.296952,Springfield,MO,65807,McDonald's
501 W Sunshine St MO 65807,1.0,37.18275,-93.296782,Springfield,MO,65807,McDonald's
1935 S Campbell Ave MO 65807,1.0,37.180021999999994,-93.29694,Springfield,MO,65807,McDonald's
3510 W Chestnut Expy MO 65802,1.0,37.211708,-93.349638,Springfield,MO,65802,McDonald's
3250 E Chestnut Expy MO 65802,1.0,37.209263,-93.228759,Springfield,MO,65802,McDonald's
528 S Glenstone Ave MO 65802,1.0,37.204126,-93.26139599999999,Springfield,MO,65802,McDonald's
234 South National Avenue MO 65802,1.0,37.208365,-93.27558,Springfield,MO,65802,McDonald's
2811 N Kansas Expy MO 65803,1.0,37.247765,-93.31142,Springfield,MO,65803,McDonald's
1114 W Kearney St MO 65803,1.0,37.240512,-93.303953,Springfield,MO,65803,McDonald's
2220 N Glenstone Ave MO 65803,1.0,37.236674,-93.26055500000001,Springfield,MO,65803,McDonald's
2115 E Independence St MO 65804,1.0,37.142661,-93.256063,Springfield,MO,65804,McDonald's
1221 E Kingsley St MO 65804,1.0,37.140109,-93.277466,Springfield,MO,65804,McDonald's
2512 E Sunshine St MO 65804,1.0,37.180644,-93.246274,Springfield,MO,65804,McDonald's
1607 E Battlefield St MO 65804,1.0,37.160002,-93.266769,Springfield,MO,65804,McDonald's
3320 E Battlefield St MO 65804,1.0,37.157647999999995,-93.227589,Springfield,MO,65804,McDonald's
2021 E Independence St MO 65804,1.0,37.144143,-93.25843,Springfield,MO,65804,McDonald's
1925 E Marsa Dr MO 65804,1.0,37.187148,-93.258803,Springfield,MO,65804,McDonald's
4022 W Republic Rd MO 65807,1.0,37.138678000000006,-93.363248,Springfield,MO,65807,McDonald's
1717 W Battlefield St MO 65807,1.0,37.160322,-93.314572,Springfield,MO,65807,McDonald's
4101 S Campbell Ave MO 65807,1.0,37.139864,-93.296952,Springfield,MO,65807,McDonald's
501 W Sunshine St MO 65807,1.0,37.18275,-93.296782,Springfield,MO,65807,McDonald's
1935 S Campbell Ave MO 65807,1.0,37.180021999999994,-93.29694,Springfield,MO,65807,McDonald's
1160 S 5th St MO 63301,1.0,38.77259,-90.491389,Saint Charles,MO,63301,McDonald's
3701 Elm St MO 63301,1.0,38.819365999999995,-90.513964,Saint Charles,MO,63301,McDonald's
3701 Elm St MO 63301,1.0,38.819365999999995,-90.513964,Saint Charles,MO,63301,McDonald's
740 S Duchesne Dr MO 63301,1.0,38.788216999999996,-90.513649,Saint Charles,MO,63301,McDonald's
1890 Zumbehl Rd MO 63303,1.0,38.779081,-90.53005999999999,Saint Charles,MO,63303,McDonald's
24 Harvester Sq MO 63303,1.0,38.746512,-90.578506,Saint Charles,MO,63303,McDonald's
24 Harvester Sq MO 63303,1.0,38.746512,-90.578506,Saint Charles,MO,63303,McDonald's
1890 Zumbehl Rd MO 63303,1.0,38.779081,-90.53005999999999,Saint Charles,MO,63303,McDonald's
6251 Mid Rivers Mall Dr MO 63304,1.0,38.739562,-90.634475,Saint Peters,MO,63304,McDonald's
6251 Mid Rivers Mall Dr MO 63304,1.0,38.739562,-90.634475,Saint Peters,MO,63304,McDonald's
1160 S 5th St MO 63301,1.0,38.77259,-90.491389,Saint Charles,MO,63301,McDonald's
3701 Elm St MO 63301,1.0,38.819365999999995,-90.513964,Saint Charles,MO,63301,McDonald's
3701 Elm St MO 63301,1.0,38.819365999999995,-90.513964,Saint Charles,MO,63301,McDonald's
740 S Duchesne Dr MO 63301,1.0,38.788216999999996,-90.513649,Saint Charles,MO,63301,McDonald's
1890 Zumbehl Rd MO 63303,1.0,38.779081,-90.53005999999999,Saint Charles,MO,63303,McDonald's
24 Harvester Sq MO 63303,1.0,38.746512,-90.578506,Saint Charles,MO,63303,McDonald's
24 Harvester Sq MO 63303,1.0,38.746512,-90.578506,Saint Charles,MO,63303,McDonald's
1890 Zumbehl Rd MO 63303,1.0,38.779081,-90.53005999999999,Saint Charles,MO,63303,McDonald's
6251 Mid Rivers Mall Dr MO 63304,1.0,38.739562,-90.634475,Saint Peters,MO,63304,McDonald's
6251 Mid Rivers Mall Dr MO 63304,1.0,38.739562,-90.634475,Saint Peters,MO,63304,McDonald's
1450 N Main St MO 63077,1.0,38.360676,-90.977549,Saint Clair,MO,63077,McDonald's
1450 N Main St MO 63077,1.0,38.360676,-90.977549,Saint Clair,MO,63077,McDonald's
1450 N Main St MO 63077,1.0,38.360676,-90.977549,Saint Clair,MO,63077,McDonald's
1450 N Main St MO 63077,1.0,38.360676,-90.977549,Saint Clair,MO,63077,McDonald's
3417 S Belt Hwy MO 64503,1.0,39.734195,-94.800489,Saint Joseph,MO,64503,McDonald's
4219 Us 169 S MO 64503,1.0,39.724825,-94.789852,Saint Joseph,MO,64503,McDonald's
6018 Lake Ave MO 64504,1.0,39.714051,-94.870889,Saint Joseph,MO,64504,McDonald's
6108 Lake Ave MO 64504,1.0,39.713246000000005,-94.872715,Saint Joseph,MO,64504,McDonald's
3504 N Belt Hwy MO 64506,1.0,39.801953000000005,-94.816057,Saint Joseph,MO,64506,McDonald's
3504 N Belt Hwy MO 64506,1.0,39.801953000000005,-94.816057,Saint Joseph,MO,64506,McDonald's
3504 N Belt Hwy MO 64506,1.0,39.801953000000005,-94.816057,Saint Joseph,MO,64506,McDonald's
1311 N Belt Hwy MO 64506,1.0,39.779157,-94.802583,Saint Joseph,MO,64506,McDonald's
601 N Belt Hwy MO 64506,1.0,39.771327,-94.802982,Saint Joseph,MO,64506,McDonald's
601 N Belt Hwy MO 64506,1.0,39.771327,-94.802982,Saint Joseph,MO,64506,McDonald's
601 N Belt Hwy MO 64506,1.0,39.771327,-94.802982,Saint Joseph,MO,64506,McDonald's
1310 S Riverside Rd MO 64507,1.0,39.754065999999995,-94.769145,Saint Joseph,MO,64507,McDonald's
1310 S Riverside Rd MO 64507,1.0,39.754065999999995,-94.769145,Saint Joseph,MO,64507,McDonald's
3417 S Belt Hwy MO 64503,1.0,39.734195,-94.800489,Saint Joseph,MO,64503,McDonald's
4219 Us 169 S MO 64503,1.0,39.724825,-94.789852,Saint Joseph,MO,64503,McDonald's
6018 Lake Ave MO 64504,1.0,39.714051,-94.870889,Saint Joseph,MO,64504,McDonald's
6108 Lake Ave MO 64504,1.0,39.713246000000005,-94.872715,Saint Joseph,MO,64504,McDonald's
3504 N Belt Hwy MO 64506,1.0,39.801953000000005,-94.816057,Saint Joseph,MO,64506,McDonald's
3504 N Belt Hwy MO 64506,1.0,39.801953000000005,-94.816057,Saint Joseph,MO,64506,McDonald's
3504 N Belt Hwy MO 64506,1.0,39.801953000000005,-94.816057,Saint Joseph,MO,64506,McDonald's
1311 N Belt Hwy MO 64506,1.0,39.779157,-94.802583,Saint Joseph,MO,64506,McDonald's
601 N Belt Hwy MO 64506,1.0,39.771327,-94.802982,Saint Joseph,MO,64506,McDonald's
601 N Belt Hwy MO 64506,1.0,39.771327,-94.802982,Saint Joseph,MO,64506,McDonald's
601 N Belt Hwy MO 64506,1.0,39.771327,-94.802982,Saint Joseph,MO,64506,McDonald's
1310 S Riverside Rd MO 64507,1.0,39.754065999999995,-94.769145,Saint Joseph,MO,64507,McDonald's
1310 S Riverside Rd MO 64507,1.0,39.754065999999995,-94.769145,Saint Joseph,MO,64507,McDonald's
1119 N Tucker Blvd MO 63101,1.0,38.636526,-90.195157,Saint Louis,MO,63101,McDonald's
700 Olive St MO 63101,1.0,38.628171,-90.191537,Saint Louis,MO,63101,McDonald's
1919 S Jefferson Ave MO 63104,1.0,38.612601,-90.221926,Saint Louis,MO,63104,McDonald's
1919 S Jefferson Ave MO 63104,1.0,38.612601,-90.221926,Saint Louis,MO,63104,McDonald's
1919 S Jefferson Ave MO 63104,1.0,38.612601,-90.221926,Saint Louis,MO,63104,McDonald's
4006 Lindell Blvd MO 63108,1.0,38.639077,-90.243727,Saint Louis,MO,63108,McDonald's
4006 Lindell Blvd MO 63108,1.0,38.639077,-90.243727,Saint Louis,MO,63108,McDonald's
4006 Lindell Blvd MO 63108,1.0,38.639077,-90.243727,Saint Louis,MO,63108,McDonald's
4620 S Kingshighway Blvd MO 63109,1.0,38.586273,-90.275726,Saint Louis,MO,63109,McDonald's
4200 Hampton Ave MO 63109,1.0,38.593036,-90.293683,Saint Louis,MO,63109,McDonald's
4420 S Broadway MO 63111,1.0,38.575246,-90.233347,Saint Louis,MO,63111,McDonald's
4979 Natural Bridge Ave MO 63115,1.0,38.676332,-90.250613,Saint Louis,MO,63115,McDonald's
7241 Gravois Ave MO 63116,1.0,38.564766,-90.293637,Saint Louis,MO,63116,McDonald's
3737 S Grand Blvd MO 63118,1.0,38.58915,-90.244496,Saint Louis,MO,63118,McDonald's
1420 Hampton Ave MO 63139,1.0,38.624505,-90.287486,Saint Louis,MO,63139,McDonald's
1119 N Tucker Blvd MO 63101,1.0,38.636526,-90.195157,Saint Louis,MO,63101,McDonald's
700 Olive St MO 63101,1.0,38.628171,-90.191537,Saint Louis,MO,63101,McDonald's
1919 S Jefferson Ave MO 63104,1.0,38.612601,-90.221926,Saint Louis,MO,63104,McDonald's
1919 S Jefferson Ave MO 63104,1.0,38.612601,-90.221926,Saint Louis,MO,63104,McDonald's
1919 S Jefferson Ave MO 63104,1.0,38.612601,-90.221926,Saint Louis,MO,63104,McDonald's
4006 Lindell Blvd MO 63108,1.0,38.639077,-90.243727,Saint Louis,MO,63108,McDonald's
4006 Lindell Blvd MO 63108,1.0,38.639077,-90.243727,Saint Louis,MO,63108,McDonald's
4006 Lindell Blvd MO 63108,1.0,38.639077,-90.243727,Saint Louis,MO,63108,McDonald's
4620 S Kingshighway Blvd MO 63109,1.0,38.586273,-90.275726,Saint Louis,MO,63109,McDonald's
4200 Hampton Ave MO 63109,1.0,38.593036,-90.293683,Saint Louis,MO,63109,McDonald's
4420 S Broadway MO 63111,1.0,38.575246,-90.233347,Saint Louis,MO,63111,McDonald's
4979 Natural Bridge Ave MO 63115,1.0,38.676332,-90.250613,Saint Louis,MO,63115,McDonald's
7241 Gravois Ave MO 63116,1.0,38.564766,-90.293637,Saint Louis,MO,63116,McDonald's
3737 S Grand Blvd MO 63118,1.0,38.58915,-90.244496,Saint Louis,MO,63118,McDonald's
1420 Hampton Ave MO 63139,1.0,38.624505,-90.287486,Saint Louis,MO,63139,McDonald's
905 Jungermann Rd MO 63376,1.0,38.773053999999995,-90.581873,Saint Peters,MO,63376,McDonald's
7890 Mexico Rd MO 63376,1.0,38.787619,-90.66165,Saint Peters,MO,63376,McDonald's
3883 Veterans Memorial Parkway MO 63376,1.0,38.79172,-90.563345,Saint Peters,MO,63376,McDonald's
7890 Mexico Rd MO 63376,1.0,38.787619,-90.66165,Saint Peters,MO,63376,McDonald's
1200 Mid Rivers Mall MO 63376,1.0,38.798155,-90.618679,Saint Peters,MO,63376,McDonald's
3883 Veterans Memorial Pkwy MO 63376,1.0,38.79172,-90.563345,Saint Peters,MO,63376,McDonald's
299 Mid Rivers Mall Dr MO 63376,1.0,38.794365,-90.623212,Saint Peters,MO,63376,McDonald's
7890 Mexico Rd MO 63376,1.0,38.787619,-90.66165,Saint Peters,MO,63376,McDonald's
199 Spencer Rd MO 63376,1.0,38.790963,-90.60576,Saint Peters,MO,63376,McDonald's
7890 Mexico Rd MO 63376,1.0,38.787619,-90.66165,Saint Peters,MO,63376,McDonald's
998 Knaust Rd MO 63376,1.0,38.760143,-90.653145,Saint Peters,MO,63376,McDonald's
905 Jungermann Rd MO 63376,1.0,38.773053999999995,-90.581873,Saint Peters,MO,63376,McDonald's
7890 Mexico Rd MO 63376,1.0,38.787619,-90.66165,Saint Peters,MO,63376,McDonald's
3883 Veterans Memorial Parkway MO 63376,1.0,38.79172,-90.563345,Saint Peters,MO,63376,McDonald's
7890 Mexico Rd MO 63376,1.0,38.787619,-90.66165,Saint Peters,MO,63376,McDonald's
1200 Mid Rivers Mall MO 63376,1.0,38.798155,-90.618679,Saint Peters,MO,63376,McDonald's
3883 Veterans Memorial Pkwy MO 63376,1.0,38.79172,-90.563345,Saint Peters,MO,63376,McDonald's
299 Mid Rivers Mall Dr MO 63376,1.0,38.794365,-90.623212,Saint Peters,MO,63376,McDonald's
7890 Mexico Rd MO 63376,1.0,38.787619,-90.66165,Saint Peters,MO,63376,McDonald's
199 Spencer Rd MO 63376,1.0,38.790963,-90.60576,Saint Peters,MO,63376,McDonald's
7890 Mexico Rd MO 63376,1.0,38.787619,-90.66165,Saint Peters,MO,63376,McDonald's
998 Knaust Rd MO 63376,1.0,38.760143,-90.653145,Saint Peters,MO,63376,McDonald's
311 E Young Ave MO 64093,1.0,38.771232,-93.73535600000001,Warrensburg,MO,64093,McDonald's
301 E Cooper St MO 64093,1.0,38.779284999999994,-93.737229,Warrensburg,MO,64093,McDonald's
311 E Young Ave MO 64093,1.0,38.771232,-93.73535600000001,Warrensburg,MO,64093,McDonald's
301 E Cooper St MO 64093,1.0,38.779284999999994,-93.737229,Warrensburg,MO,64093,McDonald's
1320 Porter Wagoner Blvd MO 65775,1.0,36.74057,-91.87070600000001,West Plains,MO,65775,McDonald's
1315 Preacher Roe Blvd MO 65775,1.0,36.714687,-91.87453599999999,West Plains,MO,65775,McDonald's
1320 Porter Wagoner Blvd MO 65775,1.0,36.74057,-91.87070600000001,West Plains,MO,65775,McDonald's
1315 Preacher Roe Blvd MO 65775,1.0,36.714687,-91.87453599999999,West Plains,MO,65775,McDonald's
602 S Harris St MO 65793,1.0,36.985828999999995,-91.976098,Willow Springs,MO,65793,McDonald's
607 N Harris St MO 65793,1.0,36.995005,-91.966163,Willow Springs,MO,65793,McDonald's
602 S Harris St MO 65793,1.0,36.985828999999995,-91.976098,Willow Springs,MO,65793,McDonald's
607 N Harris St MO 65793,1.0,36.995005,-91.966163,Willow Springs,MO,65793,McDonald's
501 W Lake St IL 60101,1.0,41.936951,-88.00099,Addison,IL,60101,McDonald's
410 W North Ave IL 60101,1.0,41.906023,-87.99831800000001,Addison,IL,60101,McDonald's
501 W Lake St IL 60101,1.0,41.936951,-88.00099,Addison,IL,60101,McDonald's
410 W North Ave IL 60101,1.0,41.906023,-87.99831800000001,Addison,IL,60101,McDonald's
125 S Randall Rd IL 60102,1.0,42.174492,-88.334713,Algonquin,IL,60102,McDonald's
500 E Algonquin Rd IL 60102,1.0,42.164038,-88.28324599999999,Algonquin,IL,60102,McDonald's
125 S Randall Rd IL 60102,1.0,42.174492,-88.334713,Algonquin,IL,60102,McDonald's
500 E Algonquin Rd IL 60102,1.0,42.164038,-88.28324599999999,Algonquin,IL,60102,McDonald's
2400 Homer M Adams Pkwy IL 62002,1.0,38.915874,-90.15195200000001,Alton,IL,62002,McDonald's
717 E Broadway IL 62002,1.0,38.889446,-90.174685,Alton,IL,62002,McDonald's
2400 Homer M Adams Pkwy IL 62002,1.0,38.915874,-90.15195200000001,Alton,IL,62002,McDonald's
717 E Broadway IL 62002,1.0,38.889446,-90.174685,Alton,IL,62002,McDonald's
1150 Main St IL 60002,1.0,42.471258,-88.094084,Antioch,IL,60002,McDonald's
1280 Main St IL 60002,1.0,42.468342,-88.092551,Antioch,IL,60002,McDonald's
1150 Main St IL 60002,1.0,42.471258,-88.094084,Antioch,IL,60002,McDonald's
1280 Main St IL 60002,1.0,42.468342,-88.092551,Antioch,IL,60002,McDonald's
15 E Dundee Rd IL 60004,1.0,42.138628000000004,-87.981314,Arlington Heights,IL,60004,McDonald's
1920 N Arlington Heights Rd IL 60004,1.0,42.111585,-87.981189,Arlington Heights,IL,60004,McDonald's
[600-698] E Dundee Rd IL 60004,0.75,42.138596,-87.973192,Arlington Heights,IL,60004,McDonald's
45 W Northwest Hwy IL 60004,0.85,42.084246,-87.98347700000001,Arlington Heights,IL,60005,McDonald's
45 E Golf Rd IL 60005,1.0,42.050975,-87.978201,Arlington Heights,IL,60005,McDonald's
15 E Dundee Rd IL 60004,1.0,42.138628000000004,-87.981314,Arlington Heights,IL,60004,McDonald's
1920 N Arlington Heights Rd IL 60004,1.0,42.111585,-87.981189,Arlington Heights,IL,60004,McDonald's
[600-698] E Dundee Rd IL 60004,0.75,42.138596,-87.973192,Arlington Heights,IL,60004,McDonald's
45 W Northwest Hwy IL 60004,0.85,42.084246,-87.98347700000001,Arlington Heights,IL,60005,McDonald's
45 E Golf Rd IL 60005,1.0,42.050975,-87.978201,Arlington Heights,IL,60005,McDonald's
425 N Eola Rd IL 60502,1.0,41.760965999999996,-88.242355,Aurora,IL,60502,McDonald's
2600 Beverly Dr IL 60502,0.84,41.807534000000004,-88.274783,Aurora,IL,60502,McDonald's
2230 South Eola Road IL 60503,1.0,41.714441,-88.253751,Aurora,IL,60503,McDonald's
2595 Ogden Ave IL 60504,1.0,41.737513,-88.251793,Aurora,IL,60504,McDonald's
4440 Fox Valley Center Road IL 60504,1.0,41.760825,-88.209841,Aurora,IL,60504,McDonald's
188 Fox Valley Ctr IL 60504,0.79,41.759739,-88.2148,Aurora,IL,60504,McDonald's
1185 N Farnsworth Ave IL 60505,1.0,41.781746999999996,-88.281137,Aurora,IL,60505,McDonald's
711 E New York St IL 60505,1.0,41.753854,-88.300886,Aurora,IL,60505,McDonald's
2011 W Galena Blvd IL 60506,1.0,41.766937,-88.366166,Aurora,IL,60506,McDonald's
350 W Galena Blvd IL 60506,1.0,41.760307,-88.321826,Aurora,IL,60506,McDonald's
1023 N Lake St IL 60506,1.0,41.778617,-88.315164,Aurora,IL,60506,McDonald's
1505 Butterfield Rd IL 60563,0.6,41.820531,-88.210245,Naperville,IL,60563,McDonald's
425 N Eola Rd IL 60502,1.0,41.760965999999996,-88.242355,Aurora,IL,60502,McDonald's
2600 Beverly Dr IL 60502,0.84,41.807534000000004,-88.274783,Aurora,IL,60502,McDonald's
2230 South Eola Road IL 60503,1.0,41.714441,-88.253751,Aurora,IL,60503,McDonald's
2595 Ogden Ave IL 60504,1.0,41.737513,-88.251793,Aurora,IL,60504,McDonald's
4440 Fox Valley Center Road IL 60504,1.0,41.760825,-88.209841,Aurora,IL,60504,McDonald's
188 Fox Valley Ctr IL 60504,0.79,41.759739,-88.2148,Aurora,IL,60504,McDonald's
1185 N Farnsworth Ave IL 60505,1.0,41.781746999999996,-88.281137,Aurora,IL,60505,McDonald's
711 E New York St IL 60505,1.0,41.753854,-88.300886,Aurora,IL,60505,McDonald's
2011 W Galena Blvd IL 60506,1.0,41.766937,-88.366166,Aurora,IL,60506,McDonald's
350 W Galena Blvd IL 60506,1.0,41.760307,-88.321826,Aurora,IL,60506,McDonald's
1023 N Lake St IL 60506,1.0,41.778617,-88.315164,Aurora,IL,60506,McDonald's
1505 Butterfield Rd IL 60563,0.6,41.820531,-88.210245,Naperville,IL,60563,McDonald's
1 Plaza Dr IL 62618,1.0,40.002837,-90.441582,Beardstown,IL,62618,McDonald's
80 Plaza Dr IL 62618,1.0,40.003077000000005,-90.440763,Beardstown,IL,62618,McDonald's
1 Plaza Dr IL 62618,1.0,40.002837,-90.441582,Beardstown,IL,62618,McDonald's
80 Plaza Dr IL 62618,1.0,40.003077000000005,-90.440763,Beardstown,IL,62618,McDonald's
125 S Belt E IL 62220,1.0,38.502787,-89.982055,Belleville,IL,62220,McDonald's
906 Carlyle Ave IL 62221,1.0,38.517427000000005,-89.949021,Belleville,IL,62221,McDonald's
1141 North Green Mount Road IL 62221,0.9,38.569264000000004,-89.92959300000001,Belleville,IL,62221,McDonald's
7301 Westfield Plaza Dr IL 62223,1.0,38.544686999999996,-90.051757,Belleville,IL,62223,McDonald's
2605 N Illinois St IL 62226,1.0,38.541999,-89.984314,Swansea,IL,62226,McDonald's
4422 W Main St IL 62226,1.0,38.539956,-90.02322099999999,Belleville,IL,62226,McDonald's
159 Fullerton Rd IL 62226,1.0,38.54165,-89.993325,Swansea,IL,62226,McDonald's
125 S Belt E IL 62220,1.0,38.502787,-89.982055,Belleville,IL,62220,McDonald's
906 Carlyle Ave IL 62221,1.0,38.517427000000005,-89.949021,Belleville,IL,62221,McDonald's
1141 North Green Mount Road IL 62221,0.9,38.569264000000004,-89.92959300000001,Belleville,IL,62221,McDonald's
7301 Westfield Plaza Dr IL 62223,1.0,38.544686999999996,-90.051757,Belleville,IL,62223,McDonald's
2605 N Illinois St IL 62226,1.0,38.541999,-89.984314,Swansea,IL,62226,McDonald's
4422 W Main St IL 62226,1.0,38.539956,-90.02322099999999,Belleville,IL,62226,McDonald's
159 Fullerton Rd IL 62226,1.0,38.54165,-89.993325,Swansea,IL,62226,McDonald's
5111 Pearl Street Road IL 61008,1.0,42.233875,-88.841599,Belvidere,IL,61008,McDonald's
2500 Pearl St IL 61008,1.0,42.234341,-88.83484399999999,Belvidere,IL,61008,McDonald's
240 W Chrysler Dr IL 61008,0.8,42.239683,-88.840536,Belvidere,IL,61008,McDonald's
1313 N State St IL 61008,1.0,42.269118,-88.85342299999999,Belvidere,IL,61008,McDonald's
5111 Pearl Street Road IL 61008,1.0,42.233875,-88.841599,Belvidere,IL,61008,McDonald's
2500 Pearl St IL 61008,1.0,42.234341,-88.83484399999999,Belvidere,IL,61008,McDonald's
240 W Chrysler Dr IL 61008,0.8,42.239683,-88.840536,Belvidere,IL,61008,McDonald's
1313 N State St IL 61008,1.0,42.269118,-88.85342299999999,Belvidere,IL,61008,McDonald's
630 Il Route 83 IL 60106,0.76,41.973198,-87.958362,Bensenville,IL,60106,McDonald's
550 Il Route 83 IL 60106,0.68,41.973198,-87.958362,Bensenville,IL,60106,McDonald's
55 N York Rd IL 60106,1.0,41.957678,-87.939126,Bensenville,IL,60106,McDonald's
630 Il Route 83 IL 60106,0.76,41.973198,-87.958362,Bensenville,IL,60106,McDonald's
550 Il Route 83 IL 60106,0.68,41.973198,-87.958362,Bensenville,IL,60106,McDonald's
55 N York Rd IL 60106,1.0,41.957678,-87.939126,Bensenville,IL,60106,McDonald's
6900 Ogden Ave IL 60402,1.0,41.825905,-87.795389,Berwyn,IL,60402,McDonald's
7181 Cermak Rd IL 60402,1.0,41.850086,-87.803217,Berwyn,IL,60402,McDonald's
7031 Ogden Avenue IL 60402,1.0,41.825407,-87.799126,Berwyn,IL,60402,McDonald's
7135 Roosevelt Rd IL 60402,1.0,41.864833000000004,-87.803151,Berwyn,IL,60402,McDonald's
6401 Cermak Rd IL 60402,1.0,41.850402,-87.784026,Berwyn,IL,60402,McDonald's
6900 Ogden Ave IL 60402,1.0,41.825905,-87.795389,Berwyn,IL,60402,McDonald's
7181 Cermak Rd IL 60402,1.0,41.850086,-87.803217,Berwyn,IL,60402,McDonald's
7031 Ogden Avenue IL 60402,1.0,41.825407,-87.799126,Berwyn,IL,60402,McDonald's
7135 Roosevelt Rd IL 60402,1.0,41.864833000000004,-87.803151,Berwyn,IL,60402,McDonald's
6401 Cermak Rd IL 60402,1.0,41.850402,-87.784026,Berwyn,IL,60402,McDonald's
72 Stratford Dr IL 60108,1.0,41.951331,-88.11679699999999,Bloomingdale,IL,60108,McDonald's
101 E Lake St IL 60108,1.0,41.958244,-88.080579,Bloomingdale,IL,60108,McDonald's
72 Stratford Dr IL 60108,1.0,41.951331,-88.11679699999999,Bloomingdale,IL,60108,McDonald's
101 E Lake St IL 60108,1.0,41.958244,-88.080579,Bloomingdale,IL,60108,McDonald's
525 Brock Dr IL 61701,1.0,40.483394,-89.023258,Bloomington,IL,61701,McDonald's
2507 E Oakland Ave IL 61701,1.0,40.471998,-88.953294,Bloomington,IL,61701,McDonald's
1610 E Empire St IL 61701,1.0,40.4889,-88.956092,Bloomington,IL,61701,McDonald's
1607 Commerce Pkwy IL 61704,1.0,40.457370000000004,-88.975716,Bloomington,IL,61704,McDonald's
2410 S Main St IL 61704,1.0,40.44943,-88.991477,Bloomington,IL,61704,McDonald's
525 Brock Dr IL 61701,1.0,40.483394,-89.023258,Bloomington,IL,61701,McDonald's
2507 E Oakland Ave IL 61701,1.0,40.471998,-88.953294,Bloomington,IL,61701,McDonald's
1610 E Empire St IL 61701,1.0,40.4889,-88.956092,Bloomington,IL,61701,McDonald's
1607 Commerce Pkwy IL 61704,1.0,40.457370000000004,-88.975716,Bloomington,IL,61704,McDonald's
2410 S Main St IL 61704,1.0,40.44943,-88.991477,Bloomington,IL,61704,McDonald's
840 East Boughton Road IL 60440,1.0,41.726620000000004,-88.032205,Bolingbrook,IL,60440,McDonald's
100 N Bolingbrook Dr IL 60440,1.0,41.698966999999996,-88.067701,Bolingbrook,IL,60440,McDonald's
295 N Weber Rd IL 60490,1.0,41.704337,-88.126651,Bolingbrook,IL,60490,McDonald's
840 East Boughton Road IL 60440,1.0,41.726620000000004,-88.032205,Bolingbrook,IL,60440,McDonald's
100 N Bolingbrook Dr IL 60440,1.0,41.698966999999996,-88.067701,Bolingbrook,IL,60440,McDonald's
295 N Weber Rd IL 60490,1.0,41.704337,-88.126651,Bolingbrook,IL,60490,McDonald's
575 Main St Nw IL 60914,1.0,41.159659999999995,-87.886448,Bourbonnais,IL,60914,McDonald's
9 Briarcliff Prof Ctr IL 60914,1.0,41.153202,-87.893553,Bourbonnais,IL,60914,McDonald's
2050 N State Route 50 IL 60914,1.0,41.188116,-87.850162,Bourbonnais,IL,60914,McDonald's
575 Main St Nw IL 60914,1.0,41.159659999999995,-87.886448,Bourbonnais,IL,60914,McDonald's
9 Briarcliff Prof Ctr IL 60914,1.0,41.153202,-87.893553,Bourbonnais,IL,60914,McDonald's
2050 N State Route 50 IL 60914,1.0,41.188116,-87.850162,Bourbonnais,IL,60914,McDonald's
7701 S Harlem Ave IL 60453,0.85,41.751208,-87.79939499999999,Bridgeview,IL,60455,McDonald's
7920 W 79th St IL 60455,1.0,41.747834000000005,-87.817126,Bridgeview,IL,60455,McDonald's
7170 W 87th St IL 60455,1.0,41.733667,-87.798249,Bridgeview,IL,60455,McDonald's
8611 S Harlem Ave IL 60455,1.0,41.735136,-87.799029,Bridgeview,IL,60455,McDonald's
7701 S Harlem Ave IL 60453,0.85,41.751208,-87.79939499999999,Bridgeview,IL,60455,McDonald's
7920 W 79th St IL 60455,1.0,41.747834000000005,-87.817126,Bridgeview,IL,60455,McDonald's
7170 W 87th St IL 60455,1.0,41.733667,-87.798249,Bridgeview,IL,60455,McDonald's
8611 S Harlem Ave IL 60455,1.0,41.735136,-87.799029,Bridgeview,IL,60455,McDonald's
600 Broadview Village Sq IL 60153,0.22,41.8792,-87.84312,Maywood,IL,60153,McDonald's
6000 Broadview Village Sq IL 60155,1.0,41.850442,-87.851727,Broadview,IL,60155,McDonald's
600 Broadview Village Sq IL 60153,0.22,41.8792,-87.84312,Maywood,IL,60153,McDonald's
6000 Broadview Village Sq IL 60155,1.0,41.850442,-87.851727,Broadview,IL,60155,McDonald's
2004 Sibley Blvd IL 60409,1.0,41.623148,-87.573867,Calumet City,IL,60409,McDonald's
70 River Oaks Center Dr Ste A IL 60409,1.0,41.595723,-87.532749,Calumet City,IL,60409,McDonald's
656 River Oaks Dr IL 60409,1.0,41.60042,-87.541031,Calumet City,IL,60409,McDonald's
2004 Sibley Blvd IL 60409,1.0,41.623148,-87.573867,Calumet City,IL,60409,McDonald's
70 River Oaks Center Dr Ste A IL 60409,1.0,41.595723,-87.532749,Calumet City,IL,60409,McDonald's
656 River Oaks Dr IL 60409,1.0,41.60042,-87.541031,Calumet City,IL,60409,McDonald's
2101 W Main St IL 62901,1.0,37.730589,-89.24453000000001,Carbondale,IL,62901,McDonald's
1920 N Illinois Ave IL 62901,1.0,37.751957,-89.220109,Carbondale,IL,62901,McDonald's
1396 E Main St IL 62901,0.9,37.735011,-89.186735,Carbondale,IL,62901,McDonald's
2101 W Main St IL 62901,1.0,37.730589,-89.24453000000001,Carbondale,IL,62901,McDonald's
1920 N Illinois Ave IL 62901,1.0,37.751957,-89.220109,Carbondale,IL,62901,McDonald's
1396 E Main St IL 62901,0.9,37.735011,-89.186735,Carbondale,IL,62901,McDonald's
355 S Schmale Rd IL 60187,0.85,41.894009999999994,-88.10242,Carol Stream,IL,60188,McDonald's
1335 N County Farm Rd IL 60188,1.0,41.939792,-88.150227,Carol Stream,IL,60188,McDonald's
355 S Schmale Rd IL 60187,0.85,41.894009999999994,-88.10242,Carol Stream,IL,60188,McDonald's
1335 N County Farm Rd IL 60188,1.0,41.939792,-88.150227,Carol Stream,IL,60188,McDonald's
1660 S Kennedy Dr IL 60110,1.0,42.114671,-88.257797,Carpentersville,IL,60110,McDonald's
2290 Randall Rd IL 60110,1.0,42.123509999999996,-88.336207,Carpentersville,IL,60110,McDonald's
1660 S Kennedy Dr IL 60110,1.0,42.114671,-88.257797,Carpentersville,IL,60110,McDonald's
2290 Randall Rd IL 60110,1.0,42.123509999999996,-88.336207,Carpentersville,IL,60110,McDonald's
810 E Broadway IL 62801,1.0,38.52626,-89.12402800000001,Centralia,IL,62801,McDonald's
1485 W Broadway IL 62801,0.6,38.529065,-89.142673,Centralia,IL,62801,McDonald's
810 E Broadway IL 62801,1.0,38.52626,-89.12402800000001,Centralia,IL,62801,McDonald's
1485 W Broadway IL 62801,0.6,38.529065,-89.142673,Centralia,IL,62801,McDonald's
3 Henson Pl IL 61820,1.0,40.133619,-88.24813,Champaign,IL,61820,McDonald's
1812 N Neil St IL 61820,1.0,40.137558,-88.243053,Champaign,IL,61820,McDonald's
301 E Gregory Dr IL 61820,1.0,40.103949,-88.23695699999999,Champaign,IL,61820,McDonald's
616 E Green St IL 61820,1.0,40.110436,-88.229312,Champaign,IL,61820,McDonald's
1605 S Neil St IL 61820,1.0,40.097545000000004,-88.245294,Champaign,IL,61820,McDonald's
182 North Neil Street IL 61820,1.0,40.117427,-88.24337,Champaign,IL,61820,McDonald's
906 West Bloomington Road IL 61821,1.0,40.133722999999996,-88.261143,Champaign,IL,61821,McDonald's
906 West Bloomington Road IL 61821,1.0,40.133722999999996,-88.261143,Champaign,IL,61821,McDonald's
501 N Mattis Ave IL 61821,1.0,40.120591,-88.27742099999999,Champaign,IL,61821,McDonald's
2909 W Kirby Ave IL 61821,1.0,40.097912,-88.293906,Champaign,IL,61821,McDonald's
4910 N Market St IL 61822,1.0,40.177575,-88.240425,Champaign,IL,61822,McDonald's
3 Henson Pl IL 61820,1.0,40.133619,-88.24813,Champaign,IL,61820,McDonald's
1812 N Neil St IL 61820,1.0,40.137558,-88.243053,Champaign,IL,61820,McDonald's
301 E Gregory Dr IL 61820,1.0,40.103949,-88.23695699999999,Champaign,IL,61820,McDonald's
616 E Green St IL 61820,1.0,40.110436,-88.229312,Champaign,IL,61820,McDonald's
1605 S Neil St IL 61820,1.0,40.097545000000004,-88.245294,Champaign,IL,61820,McDonald's
182 North Neil Street IL 61820,1.0,40.117427,-88.24337,Champaign,IL,61820,McDonald's
906 West Bloomington Road IL 61821,1.0,40.133722999999996,-88.261143,Champaign,IL,61821,McDonald's
906 West Bloomington Road IL 61821,1.0,40.133722999999996,-88.261143,Champaign,IL,61821,McDonald's
501 N Mattis Ave IL 61821,1.0,40.120591,-88.27742099999999,Champaign,IL,61821,McDonald's
2909 W Kirby Ave IL 61821,1.0,40.097912,-88.293906,Champaign,IL,61821,McDonald's
4910 N Market St IL 61822,1.0,40.177575,-88.240425,Champaign,IL,61822,McDonald's
24061 W Eames St IL 60410,1.0,41.454485999999996,-88.1975,Channahon,IL,60410,McDonald's
26953 W Eames St IL 60410,0.6,41.444939,-88.20745500000001,Channahon,IL,60410,McDonald's
24061 W Eames St IL 60410,1.0,41.454485999999996,-88.1975,Channahon,IL,60410,McDonald's
26953 W Eames St IL 60410,0.6,41.444939,-88.20745500000001,Channahon,IL,60410,McDonald's
36 W Randolph St IL 60601,1.0,41.884696999999996,-87.629165,Chicago,IL,60601,McDonald's
201 N Clark St IL 60601,1.0,41.886061,-87.63069,Chicago,IL,60601,McDonald's
233 N Michigan Ave IL 60601,1.0,41.887121,-87.623273,Chicago,IL,60601,McDonald's
115 N Wabash Ave IL 60602,1.0,41.883545,-87.625736,Chicago,IL,60602,McDonald's
119 N Wabash Ave IL 60602,1.0,41.883437,-87.626075,Chicago,IL,60602,McDonald's
105 W Madison St IL 60602,1.0,41.881782,-87.631249,Chicago,IL,60602,McDonald's
23 S Clark St IL 60603,0.9,41.881302000000005,-87.63101400000001,Chicago,IL,60603,McDonald's
186 W Adams St IL 60603,1.0,41.879385,-87.633753,Chicago,IL,60603,McDonald's
20 E Jackson Blvd Ste 600 IL 60604,1.0,41.878405,-87.626811,Chicago,IL,60604,McDonald's
230 S State St IL 60604,1.0,41.878735,-87.627842,Chicago,IL,60604,McDonald's
111 W Jackson Blvd IL 60604,1.0,41.877857,-87.63130600000001,Chicago,IL,60604,McDonald's
1400 S Lake Shore Dr IL 60605,1.0,41.86638,-87.616674,Chicago,IL,60605,McDonald's
225 S Canal St IL 60606,0.9,41.878985,-87.639735,Chicago,IL,60606,McDonald's
29 N Wacker Dr IL 60606,1.0,41.882855,-87.636522,Chicago,IL,60606,McDonald's
233 W Jackson Blvd IL 60606,1.0,41.877894,-87.634958,Chicago,IL,60606,McDonald's
1201 W Lake St IL 60607,1.0,41.885215,-87.657379,Chicago,IL,60607,McDonald's
2438 W Cermak Rd IL 60608,1.0,41.852668,-87.687467,Chicago,IL,60608,McDonald's
1664 S Blue Island Ave IL 60608,1.0,41.858433000000005,-87.660967,Chicago,IL,60608,McDonald's
3020 S Halsted St IL 60608,1.0,41.839194,-87.646982,Chicago,IL,60608,McDonald's
4158 S Ashland Ave IL 60609,1.0,41.817993,-87.665849,Chicago,IL,60609,McDonald's
5070 S Wentworth Ave IL 60609,0.82,41.802665999999995,-87.631151,Chicago,IL,60609,McDonald's
2929 S Ellis Ave IL 60609,0.9,41.842090999999996,-87.61377399999999,Chicago,IL,60616,McDonald's
1454 W 47th St IL 60609,1.0,41.808914,-87.66220200000001,Chicago,IL,60609,McDonald's
5057 S Wentworth Ave IL 60609,0.81,41.801202,-87.63004699999999,Chicago,IL,60609,McDonald's
600 N Clark St IL 60610,1.0,41.893091,-87.631507,Chicago,IL,60610,McDonald's
1563 N Wells St IL 60610,1.0,41.911004,-87.63439699999999,Chicago,IL,60610,McDonald's
600 E Grand Ave IL 60611,1.0,41.89443,-87.621527,Chicago,IL,60611,McDonald's
845 N Michigan Ave IL 60611,1.0,41.898191,-87.622913,Chicago,IL,60611,McDonald's
645 N Mcclurg Ct IL 60611,1.0,41.89385,-87.617597,Chicago,IL,60611,McDonald's
405 N Wabash Ave IL 60611,1.0,41.889825,-87.62598299999999,Chicago,IL,60611,McDonald's
700 N Michigan Ave IL 60611,1.0,41.895409,-87.624934,Chicago,IL,60611,McDonald's
2725 W Washington Blvd IL 60612,1.0,41.882637,-87.694973,Chicago,IL,60612,McDonald's
23 N Western Ave IL 60612,1.0,41.881833,-87.685994,Chicago,IL,60612,McDonald's
3620 N Clark St IL 60613,1.0,41.947708,-87.657327,Chicago,IL,60613,McDonald's
2402 N Lincoln Ave IL 60614,1.0,41.925632,-87.649505,Chicago,IL,60614,McDonald's
2400 N Lincoln Ave IL 60614,1.0,41.925662,-87.649514,Chicago,IL,60614,McDonald's
2635 N Clark St IL 60614,1.0,41.930774,-87.643295,Chicago,IL,60614,McDonald's
1737 W Fullerton Ave IL 60614,1.0,41.924789000000004,-87.671953,Chicago,IL,60614,McDonald's
2300 N Childrens Plz IL 60614,0.6,41.925049,-87.64759699999999,Chicago,IL,60614,McDonald's
5200 S Lake Park Ave IL 60615,1.0,41.800737,-87.588068,Chicago,IL,60615,McDonald's
1344 E 53rd St IL 60615,1.0,41.799646,-87.592972,Chicago,IL,60615,McDonald's
70 E Garfield Blvd IL 60615,1.0,41.794940000000004,-87.622959,Chicago,IL,60615,McDonald's
2301 S Lake Shore Dr IL 60616,1.0,41.850635,-87.616147,Chicago,IL,60616,McDonald's
2525 S King Dr IL 60616,0.9,41.847107,-87.617486,Chicago,IL,60616,McDonald's
207 E 35th St IL 60616,1.0,41.83081,-87.621347,Chicago,IL,60616,McDonald's
8871 S Kingston Ave IL 60617,1.0,41.733847999999995,-87.563608,Chicago,IL,60617,McDonald's
9211 S Commercial Ave IL 60617,1.0,41.727945,-87.550814,Chicago,IL,60617,McDonald's
1951 E 95th St IL 60617,1.0,41.72215,-87.57622099999999,Chicago,IL,60617,McDonald's
4047 E 106th St IL 60617,1.0,41.702444,-87.525098,Chicago,IL,60617,McDonald's
2608 W Addison St IL 60618,1.0,41.947557,-87.693626,Chicago,IL,60618,McDonald's
3615 W Irving Park Rd IL 60618,1.0,41.953549,-87.718354,Chicago,IL,60618,McDonald's
3601 W Irving Park Rd IL 60618,1.0,41.953433000000004,-87.718202,Chicago,IL,60618,McDonald's
29 E 87th St IL 60619,1.0,41.736087,-87.622928,Chicago,IL,60619,McDonald's
7800 S Cottage Grove Ave IL 60619,1.0,41.752882,-87.605631,Chicago,IL,60619,McDonald's
371 E 79th St IL 60619,1.0,41.750886,-87.61546700000001,Chicago,IL,60619,McDonald's
1443 E 87th St IL 60619,1.0,41.736615,-87.588879,Chicago,IL,60619,McDonald's
7601 S Vincennes Ave IL 60620,1.0,41.755793,-87.63216800000001,Chicago,IL,60620,McDonald's
8321 S Ashland Ave IL 60620,1.0,41.742495,-87.66275999999999,Chicago,IL,60620,McDonald's
7832 S Western Ave IL 60620,1.0,41.751278000000006,-87.68332,Chicago,IL,60620,McDonald's
6900 S Lafayette Ave IL 60621,1.0,41.768299,-87.627099,Chicago,IL,60621,McDonald's
2001 W Chicago Ave IL 60622,1.0,41.895699,-87.677219,Chicago,IL,60622,McDonald's
2005 W Chicago Ave IL 60622,1.0,41.89567,-87.677483,Chicago,IL,60622,McDonald's
2609 S Kedzie Ave IL 60623,1.0,41.844077,-87.704679,Chicago,IL,60623,McDonald's
4334 W 26th St IL 60623,1.0,41.844429999999996,-87.732263,Chicago,IL,60623,McDonald's
4048 W Madison St IL 60624,1.0,41.881113,-87.727923,Chicago,IL,60624,McDonald's
3200 W Roosevelt Rd IL 60624,1.0,41.866725,-87.70616600000001,Chicago,IL,60624,McDonald's
4546 N Kedzie Ave IL 60625,1.0,41.964102000000004,-87.70869499999999,Chicago,IL,60625,McDonald's
4844 N Lincoln Ave IL 60625,1.0,41.969876,-87.689662,Chicago,IL,60625,McDonald's
3154 W Foster Ave IL 60625,1.0,41.975984999999994,-87.708115,Chicago,IL,60625,McDonald's
3855 W Lawrence Ave IL 60625,1.0,41.968024,-87.72483199999999,Chicago,IL,60625,McDonald's
6740 N Clark St IL 60626,1.0,42.004793,-87.673161,Chicago,IL,60626,McDonald's
11724 S Halsted St IL 60628,1.0,41.680606,-87.642487,Chicago,IL,60628,McDonald's
9560 S Halsted St IL 60628,1.0,41.720073,-87.643559,Chicago,IL,60628,McDonald's
36 W 95th St IL 60628,0.89,41.721432,-87.624685,Chicago,IL,60628,McDonald's
11421 S Halsted St IL 60628,1.0,41.686521,-87.64189499999999,Chicago,IL,60628,McDonald's
600 E 115th St IL 60628,1.0,41.685726,-87.607672,Chicago,IL,60628,McDonald's
5733 S Kedzie Ave IL 60629,1.0,41.788886,-87.703079,Chicago,IL,60629,McDonald's
6737 S Pulaski Rd IL 60629,1.0,41.770049,-87.722239,Chicago,IL,60629,McDonald's
4946 N Milwaukee Ave IL 60630,1.0,41.970672,-87.76365,Chicago,IL,60630,McDonald's
3867 S Archer Ave IL 60632,1.0,41.823351,-87.688602,Chicago,IL,60632,McDonald's
5253 S Pulaski Rd IL 60632,1.0,41.797071,-87.72256800000001,Chicago,IL,60632,McDonald's
5656 W Irving Park Rd IL 60634,1.0,41.953472999999995,-87.769052,Chicago,IL,60634,McDonald's
3540 N Harlem Ave IL 60634,1.0,41.944513,-87.80726899999999,Chicago,IL,60634,McDonald's
6336 S Ashland Ave IL 60636,1.0,41.778067,-87.6646,Chicago,IL,60636,McDonald's
6158 S Western Ave IL 60636,1.0,41.781452,-87.684099,Chicago,IL,60636,McDonald's
6515 S Western Ave IL 60636,1.0,41.775059000000006,-87.683073,Chicago,IL,60636,McDonald's
6355 S King Dr IL 60637,1.0,41.779852000000005,-87.615464,Chicago,IL,60637,McDonald's
6560 S Stony Island Ave IL 60637,1.0,41.775664,-87.586433,Chicago,IL,60637,McDonald's
1700 E 56th St Apt 3609 IL 60637,1.0,41.793816,-87.583221,Chicago,IL,60637,McDonald's
4704 S Cicero Ave IL 60638,1.0,41.807396999999995,-87.743584,Chicago,IL,60638,McDonald's
6720 W Archer Ave IL 60638,1.0,41.792475,-87.790076,Chicago,IL,60638,McDonald's
5700 S Cicero Ave IL 60638,1.0,41.787874,-87.741877,Chicago,IL,60638,McDonald's
6430 S Cicero Ave IL 60638,1.0,41.775657,-87.742593,Chicago,IL,60638,McDonald's
6465 W Diversey Ave IL 60639,0.8,41.930683,-87.787754,Chicago,IL,60707,McDonald's
4601 W Diversey Ave IL 60639,1.0,41.931041,-87.742228,Chicago,IL,60639,McDonald's
2754 N Narragansett Ave IL 60639,1.0,41.930395000000004,-87.78582800000001,Chicago,IL,60639,McDonald's
4605 W Diversey Ave IL 60639,1.0,41.931442,-87.741968,Chicago,IL,60639,McDonald's
2350 N Central Ave IL 60639,1.0,41.92369,-87.766705,Chicago,IL,60639,McDonald's
2317 N Cicero Ave IL 60639,1.0,41.92301,-87.745891,Chicago,IL,60639,McDonald's
5133 W North Ave IL 60639,1.0,41.909665000000004,-87.754712,Chicago,IL,60639,McDonald's
4338 W North Ave IL 60639,1.0,41.910087,-87.735192,Chicago,IL,60639,McDonald's
1004 W Wilson Ave IL 60640,1.0,41.965577,-87.654922,Chicago,IL,60640,McDonald's
5130 N Sheridan Rd IL 60640,1.0,41.976231,-87.655346,Chicago,IL,60640,McDonald's
3548 N Cicero Ave IL 60641,1.0,41.945763,-87.747477,Chicago,IL,60641,McDonald's
4320 N Cicero Ave IL 60641,1.0,41.959374,-87.747928,Chicago,IL,60641,McDonald's
3560 N Cicero Ave IL 60641,1.0,41.945861,-87.747405,Chicago,IL,60641,McDonald's
4038 W Belmont Ave IL 60641,1.0,41.939341,-87.72903199999999,Chicago,IL,60641,McDonald's
W 95th St IL 60643,0.33,41.700272999999996,-87.663267,Chicago,IL,60643,McDonald's
1651 W 95th St IL 60643,1.0,41.721067,-87.6648,Chicago,IL,60643,McDonald's
5015 W Madison St IL 60644,1.0,41.880094,-87.75083199999999,Chicago,IL,60644,McDonald's
5624 W Roosevelt Rd IL 60644,1.0,41.866513,-87.765367,Chicago,IL,60644,McDonald's
6900 N Western Ave IL 60645,1.0,42.006976,-87.690505,Chicago,IL,60645,McDonald's
3122 W Touhy Ave IL 60645,1.0,42.012163,-87.707674,Chicago,IL,60645,McDonald's
6125 N Milwaukee Ave IL 60646,1.0,41.993078000000004,-87.783153,Chicago,IL,60646,McDonald's
3245 W North Ave IL 60647,0.89,41.90982,-87.708268,Chicago,IL,60647,McDonald's
2707 N Milwaukee Ave IL 60647,1.0,41.930527000000005,-87.709498,Chicago,IL,60647,McDonald's
1951 N Western Ave IL 60647,1.0,41.917215999999996,-87.68718299999999,Chicago,IL,60647,McDonald's
2101k E 71st St IL 60649,1.0,41.765011,-87.573941,Chicago,IL,60649,McDonald's
2101 E 71st St IL 60649,1.0,41.765011,-87.573941,Chicago,IL,60649,McDonald's
2425 E 79th St IL 60649,1.0,41.751503,-87.565427,Chicago,IL,60649,McDonald's
3601 W Grand Ave IL 60651,1.0,41.90227,-87.717253,Chicago,IL,60651,McDonald's
5153 W Chicago Ave IL 60651,1.0,41.894709000000006,-87.75524899999999,Chicago,IL,60651,McDonald's
7601 S Cicero Ave IL 60652,1.0,41.755323,-87.740572,Chicago,IL,60652,McDonald's
8415 S Pulaski Rd IL 60652,1.0,41.739965999999995,-87.72122399999999,Chicago,IL,60652,McDonald's
740 E 47th St IL 60653,1.0,41.809835,-87.607155,Chicago,IL,60653,McDonald's
222 Merchandise Mart Plz Ste 105a IL 60654,0.9,41.888083,-87.636185,Chicago,IL,60654,McDonald's
350 N Orleans St IL 60654,1.0,41.887567,-87.63614100000001,Chicago,IL,60654,McDonald's
10320 S Kedzie Ave IL 60655,1.0,41.705569,-87.701643,Chicago,IL,60655,McDonald's
5461 N East River Rd Apt 107 IL 60656,0.9,41.978328000000005,-87.844814,Chicago,IL,60656,McDonald's
4550 N Cumberland Ave IL 60656,1.0,41.962655,-87.83716,Chicago,IL,60656,McDonald's
2834 N Ashland Ave IL 60657,1.0,41.933608,-87.668904,Chicago,IL,60657,McDonald's
3241 W Peterson Ave IL 60659,1.0,41.990066999999996,-87.710678,Chicago,IL,60659,McDonald's
6536 N Sheridan Rd IL 60660,0.9,41.998607,-87.660191,Chicago,IL,60660,McDonald's
6231 N Broadway St IL 60660,1.0,41.99556,-87.65996700000001,Chicago,IL,60660,McDonald's
1831 W Devon Ave IL 60660,1.0,41.997775,-87.676285,Chicago,IL,60660,McDonald's
5614 N Clark St IL 60660,1.0,41.983967,-87.669315,Chicago,IL,60660,McDonald's
555 W Madison St IL 60661,1.0,41.881603000000005,-87.64165,Chicago,IL,60661,McDonald's
500 W Madison St IL 60661,1.0,41.88239,-87.640472,Chicago,IL,60661,McDonald's
10000 W O'Hare Ave IL 60666,0.23,41.850033,-87.650052,Amf Ohare,IL,60666,McDonald's
10000 W O'Hare Ave IL 60666,0.23,41.850033,-87.650052,Amf Ohare,IL,60666,McDonald's
10000 West O'Hare Ave IL 60666,0.16,41.850033,-87.650052,Amf Ohare,IL,60666,McDonald's
10000 W O'Hare Ave IL 60666,0.23,41.850033,-87.650052,Amf Ohare,IL,60666,McDonald's
10000 W O'Hare Ave IL 60666,0.23,41.850033,-87.650052,Amf Ohare,IL,60666,McDonald's
10000 W O'Hare Ave IL 60666,0.23,41.850033,-87.650052,Amf Ohare,IL,60666,McDonald's
10000 W O'Hare Ave IL 60666,0.23,41.850033,-87.650052,Amf Ohare,IL,60666,McDonald's
5600 Mannheim Rd Ste 3 IL 60666,0.5,41.916447999999995,-87.883964,Melrose Park,IL,60164,McDonald's
36 W Randolph St IL 60601,1.0,41.884696999999996,-87.629165,Chicago,IL,60601,McDonald's
201 N Clark St IL 60601,1.0,41.886061,-87.63069,Chicago,IL,60601,McDonald's
233 N Michigan Ave IL 60601,1.0,41.887121,-87.623273,Chicago,IL,60601,McDonald's
115 N Wabash Ave IL 60602,1.0,41.883545,-87.625736,Chicago,IL,60602,McDonald's
119 N Wabash Ave IL 60602,1.0,41.883437,-87.626075,Chicago,IL,60602,McDonald's
105 W Madison St IL 60602,1.0,41.881782,-87.631249,Chicago,IL,60602,McDonald's
23 S Clark St IL 60603,0.9,41.881302000000005,-87.63101400000001,Chicago,IL,60603,McDonald's
186 W Adams St IL 60603,1.0,41.879385,-87.633753,Chicago,IL,60603,McDonald's
20 E Jackson Blvd Ste 600 IL 60604,1.0,41.878405,-87.626811,Chicago,IL,60604,McDonald's
230 S State St IL 60604,1.0,41.878735,-87.627842,Chicago,IL,60604,McDonald's
111 W Jackson Blvd IL 60604,1.0,41.877857,-87.63130600000001,Chicago,IL,60604,McDonald's
1400 S Lake Shore Dr IL 60605,1.0,41.86638,-87.616674,Chicago,IL,60605,McDonald's
225 S Canal St IL 60606,0.9,41.878985,-87.639735,Chicago,IL,60606,McDonald's
29 N Wacker Dr IL 60606,1.0,41.882855,-87.636522,Chicago,IL,60606,McDonald's
233 W Jackson Blvd IL 60606,1.0,41.877894,-87.634958,Chicago,IL,60606,McDonald's
1201 W Lake St IL 60607,1.0,41.885215,-87.657379,Chicago,IL,60607,McDonald's
2438 W Cermak Rd IL 60608,1.0,41.852668,-87.687467,Chicago,IL,60608,McDonald's
1664 S Blue Island Ave IL 60608,1.0,41.858433000000005,-87.660967,Chicago,IL,60608,McDonald's
3020 S Halsted St IL 60608,1.0,41.839194,-87.646982,Chicago,IL,60608,McDonald's
4158 S Ashland Ave IL 60609,1.0,41.817993,-87.665849,Chicago,IL,60609,McDonald's
5070 S Wentworth Ave IL 60609,0.82,41.802665999999995,-87.631151,Chicago,IL,60609,McDonald's
2929 S Ellis Ave IL 60609,0.9,41.842090999999996,-87.61377399999999,Chicago,IL,60616,McDonald's
1454 W 47th St IL 60609,1.0,41.808914,-87.66220200000001,Chicago,IL,60609,McDonald's
5057 S Wentworth Ave IL 60609,0.81,41.801202,-87.63004699999999,Chicago,IL,60609,McDonald's
600 N Clark St IL 60610,1.0,41.893091,-87.631507,Chicago,IL,60610,McDonald's
1563 N Wells St IL 60610,1.0,41.911004,-87.63439699999999,Chicago,IL,60610,McDonald's
600 E Grand Ave IL 60611,1.0,41.89443,-87.621527,Chicago,IL,60611,McDonald's
845 N Michigan Ave IL 60611,1.0,41.898191,-87.622913,Chicago,IL,60611,McDonald's
645 N Mcclurg Ct IL 60611,1.0,41.89385,-87.617597,Chicago,IL,60611,McDonald's
405 N Wabash Ave IL 60611,1.0,41.889825,-87.62598299999999,Chicago,IL,60611,McDonald's
700 N Michigan Ave IL 60611,1.0,41.895409,-87.624934,Chicago,IL,60611,McDonald's
2725 W Washington Blvd IL 60612,1.0,41.882637,-87.694973,Chicago,IL,60612,McDonald's
23 N Western Ave IL 60612,1.0,41.881833,-87.685994,Chicago,IL,60612,McDonald's
3620 N Clark St IL 60613,1.0,41.947708,-87.657327,Chicago,IL,60613,McDonald's
2402 N Lincoln Ave IL 60614,1.0,41.925632,-87.649505,Chicago,IL,60614,McDonald's
2400 N Lincoln Ave IL 60614,1.0,41.925662,-87.649514,Chicago,IL,60614,McDonald's
2635 N Clark St IL 60614,1.0,41.930774,-87.643295,Chicago,IL,60614,McDonald's
1737 W Fullerton Ave IL 60614,1.0,41.924789000000004,-87.671953,Chicago,IL,60614,McDonald's
2300 N Childrens Plz IL 60614,0.6,41.925049,-87.64759699999999,Chicago,IL,60614,McDonald's
5200 S Lake Park Ave IL 60615,1.0,41.800737,-87.588068,Chicago,IL,60615,McDonald's
1344 E 53rd St IL 60615,1.0,41.799646,-87.592972,Chicago,IL,60615,McDonald's
70 E Garfield Blvd IL 60615,1.0,41.794940000000004,-87.622959,Chicago,IL,60615,McDonald's
2301 S Lake Shore Dr IL 60616,1.0,41.850635,-87.616147,Chicago,IL,60616,McDonald's
2525 S King Dr IL 60616,0.9,41.847107,-87.617486,Chicago,IL,60616,McDonald's
207 E 35th St IL 60616,1.0,41.83081,-87.621347,Chicago,IL,60616,McDonald's
8871 S Kingston Ave IL 60617,1.0,41.733847999999995,-87.563608,Chicago,IL,60617,McDonald's
9211 S Commercial Ave IL 60617,1.0,41.727945,-87.550814,Chicago,IL,60617,McDonald's
1951 E 95th St IL 60617,1.0,41.72215,-87.57622099999999,Chicago,IL,60617,McDonald's
4047 E 106th St IL 60617,1.0,41.702444,-87.525098,Chicago,IL,60617,McDonald's
2608 W Addison St IL 60618,1.0,41.947557,-87.693626,Chicago,IL,60618,McDonald's
3615 W Irving Park Rd IL 60618,1.0,41.953549,-87.718354,Chicago,IL,60618,McDonald's
3601 W Irving Park Rd IL 60618,1.0,41.953433000000004,-87.718202,Chicago,IL,60618,McDonald's
29 E 87th St IL 60619,1.0,41.736087,-87.622928,Chicago,IL,60619,McDonald's
7800 S Cottage Grove Ave IL 60619,1.0,41.752882,-87.605631,Chicago,IL,60619,McDonald's
371 E 79th St IL 60619,1.0,41.750886,-87.61546700000001,Chicago,IL,60619,McDonald's
1443 E 87th St IL 60619,1.0,41.736615,-87.588879,Chicago,IL,60619,McDonald's
7601 S Vincennes Ave IL 60620,1.0,41.755793,-87.63216800000001,Chicago,IL,60620,McDonald's
8321 S Ashland Ave IL 60620,1.0,41.742495,-87.66275999999999,Chicago,IL,60620,McDonald's
7832 S Western Ave IL 60620,1.0,41.751278000000006,-87.68332,Chicago,IL,60620,McDonald's
6900 S Lafayette Ave IL 60621,1.0,41.768299,-87.627099,Chicago,IL,60621,McDonald's
2001 W Chicago Ave IL 60622,1.0,41.895699,-87.677219,Chicago,IL,60622,McDonald's
2005 W Chicago Ave IL 60622,1.0,41.89567,-87.677483,Chicago,IL,60622,McDonald's
2609 S Kedzie Ave IL 60623,1.0,41.844077,-87.704679,Chicago,IL,60623,McDonald's
4334 W 26th St IL 60623,1.0,41.844429999999996,-87.732263,Chicago,IL,60623,McDonald's
4048 W Madison St IL 60624,1.0,41.881113,-87.727923,Chicago,IL,60624,McDonald's
3200 W Roosevelt Rd IL 60624,1.0,41.866725,-87.70616600000001,Chicago,IL,60624,McDonald's
4546 N Kedzie Ave IL 60625,1.0,41.964102000000004,-87.70869499999999,Chicago,IL,60625,McDonald's
4844 N Lincoln Ave IL 60625,1.0,41.969876,-87.689662,Chicago,IL,60625,McDonald's
3154 W Foster Ave IL 60625,1.0,41.975984999999994,-87.708115,Chicago,IL,60625,McDonald's
3855 W Lawrence Ave IL 60625,1.0,41.968024,-87.72483199999999,Chicago,IL,60625,McDonald's
6740 N Clark St IL 60626,1.0,42.004793,-87.673161,Chicago,IL,60626,McDonald's
11724 S Halsted St IL 60628,1.0,41.680606,-87.642487,Chicago,IL,60628,McDonald's
9560 S Halsted St IL 60628,1.0,41.720073,-87.643559,Chicago,IL,60628,McDonald's
36 W 95th St IL 60628,0.89,41.721432,-87.624685,Chicago,IL,60628,McDonald's
11421 S Halsted St IL 60628,1.0,41.686521,-87.64189499999999,Chicago,IL,60628,McDonald's
600 E 115th St IL 60628,1.0,41.685726,-87.607672,Chicago,IL,60628,McDonald's
5733 S Kedzie Ave IL 60629,1.0,41.788886,-87.703079,Chicago,IL,60629,McDonald's
6737 S Pulaski Rd IL 60629,1.0,41.770049,-87.722239,Chicago,IL,60629,McDonald's
4946 N Milwaukee Ave IL 60630,1.0,41.970672,-87.76365,Chicago,IL,60630,McDonald's
3867 S Archer Ave IL 60632,1.0,41.823351,-87.688602,Chicago,IL,60632,McDonald's
5253 S Pulaski Rd IL 60632,1.0,41.797071,-87.72256800000001,Chicago,IL,60632,McDonald's
5656 W Irving Park Rd IL 60634,1.0,41.953472999999995,-87.769052,Chicago,IL,60634,McDonald's
3540 N Harlem Ave IL 60634,1.0,41.944513,-87.80726899999999,Chicago,IL,60634,McDonald's
6336 S Ashland Ave IL 60636,1.0,41.778067,-87.6646,Chicago,IL,60636,McDonald's
6158 S Western Ave IL 60636,1.0,41.781452,-87.684099,Chicago,IL,60636,McDonald's
6515 S Western Ave IL 60636,1.0,41.775059000000006,-87.683073,Chicago,IL,60636,McDonald's
6355 S King Dr IL 60637,1.0,41.779852000000005,-87.615464,Chicago,IL,60637,McDonald's
6560 S Stony Island Ave IL 60637,1.0,41.775664,-87.586433,Chicago,IL,60637,McDonald's
1700 E 56th St Apt 3609 IL 60637,1.0,41.793816,-87.583221,Chicago,IL,60637,McDonald's
4704 S Cicero Ave IL 60638,1.0,41.807396999999995,-87.743584,Chicago,IL,60638,McDonald's
6720 W Archer Ave IL 60638,1.0,41.792475,-87.790076,Chicago,IL,60638,McDonald's
5700 S Cicero Ave IL 60638,1.0,41.787874,-87.741877,Chicago,IL,60638,McDonald's
6430 S Cicero Ave IL 60638,1.0,41.775657,-87.742593,Chicago,IL,60638,McDonald's
6465 W Diversey Ave IL 60639,0.8,41.930683,-87.787754,Chicago,IL,60707,McDonald's
4601 W Diversey Ave IL 60639,1.0,41.931041,-87.742228,Chicago,IL,60639,McDonald's
2754 N Narragansett Ave IL 60639,1.0,41.930395000000004,-87.78582800000001,Chicago,IL,60639,McDonald's
4605 W Diversey Ave IL 60639,1.0,41.931442,-87.741968,Chicago,IL,60639,McDonald's
2350 N Central Ave IL 60639,1.0,41.92369,-87.766705,Chicago,IL,60639,McDonald's
2317 N Cicero Ave IL 60639,1.0,41.92301,-87.745891,Chicago,IL,60639,McDonald's
5133 W North Ave IL 60639,1.0,41.909665000000004,-87.754712,Chicago,IL,60639,McDonald's
4338 W North Ave IL 60639,1.0,41.910087,-87.735192,Chicago,IL,60639,McDonald's
1004 W Wilson Ave IL 60640,1.0,41.965577,-87.654922,Chicago,IL,60640,McDonald's
5130 N Sheridan Rd IL 60640,1.0,41.976231,-87.655346,Chicago,IL,60640,McDonald's
3548 N Cicero Ave IL 60641,1.0,41.945763,-87.747477,Chicago,IL,60641,McDonald's
4320 N Cicero Ave IL 60641,1.0,41.959374,-87.747928,Chicago,IL,60641,McDonald's
3560 N Cicero Ave IL 60641,1.0,41.945861,-87.747405,Chicago,IL,60641,McDonald's
4038 W Belmont Ave IL 60641,1.0,41.939341,-87.72903199999999,Chicago,IL,60641,McDonald's
W 95th St IL 60643,0.33,41.700272999999996,-87.663267,Chicago,IL,60643,McDonald's
1651 W 95th St IL 60643,1.0,41.721067,-87.6648,Chicago,IL,60643,McDonald's
5015 W Madison St IL 60644,1.0,41.880094,-87.75083199999999,Chicago,IL,60644,McDonald's
5624 W Roosevelt Rd IL 60644,1.0,41.866513,-87.765367,Chicago,IL,60644,McDonald's
6900 N Western Ave IL 60645,1.0,42.006976,-87.690505,Chicago,IL,60645,McDonald's
3122 W Touhy Ave IL 60645,1.0,42.012163,-87.707674,Chicago,IL,60645,McDonald's
6125 N Milwaukee Ave IL 60646,1.0,41.993078000000004,-87.783153,Chicago,IL,60646,McDonald's
3245 W North Ave IL 60647,0.89,41.90982,-87.708268,Chicago,IL,60647,McDonald's
2707 N Milwaukee Ave IL 60647,1.0,41.930527000000005,-87.709498,Chicago,IL,60647,McDonald's
1951 N Western Ave IL 60647,1.0,41.917215999999996,-87.68718299999999,Chicago,IL,60647,McDonald's
2101k E 71st St IL 60649,1.0,41.765011,-87.573941,Chicago,IL,60649,McDonald's
2101 E 71st St IL 60649,1.0,41.765011,-87.573941,Chicago,IL,60649,McDonald's
2425 E 79th St IL 60649,1.0,41.751503,-87.565427,Chicago,IL,60649,McDonald's
3601 W Grand Ave IL 60651,1.0,41.90227,-87.717253,Chicago,IL,60651,McDonald's
5153 W Chicago Ave IL 60651,1.0,41.894709000000006,-87.75524899999999,Chicago,IL,60651,McDonald's
7601 S Cicero Ave IL 60652,1.0,41.755323,-87.740572,Chicago,IL,60652,McDonald's
8415 S Pulaski Rd IL 60652,1.0,41.739965999999995,-87.72122399999999,Chicago,IL,60652,McDonald's
740 E 47th St IL 60653,1.0,41.809835,-87.607155,Chicago,IL,60653,McDonald's
222 Merchandise Mart Plz Ste 105a IL 60654,0.9,41.888083,-87.636185,Chicago,IL,60654,McDonald's
350 N Orleans St IL 60654,1.0,41.887567,-87.63614100000001,Chicago,IL,60654,McDonald's
10320 S Kedzie Ave IL 60655,1.0,41.705569,-87.701643,Chicago,IL,60655,McDonald's
5461 N East River Rd Apt 107 IL 60656,0.9,41.978328000000005,-87.844814,Chicago,IL,60656,McDonald's
4550 N Cumberland Ave IL 60656,1.0,41.962655,-87.83716,Chicago,IL,60656,McDonald's
2834 N Ashland Ave IL 60657,1.0,41.933608,-87.668904,Chicago,IL,60657,McDonald's
3241 W Peterson Ave IL 60659,1.0,41.990066999999996,-87.710678,Chicago,IL,60659,McDonald's
6536 N Sheridan Rd IL 60660,0.9,41.998607,-87.660191,Chicago,IL,60660,McDonald's
6231 N Broadway St IL 60660,1.0,41.99556,-87.65996700000001,Chicago,IL,60660,McDonald's
1831 W Devon Ave IL 60660,1.0,41.997775,-87.676285,Chicago,IL,60660,McDonald's
5614 N Clark St IL 60660,1.0,41.983967,-87.669315,Chicago,IL,60660,McDonald's
555 W Madison St IL 60661,1.0,41.881603000000005,-87.64165,Chicago,IL,60661,McDonald's
500 W Madison St IL 60661,1.0,41.88239,-87.640472,Chicago,IL,60661,McDonald's
10000 W O'Hare Ave IL 60666,0.23,41.850033,-87.650052,Amf Ohare,IL,60666,McDonald's
10000 W O'Hare Ave IL 60666,0.23,41.850033,-87.650052,Amf Ohare,IL,60666,McDonald's
10000 West O'Hare Ave IL 60666,0.16,41.850033,-87.650052,Amf Ohare,IL,60666,McDonald's
10000 W O'Hare Ave IL 60666,0.23,41.850033,-87.650052,Amf Ohare,IL,60666,McDonald's
10000 W O'Hare Ave IL 60666,0.23,41.850033,-87.650052,Amf Ohare,IL,60666,McDonald's
10000 W O'Hare Ave IL 60666,0.23,41.850033,-87.650052,Amf Ohare,IL,60666,McDonald's
10000 W O'Hare Ave IL 60666,0.23,41.850033,-87.650052,Amf Ohare,IL,60666,McDonald's
5600 Mannheim Rd Ste 3 IL 60666,0.5,41.916447999999995,-87.883964,Melrose Park,IL,60164,McDonald's
2707 E Sauk Trl IL 60411,1.0,41.492028999999995,-87.554789,Sauk Village,IL,60411,McDonald's
[100-129] S Halsted St IL 60411,1.0,41.531557,-87.635825,Chicago Heights,IL,60411,McDonald's
2707 E Sauk Trl IL 60411,1.0,41.492028999999995,-87.554789,Sauk Village,IL,60411,McDonald's
[100-129] S Halsted St IL 60411,1.0,41.531557,-87.635825,Chicago Heights,IL,60411,McDonald's
5500 W Cermak Rd IL 60804,1.0,41.850934,-87.761448,Cicero,IL,60804,McDonald's
2827 S Cicero Ave IL 60804,0.8,41.840633000000004,-87.743249,Cicero,IL,60804,McDonald's
5500 W Cermak Rd IL 60804,1.0,41.850934,-87.761448,Cicero,IL,60804,McDonald's
2827 S Cicero Ave IL 60804,0.8,41.840633000000004,-87.743249,Cicero,IL,60804,McDonald's
Belt Line Rd IL 62234,1.0,38.691462,-89.99068100000001,Collinsville,IL,62234,McDonald's
503 Belt Line Rd IL 62234,1.0,38.690855,-89.975375,Collinsville,IL,62234,McDonald's
520 Ramada Blvd IL 62234,1.0,38.677981,-90.011486,Collinsville,IL,62234,McDonald's
848 S Morrison Ave IL 62234,1.0,38.660957,-89.983466,Collinsville,IL,62234,McDonald's
Belt Line Rd IL 62234,1.0,38.691462,-89.99068100000001,Collinsville,IL,62234,McDonald's
503 Belt Line Rd IL 62234,1.0,38.690855,-89.975375,Collinsville,IL,62234,McDonald's
520 Ramada Blvd IL 62234,1.0,38.677981,-90.011486,Collinsville,IL,62234,McDonald's
848 S Morrison Ave IL 62234,1.0,38.660957,-89.983466,Collinsville,IL,62234,McDonald's
7617 Us Highway 14 IL 60012,0.9,42.248611,-88.346748,Crystal Lake,IL,60012,McDonald's
S Virginia St IL 60014,1.0,42.239504,-88.340523,Crystal Lake,IL,60014,McDonald's
230 N Il Route 31 IL 60014,0.22,42.243772,-88.323986,Crystal Lake,IL,60014,McDonald's
551 Crystal Point Dr IL 60014,1.0,42.225503,-88.311357,Crystal Lake,IL,60014,McDonald's
7617 Us Highway 14 IL 60012,0.9,42.248611,-88.346748,Crystal Lake,IL,60012,McDonald's
S Virginia St IL 60014,1.0,42.239504,-88.340523,Crystal Lake,IL,60014,McDonald's
230 N Il Route 31 IL 60014,0.22,42.243772,-88.323986,Crystal Lake,IL,60014,McDonald's
551 Crystal Point Dr IL 60014,1.0,42.225503,-88.311357,Crystal Lake,IL,60014,McDonald's
109 S Gilbert St IL 61832,1.0,40.119597,-87.636332,Danville,IL,61832,McDonald's
3195 N Vermilion St IL 61832,1.0,40.174853000000006,-87.630123,Danville,IL,61832,McDonald's
109 S Gilbert St IL 61832,1.0,40.119597,-87.636332,Danville,IL,61832,McDonald's
3195 N Vermilion St IL 61832,1.0,40.174853000000006,-87.630123,Danville,IL,61832,McDonald's
1909 S Mount Zion Rd IL 62521,1.0,39.819703999999994,-88.878729,Decatur,IL,62521,McDonald's
1835 E Eldorado St IL 62521,1.0,39.845974,-88.931675,Decatur,IL,62521,McDonald's
962 W Eldorado St IL 62522,1.0,39.845895,-88.969927,Decatur,IL,62522,McDonald's
3005 N Water St IL 62526,1.0,39.877152,-88.955624,Decatur,IL,62526,McDonald's
2799 N 22nd St IL 62526,1.0,39.874973,-88.926071,Decatur,IL,62526,McDonald's
2237 E Hubbard Ave IL 62526,1.0,39.883342999999996,-88.92575699999999,Decatur,IL,62526,McDonald's
1909 S Mount Zion Rd IL 62521,1.0,39.819703999999994,-88.878729,Decatur,IL,62521,McDonald's
1835 E Eldorado St IL 62521,1.0,39.845974,-88.931675,Decatur,IL,62521,McDonald's
962 W Eldorado St IL 62522,1.0,39.845895,-88.969927,Decatur,IL,62522,McDonald's
3005 N Water St IL 62526,1.0,39.877152,-88.955624,Decatur,IL,62526,McDonald's
2799 N 22nd St IL 62526,1.0,39.874973,-88.926071,Decatur,IL,62526,McDonald's
2237 E Hubbard Ave IL 62526,1.0,39.883342999999996,-88.92575699999999,Decatur,IL,62526,McDonald's
20914 Milwaukee Ave IL 60015,0.9,42.170489,-87.922472,Deerfield,IL,60015,McDonald's
50 Waukegan Rd IL 60015,1.0,42.154143,-87.837125,Deerfield,IL,60015,McDonald's
20914 Milwaukee Ave IL 60015,0.9,42.170489,-87.922472,Deerfield,IL,60015,McDonald's
50 Waukegan Rd IL 60015,1.0,42.154143,-87.837125,Deerfield,IL,60015,McDonald's
2700 Crego Rd IL 60115,0.6,41.838488,-88.734643,Dekalb,IL,60115,McDonald's
805 W Lincoln Hwy IL 60115,1.0,41.93118,-88.771609,Dekalb,IL,60115,McDonald's
545 E Lincoln Hwy IL 60115,1.0,41.929469,-88.749337,Dekalb,IL,60115,McDonald's
2700 Crego Rd IL 60115,0.6,41.838488,-88.734643,Dekalb,IL,60115,McDonald's
805 W Lincoln Hwy IL 60115,1.0,41.93118,-88.771609,Dekalb,IL,60115,McDonald's
545 E Lincoln Hwy IL 60115,1.0,41.929469,-88.749337,Dekalb,IL,60115,McDonald's
725 W Golf Rd IL 60016,1.0,42.04715,-87.937698,Des Plaines,IL,60016,McDonald's
9815 Milwaukee Ave IL 60016,1.0,42.05896,-87.841817,Des Plaines,IL,60016,McDonald's
960 Rand Rd Ste 222 IL 60016,1.0,42.05666,-87.901013,Des Plaines,IL,60016,McDonald's
444 S River Rd IL 60016,1.0,42.045311,-87.885429,Des Plaines,IL,60016,McDonald's
1101 E Oakton St IL 60018,1.0,42.023432,-87.897054,Des Plaines,IL,60018,McDonald's
1960 S Mount Prospect Rd IL 60018,1.0,42.014694,-87.92636800000001,Des Plaines,IL,60018,McDonald's
3067 Mannheim Rd IL 60018,1.0,41.998428999999994,-87.883987,Des Plaines,IL,60018,McDonald's
725 W Golf Rd IL 60016,1.0,42.04715,-87.937698,Des Plaines,IL,60016,McDonald's
9815 Milwaukee Ave IL 60016,1.0,42.05896,-87.841817,Des Plaines,IL,60016,McDonald's
960 Rand Rd Ste 222 IL 60016,1.0,42.05666,-87.901013,Des Plaines,IL,60016,McDonald's
444 S River Rd IL 60016,1.0,42.045311,-87.885429,Des Plaines,IL,60016,McDonald's
1101 E Oakton St IL 60018,1.0,42.023432,-87.897054,Des Plaines,IL,60018,McDonald's
1960 S Mount Prospect Rd IL 60018,1.0,42.014694,-87.92636800000001,Des Plaines,IL,60018,McDonald's
3067 Mannheim Rd IL 60018,1.0,41.998428999999994,-87.883987,Des Plaines,IL,60018,McDonald's
226 W Sibley Blvd IL 60419,1.0,41.622793,-87.622097,Dolton,IL,60419,McDonald's
[57-99] W Sibley Blvd IL 60419,0.77,41.622890999999996,-87.623951,Dolton,IL,60419,McDonald's
226 W Sibley Blvd IL 60419,1.0,41.622793,-87.622097,Dolton,IL,60419,McDonald's
[57-99] W Sibley Blvd IL 60419,0.77,41.622890999999996,-87.623951,Dolton,IL,60419,McDonald's
2535 Ogden Avenue IL 60515,1.0,41.804486,-88.046922,Downers Grove,IL,60515,McDonald's
1620 Ogden Ave IL 60515,1.0,41.808592,-88.02553499999999,Downers Grove,IL,60515,McDonald's
225 Ogden Ave IL 60515,1.0,41.808854,-87.99197099999999,Downers Grove,IL,60515,McDonald's
2535 Ogden Avenue IL 60515,1.0,41.804486,-88.046922,Downers Grove,IL,60515,McDonald's
1620 Ogden Ave IL 60515,1.0,41.808592,-88.02553499999999,Downers Grove,IL,60515,McDonald's
225 Ogden Ave IL 60515,1.0,41.808854,-87.99197099999999,Downers Grove,IL,60515,McDonald's
831 S Washington St IL 62832,1.0,37.998971999999995,-89.23607700000001,Du Quoin,IL,62832,McDonald's
825 S Washington St IL 62832,1.0,37.998865,-89.236076,Du Quoin,IL,62832,McDonald's
831 S Washington St IL 62832,1.0,37.998971999999995,-89.23607700000001,Du Quoin,IL,62832,McDonald's
825 S Washington St IL 62832,1.0,37.998865,-89.236076,Du Quoin,IL,62832,McDonald's
1074 Spring Hill Mall IL 60118,0.22,42.106199,-88.30439399999999,Dundee,IL,60118,McDonald's
386 N 8th St IL 60118,1.0,42.100087,-88.287307,West Dundee,IL,60118,McDonald's
386 S 8th St IL 60118,1.0,42.094648,-88.287603,West Dundee,IL,60118,McDonald's
1074 Spring Hill Mall IL 60118,0.22,42.106199,-88.30439399999999,Dundee,IL,60118,McDonald's
386 N 8th St IL 60118,1.0,42.100087,-88.287307,West Dundee,IL,60118,McDonald's
386 S 8th St IL 60118,1.0,42.094648,-88.287603,West Dundee,IL,60118,McDonald's
2601 E Washington St IL 61611,1.0,40.676424,-89.535067,East Peoria,IL,61611,McDonald's
401 River Rd IL 61611,1.0,40.683771,-89.584929,East Peoria,IL,61611,McDonald's
401 S Main St IL 61611,0.8,40.670145,-89.57669,East Peoria,IL,61611,McDonald's
2601 E Washington St IL 61611,1.0,40.676424,-89.535067,East Peoria,IL,61611,McDonald's
401 River Rd IL 61611,1.0,40.683771,-89.584929,East Peoria,IL,61611,McDonald's
401 S Main St IL 61611,0.8,40.670145,-89.57669,East Peoria,IL,61611,McDonald's
588 N 24th St IL 62205,1.0,38.616040000000005,-90.128249,East Saint Louis,IL,62205,McDonald's
1110 Camp Jackson Rd IL 62206,1.0,38.562566,-90.17719699999999,East Saint Louis,IL,62206,McDonald's
588 N 24th St IL 62205,1.0,38.616040000000005,-90.128249,East Saint Louis,IL,62205,McDonald's
1110 Camp Jackson Rd IL 62206,1.0,38.562566,-90.17719699999999,East Saint Louis,IL,62206,McDonald's
6091 Center Grove Rd IL 62025,0.67,38.841819,-89.877841,Edwardsville,IL,62025,McDonald's
1704 Troy Rd IL 62025,1.0,38.793735999999996,-89.951083,Edwardsville,IL,62025,McDonald's
6091 Center Grove Rd IL 62025,0.67,38.841819,-89.877841,Edwardsville,IL,62025,McDonald's
1704 Troy Rd IL 62025,1.0,38.793735999999996,-89.951083,Edwardsville,IL,62025,McDonald's
2911 S Banker St IL 62401,1.0,39.091515,-88.54848199999999,Effingham,IL,62401,McDonald's
1304 N Keller Dr IL 62401,1.0,39.139765000000004,-88.56579599999999,Effingham,IL,62401,McDonald's
2500 N 3rd St IL 62401,1.0,39.149194,-88.529823,Effingham,IL,62401,McDonald's
1300 N Keller Dr IL 62401,1.0,39.139019,-88.564982,Effingham,IL,62401,McDonald's
2911 S Banker St IL 62401,1.0,39.091515,-88.54848199999999,Effingham,IL,62401,McDonald's
1304 N Keller Dr IL 62401,1.0,39.139765000000004,-88.56579599999999,Effingham,IL,62401,McDonald's
2500 N 3rd St IL 62401,1.0,39.149194,-88.529823,Effingham,IL,62401,McDonald's
1300 N Keller Dr IL 62401,1.0,39.139019,-88.564982,Effingham,IL,62401,McDonald's
664 W Main St IL 61738,1.0,40.736577000000004,-89.027238,El Paso,IL,61738,McDonald's
644 W Main St IL 61738,1.0,40.736846,-89.02725,El Paso,IL,61738,McDonald's
664 W Main St IL 61738,1.0,40.736577000000004,-89.027238,El Paso,IL,61738,McDonald's
644 W Main St IL 61738,1.0,40.736846,-89.02725,El Paso,IL,61738,McDonald's
1201 Us Highway 45 N IL 62930,1.0,37.804511,-88.44896700000001,Eldorado,IL,62930,McDonald's
142 Ande Rd IL 62930,1.0,37.819839,-88.39939,Eldorado,IL,62930,McDonald's
1201 Us Highway 45 N IL 62930,1.0,37.804511,-88.44896700000001,Eldorado,IL,62930,McDonald's
142 Ande Rd IL 62930,1.0,37.819839,-88.39939,Eldorado,IL,62930,McDonald's
401 Summit St IL 60120,1.0,42.045858,-88.275471,Elgin,IL,60120,McDonald's
816 Saint Charles St IL 60120,1.0,42.019443,-88.26905,Elgin,IL,60120,McDonald's
1480 Larkin Ave IL 60123,1.0,42.035049,-88.314171,Elgin,IL,60123,McDonald's
1165 N Mclean Blvd IL 60123,1.0,42.061667,-88.315437,Elgin,IL,60123,McDonald's
255 S Randall Rd IL 60123,1.0,42.027021999999995,-88.337946,Elgin,IL,60123,McDonald's
1001 N Randall Rd IL 60123,1.0,42.052783000000005,-88.336736,Elgin,IL,60123,McDonald's
401 Summit St IL 60120,1.0,42.045858,-88.275471,Elgin,IL,60120,McDonald's
816 Saint Charles St IL 60120,1.0,42.019443,-88.26905,Elgin,IL,60120,McDonald's
1480 Larkin Ave IL 60123,1.0,42.035049,-88.314171,Elgin,IL,60123,McDonald's
1165 N Mclean Blvd IL 60123,1.0,42.061667,-88.315437,Elgin,IL,60123,McDonald's
255 S Randall Rd IL 60123,1.0,42.027021999999995,-88.337946,Elgin,IL,60123,McDonald's
1001 N Randall Rd IL 60123,1.0,42.052783000000005,-88.336736,Elgin,IL,60123,McDonald's
633 Meacham Rd IL 60007,1.0,42.007045,-88.04516600000001,Elk Grove Village,IL,60007,McDonald's
1450 Busse Rd IL 60007,1.0,42.004577000000005,-87.96025,Elk Grove Village,IL,60007,McDonald's
1912 E Higgins Rd IL 60007,1.0,42.021811,-87.957199,Elk Grove Village,IL,60007,McDonald's
10 Biesterfield Rd IL 60007,1.0,42.003904,-88.004536,Elk Grove Village,IL,60007,McDonald's
633 Meacham Rd IL 60007,1.0,42.007045,-88.04516600000001,Elk Grove Village,IL,60007,McDonald's
1450 Busse Rd IL 60007,1.0,42.004577000000005,-87.96025,Elk Grove Village,IL,60007,McDonald's
1912 E Higgins Rd IL 60007,1.0,42.021811,-87.957199,Elk Grove Village,IL,60007,McDonald's
10 Biesterfield Rd IL 60007,1.0,42.003904,-88.004536,Elk Grove Village,IL,60007,McDonald's
920 N York St IL 60126,1.0,41.928241,-87.939806,Elmhurst,IL,60126,McDonald's
190 E Butterfield Rd IL 60126,1.0,41.869157,-87.935946,Elmhurst,IL,60126,McDonald's
920 N York St IL 60126,1.0,41.928241,-87.939806,Elmhurst,IL,60126,McDonald's
190 E Butterfield Rd IL 60126,1.0,41.869157,-87.935946,Elmhurst,IL,60126,McDonald's
1919 Dempster St IL 60201,1.0,42.041358,-87.700098,Evanston,IL,60201,McDonald's
1700 Orrington Ave IL 60202,0.95,42.048646999999995,-87.680891,Evanston,IL,60201,McDonald's
1117 Howard St IL 60202,1.0,42.019791999999995,-87.687698,Evanston,IL,60202,McDonald's
1919 Dempster St IL 60201,1.0,42.041358,-87.700098,Evanston,IL,60201,McDonald's
1700 Orrington Ave IL 60202,0.95,42.048646999999995,-87.680891,Evanston,IL,60201,McDonald's
1117 Howard St IL 60202,1.0,42.019791999999995,-87.687698,Evanston,IL,60202,McDonald's
8715 S Kedzie Ave IL 60805,1.0,41.734481,-87.701868,Evergreen Park,IL,60805,McDonald's
2620 W 95th St IL 60805,1.0,41.721441999999996,-87.687663,Evergreen Park,IL,60805,McDonald's
9730 S Western Ave IL 60805,1.0,41.717535,-87.683116,Evergreen Park,IL,60805,McDonald's
9500 S Western Ave IL 60805,0.6,41.723,-87.685211,Evergreen Park,IL,60805,McDonald's
8715 S Kedzie Ave IL 60805,1.0,41.734481,-87.701868,Evergreen Park,IL,60805,McDonald's
2620 W 95th St IL 60805,1.0,41.721441999999996,-87.687663,Evergreen Park,IL,60805,McDonald's
9730 S Western Ave IL 60805,1.0,41.717535,-87.683116,Evergreen Park,IL,60805,McDonald's
9500 S Western Ave IL 60805,0.6,41.723,-87.685211,Evergreen Park,IL,60805,McDonald's
1300 Des Plaines Ave IL 60130,1.0,41.862807000000004,-87.818896,Forest Park,IL,60130,McDonald's
420 Des Plaines Ave IL 60130,1.0,41.878955,-87.81365600000001,Forest Park,IL,60130,McDonald's
1300 Des Plaines Ave IL 60130,1.0,41.862807000000004,-87.818896,Forest Park,IL,60130,McDonald's
420 Des Plaines Ave IL 60130,1.0,41.878955,-87.81365600000001,Forest Park,IL,60130,McDonald's
7215 W Lincoln Hwy IL 60423,1.0,41.505628,-87.791848,Frankfort,IL,60423,McDonald's
21011 South La Grange Road IL 60423,1.0,41.508117,-87.848708,Frankfort,IL,60423,McDonald's
7215 W Lincoln Hwy IL 60423,1.0,41.505628,-87.791848,Frankfort,IL,60423,McDonald's
21011 South La Grange Road IL 60423,1.0,41.508117,-87.848708,Frankfort,IL,60423,McDonald's
1300 W Galena Ave IL 61032,1.0,42.302005,-89.644671,Freeport,IL,61032,McDonald's
1710 S West Ave IL 61032,0.9,42.278303,-89.631739,Freeport,IL,61032,McDonald's
1300 W Galena Ave IL 61032,1.0,42.302005,-89.644671,Freeport,IL,61032,McDonald's
1710 S West Ave IL 61032,0.9,42.278303,-89.631739,Freeport,IL,61032,McDonald's
Knox Highway 10 IL 61401,1.0,40.918495,-90.38799499999999,Galesburg,IL,61401,McDonald's
1072 N Henderson St IL 61401,1.0,40.960634000000006,-90.383986,Galesburg,IL,61401,McDonald's
1158 E Main St IL 61401,1.0,40.947031,-90.352553,Galesburg,IL,61401,McDonald's
Knox Highway 10 IL 61401,1.0,40.918495,-90.38799499999999,Galesburg,IL,61401,McDonald's
1072 N Henderson St IL 61401,1.0,40.960634000000006,-90.383986,Galesburg,IL,61401,McDonald's
1158 E Main St IL 61401,1.0,40.947031,-90.352553,Galesburg,IL,61401,McDonald's
1812 S Randall Rd IL 60134,1.0,41.868297,-88.34134300000001,Geneva,IL,60134,McDonald's
1190 E State St IL 60134,1.0,41.886978000000006,-88.282444,Geneva,IL,60134,McDonald's
1812 S Randall Rd IL 60134,1.0,41.868297,-88.34134300000001,Geneva,IL,60134,McDonald's
1190 E State St IL 60134,1.0,41.886978000000006,-88.282444,Geneva,IL,60134,McDonald's
U.S. 24 IL 60938,1.0,40.762376,-87.994295,Gilman,IL,60938,McDonald's
720 U.S. Highway 24 IL 60938,1.0,40.753972,-87.996909,Gilman,IL,60938,McDonald's
U.S. 24 IL 60938,1.0,40.762376,-87.994295,Gilman,IL,60938,McDonald's
720 U.S. Highway 24 IL 60938,1.0,40.753972,-87.996909,Gilman,IL,60938,McDonald's
445 Roosevelt Rd IL 60137,0.9,41.859035999999996,-88.070494,Glen Ellyn,IL,60137,McDonald's
3s010 Il Route 53 IL 60137,0.33,41.865213,-88.061479,Glen Ellyn,IL,60137,McDonald's
445 Roosevelt Rd IL 60137,0.9,41.859035999999996,-88.070494,Glen Ellyn,IL,60137,McDonald's
3s010 Il Route 53 IL 60137,0.33,41.865213,-88.061479,Glen Ellyn,IL,60137,McDonald's
292 E Army Trail Rd IL 60139,1.0,41.937078,-88.07678100000001,Glendale Heights,IL,60139,McDonald's
215 North Ave IL 60139,1.0,41.902569,-88.081911,Glendale Heights,IL,60139,McDonald's
292 E Army Trail Rd IL 60139,1.0,41.937078,-88.07678100000001,Glendale Heights,IL,60139,McDonald's
215 North Ave IL 60139,1.0,41.902569,-88.081911,Glendale Heights,IL,60139,McDonald's
530 Waukegan Rd IL 60025,1.0,42.064887,-87.800108,Glenview,IL,60025,McDonald's
2741 Pfingsten Rd IL 60026,1.0,42.10411,-87.84751899999999,Glenview,IL,60026,McDonald's
530 Waukegan Rd IL 60025,1.0,42.064887,-87.800108,Glenview,IL,60025,McDonald's
2741 Pfingsten Rd IL 60026,1.0,42.10411,-87.84751899999999,Glenview,IL,60026,McDonald's
2 Engineer Rd IL 62040,1.0,38.757818,-90.089706,Granite City,IL,62040,McDonald's
1515 Johnson Rd IL 62040,1.0,38.7232,-90.121732,Granite City,IL,62040,McDonald's
2045 Madison Ave IL 62040,1.0,38.7003,-90.14608199999999,Granite City,IL,62040,McDonald's
2 Engineer Rd IL 62040,1.0,38.757818,-90.089706,Granite City,IL,62040,McDonald's
1515 Johnson Rd IL 62040,1.0,38.7232,-90.121732,Granite City,IL,62040,McDonald's
2045 Madison Ave IL 62040,1.0,38.7003,-90.14608199999999,Granite City,IL,62040,McDonald's
1804 E Belvidere Rd IL 60030,1.0,42.339101,-88.004083,Grayslake,IL,60030,McDonald's
1275 IL Route 83 IL 60030,0.9,42.367052,-88.043149,Grayslake,IL,60030,McDonald's
1804 E Belvidere Rd IL 60030,1.0,42.339101,-88.004083,Grayslake,IL,60030,McDonald's
1275 IL Route 83 IL 60030,0.9,42.367052,-88.043149,Grayslake,IL,60030,McDonald's
555 E Harris Ave IL 62246,1.0,38.887349,-89.405632,Greenville,IL,62246,McDonald's
1600 S State Route 127 IL 62246,0.6,38.954028,-89.46895699999999,Greenville,IL,62246,McDonald's
555 E Harris Ave IL 62246,1.0,38.887349,-89.405632,Greenville,IL,62246,McDonald's
1600 S State Route 127 IL 62246,0.6,38.954028,-89.46895699999999,Greenville,IL,62246,McDonald's
6380 Grand Ave IL 60031,1.0,42.38601,-87.959554,Gurnee,IL,60031,McDonald's
1275 N Delany Rd IL 60031,1.0,42.377864,-87.904064,Gurnee,IL,60031,McDonald's
6170 Grand Ave IL 60031,1.0,42.390778999999995,-87.959728,Gurnee,IL,60031,McDonald's
5555 Grand Ave IL 60031,1.0,42.377807000000004,-87.939616,Gurnee,IL,60031,McDonald's
6380 Grand Ave IL 60031,1.0,42.38601,-87.959554,Gurnee,IL,60031,McDonald's
1275 N Delany Rd IL 60031,1.0,42.377864,-87.904064,Gurnee,IL,60031,McDonald's
6170 Grand Ave IL 60031,1.0,42.390778999999995,-87.959728,Gurnee,IL,60031,McDonald's
5555 Grand Ave IL 60031,1.0,42.377807000000004,-87.939616,Gurnee,IL,60031,McDonald's
7455 Barrington Rd IL 60133,1.0,42.006992,-88.144038,Hanover Park,IL,60133,McDonald's
1050 E Lake St IL 60133,0.9,42.001673,-88.176411,Hanover Park,IL,60133,McDonald's
7455 Barrington Rd IL 60133,1.0,42.006992,-88.144038,Hanover Park,IL,60133,McDonald's
1050 E Lake St IL 60133,0.9,42.001673,-88.176411,Hanover Park,IL,60133,McDonald's
226 W 147th St IL 60426,1.0,41.622508,-87.669404,Harvey,IL,60426,McDonald's
14702 Dixie Hwy IL 60426,1.0,41.62219,-87.675115,Harvey,IL,60426,McDonald's
226 W 147th St IL 60426,1.0,41.622508,-87.669404,Harvey,IL,60426,McDonald's
14702 Dixie Hwy IL 60426,1.0,41.62219,-87.675115,Harvey,IL,60426,McDonald's
6400 W Montrose Ave IL 60706,1.0,41.960491,-87.78745699999999,Harwood Heights,IL,60706,McDonald's
5022 N Harlem Ave IL 60706,1.0,41.971574,-87.807528,Harwood Heights,IL,60706,McDonald's
6400 W Montrose Ave IL 60706,1.0,41.960491,-87.78745699999999,Harwood Heights,IL,60706,McDonald's
5022 N Harlem Ave IL 60706,1.0,41.971574,-87.807528,Harwood Heights,IL,60706,McDonald's
7620 95th Street IL 60457,0.9,41.718874,-87.80919300000001,Hickory Hills,IL,60457,McDonald's
8715 W 95th St IL 60457,1.0,41.717875,-87.836069,Hickory Hills,IL,60457,McDonald's
7620 95th Street IL 60457,0.9,41.718874,-87.80919300000001,Hickory Hills,IL,60457,McDonald's
8715 W 95th St IL 60457,1.0,41.717875,-87.836069,Hickory Hills,IL,60457,McDonald's
1988 1st St IL 60035,1.0,42.188653,-87.801851,Highland Park,IL,60035,McDonald's
2748 Skokie Valley Rd IL 60035,1.0,42.20227,-87.83493299999999,Highland Park,IL,60035,McDonald's
1988 1st St IL 60035,1.0,42.188653,-87.801851,Highland Park,IL,60035,McDonald's
2748 Skokie Valley Rd IL 60035,1.0,42.20227,-87.83493299999999,Highland Park,IL,60035,McDonald's
933 N York Rd IL 60521,1.0,41.817906,-87.926425,Hinsdale,IL,60521,McDonald's
5800 Tri State Toll Rd IL 60521,0.52,41.791734999999996,-87.907939,Hinsdale,IL,60521,McDonald's
935 N York Rd IL 60521,1.0,41.817684,-87.926609,Hinsdale,IL,60521,McDonald's
933 N York Rd IL 60521,1.0,41.817906,-87.926425,Hinsdale,IL,60521,McDonald's
5800 Tri State Toll Rd IL 60521,0.52,41.791734999999996,-87.907939,Hinsdale,IL,60521,McDonald's
935 N York Rd IL 60521,1.0,41.817684,-87.926609,Hinsdale,IL,60521,McDonald's
1070 North Roselle Road IL 60169,1.0,42.047715000000004,-88.080179,Hoffman Estates,IL,60169,McDonald's
2250 W Higgins Rd IL 60169,1.0,42.056976,-88.13552800000001,Hoffman Estates,IL,60169,McDonald's
2580 W Golf Rd IL 60169,1.0,42.047143,-88.143327,Hoffman Estates,IL,60169,McDonald's
2250 West Higgins Road IL 60169,1.0,42.056976,-88.13552800000001,Hoffman Estates,IL,60169,McDonald's
2580 West Golf Road IL 60169,1.0,42.047143,-88.143327,Hoffman Estates,IL,60169,McDonald's
1070 North Roselle Road IL 60169,1.0,42.047715000000004,-88.080179,Hoffman Estates,IL,60169,McDonald's
2250 W Higgins Rd IL 60169,1.0,42.056976,-88.13552800000001,Hoffman Estates,IL,60169,McDonald's
2580 W Golf Rd IL 60169,1.0,42.047143,-88.143327,Hoffman Estates,IL,60169,McDonald's
2250 West Higgins Road IL 60169,1.0,42.056976,-88.13552800000001,Hoffman Estates,IL,60169,McDonald's
2580 West Golf Road IL 60169,1.0,42.047143,-88.143327,Hoffman Estates,IL,60169,McDonald's
3132 183rd St IL 60430,1.0,41.557323,-87.692562,Homewood,IL,60430,McDonald's
17740 Halsted St IL 60430,1.0,41.567239,-87.636874,Homewood,IL,60430,McDonald's
3132 183rd St IL 60430,1.0,41.557323,-87.692562,Homewood,IL,60430,McDonald's
17740 Halsted St IL 60430,1.0,41.567239,-87.636874,Homewood,IL,60430,McDonald's
1100 W Irving Park Rd IL 60143,1.0,41.972677000000004,-88.02964300000001,Itasca,IL,60143,McDonald's
1301 E Irving Park Rd IL 60143,0.87,41.96693,-87.997752,Itasca,IL,60143,McDonald's
1100 W Irving Park Rd IL 60143,1.0,41.972677000000004,-88.02964300000001,Itasca,IL,60143,McDonald's
1301 E Irving Park Rd IL 60143,0.87,41.96693,-87.997752,Itasca,IL,60143,McDonald's
4280 W Jefferson St IL 60431,1.0,41.521338,-88.184513,Joliet,IL,60431,McDonald's
1421 Riverboat Center Dr IL 60431,1.0,41.495026,-88.16780899999999,Joliet,IL,60431,McDonald's
4048 Hennepin Dr IL 60431,1.0,41.577977000000004,-88.173649,Joliet,IL,60431,McDonald's
508 E Cass St IL 60432,1.0,41.527584000000004,-88.069362,Joliet,IL,60432,McDonald's
1515 W Jefferson St IL 60435,1.0,41.523052,-88.119571,Joliet,IL,60435,McDonald's
1555 N Broadway St IL 60435,1.0,41.551871999999996,-88.08837199999999,Joliet,IL,60435,McDonald's
2212 Essington Rd IL 60435,1.0,41.56259,-88.160855,Joliet,IL,60435,McDonald's
2885 Plainfield Rd IL 60435,1.0,41.577552000000004,-88.158114,Joliet,IL,60435,McDonald's
3000 W Jefferson St IL 60435,1.0,41.52081,-88.155179,Joliet,IL,60435,McDonald's
305 S Larkin Ave IL 60436,1.0,41.516953,-88.127437,Joliet,IL,60436,McDonald's
4280 W Jefferson St IL 60431,1.0,41.521338,-88.184513,Joliet,IL,60431,McDonald's
1421 Riverboat Center Dr IL 60431,1.0,41.495026,-88.16780899999999,Joliet,IL,60431,McDonald's
4048 Hennepin Dr IL 60431,1.0,41.577977000000004,-88.173649,Joliet,IL,60431,McDonald's
508 E Cass St IL 60432,1.0,41.527584000000004,-88.069362,Joliet,IL,60432,McDonald's
1515 W Jefferson St IL 60435,1.0,41.523052,-88.119571,Joliet,IL,60435,McDonald's
1555 N Broadway St IL 60435,1.0,41.551871999999996,-88.08837199999999,Joliet,IL,60435,McDonald's
2212 Essington Rd IL 60435,1.0,41.56259,-88.160855,Joliet,IL,60435,McDonald's
2885 Plainfield Rd IL 60435,1.0,41.577552000000004,-88.158114,Joliet,IL,60435,McDonald's
3000 W Jefferson St IL 60435,1.0,41.52081,-88.155179,Joliet,IL,60435,McDonald's
305 S Larkin Ave IL 60436,1.0,41.516953,-88.127437,Joliet,IL,60436,McDonald's
1030 N 5th Ave IL 60901,1.0,41.132014,-87.876049,Kankakee,IL,60901,McDonald's
1780 E Court St IL 60901,1.0,41.118415999999996,-87.841024,Kankakee,IL,60901,McDonald's
1030 N 5th Ave IL 60901,1.0,41.132014,-87.876049,Kankakee,IL,60901,McDonald's
1780 E Court St IL 60901,1.0,41.118415999999996,-87.841024,Kankakee,IL,60901,McDonald's
S La Grange Rd IL 60525,1.0,41.791385,-87.868874,La Grange,IL,60525,McDonald's
100 N La Grange Rd IL 60525,1.0,41.818425,-87.870281,La Grange,IL,60525,McDonald's
S La Grange Rd IL 60525,1.0,41.791385,-87.868874,La Grange,IL,60525,McDonald's
100 N La Grange Rd IL 60525,1.0,41.818425,-87.870281,La Grange,IL,60525,McDonald's
28929 N Waukegan Rd IL 60044,1.0,42.287694,-87.88410400000001,Lake Bluff,IL,60044,McDonald's
30388 N Skokie Hwy IL 60044,1.0,42.304013,-87.876462,Lake Bluff,IL,60044,McDonald's
28929 N Waukegan Rd IL 60044,1.0,42.287694,-87.88410400000001,Lake Bluff,IL,60044,McDonald's
30388 N Skokie Hwy IL 60044,1.0,42.304013,-87.876462,Lake Bluff,IL,60044,McDonald's
1025 W Everett Rd IL 60045,1.0,42.221521,-87.872198,Lake Forest,IL,60045,McDonald's
13783 W Oasis Service Rd IL 60045,1.0,42.252992,-87.90136700000001,Lake Forest,IL,60045,McDonald's
884 S Waukegan Rd IL 60045,1.0,42.224009,-87.873859,Lake Forest,IL,60045,McDonald's
1025 W Everett Rd IL 60045,1.0,42.221521,-87.872198,Lake Forest,IL,60045,McDonald's
13783 W Oasis Service Rd IL 60045,1.0,42.252992,-87.90136700000001,Lake Forest,IL,60045,McDonald's
884 S Waukegan Rd IL 60045,1.0,42.224009,-87.873859,Lake Forest,IL,60045,McDonald's
123 North Quentin Road IL 60047,0.8,42.198723,-88.058662,Hawthorn Woods,IL,60047,McDonald's
653 S Rand Rd IL 60047,0.68,42.207384000000005,-88.112443,Lake Zurich,IL,60047,McDonald's
123 North Quentin Road IL 60047,0.8,42.198723,-88.058662,Hawthorn Woods,IL,60047,McDonald's
653 S Rand Rd IL 60047,0.68,42.207384000000005,-88.112443,Lake Zurich,IL,60047,McDonald's
1951 Bernice Rd IL 60438,1.0,41.578749,-87.569187,Lansing,IL,60438,McDonald's
17810 Torrence Ave IL 60438,1.0,41.571536,-87.559217,Lansing,IL,60438,McDonald's
1951 Bernice Rd IL 60438,1.0,41.578749,-87.569187,Lansing,IL,60438,McDonald's
17810 Torrence Ave IL 60438,1.0,41.571536,-87.559217,Lansing,IL,60438,McDonald's
1417 Peterson Rd IL 60048,1.0,42.305104,-87.980948,Libertyville,IL,60048,McDonald's
1200 S Milwaukee Ave IL 60048,1.0,42.264246,-87.948451,Libertyville,IL,60048,McDonald's
1330 N Milwaukee Ave IL 60048,1.0,42.297567,-87.955976,Libertyville,IL,60048,McDonald's
1417 Peterson Rd IL 60048,1.0,42.305104,-87.980948,Libertyville,IL,60048,McDonald's
1200 S Milwaukee Ave IL 60048,1.0,42.264246,-87.948451,Libertyville,IL,60048,McDonald's
1330 N Milwaukee Ave IL 60048,1.0,42.297567,-87.955976,Libertyville,IL,60048,McDonald's
2250 E Grand Ave IL 60046,1.0,42.407075,-88.027761,Lindenhurst,IL,60046,McDonald's
431 E Grand Ave IL 60046,1.0,42.415165,-88.071504,Lake Villa,IL,60046,McDonald's
2250 E Grand Ave IL 60046,1.0,42.407075,-88.027761,Lindenhurst,IL,60046,McDonald's
431 E Grand Ave IL 60046,1.0,42.415165,-88.071504,Lake Villa,IL,60046,McDonald's
16519 West 159th Street IL 60441,1.0,41.596911999999996,-88.02187099999999,Lockport,IL,60441,McDonald's
1039 E 9th St IL 60441,1.0,41.594142,-88.038043,Lockport,IL,60441,McDonald's
16519 West 159th Street IL 60441,1.0,41.596911999999996,-88.02187099999999,Lockport,IL,60441,McDonald's
1039 E 9th St IL 60441,1.0,41.594142,-88.038043,Lockport,IL,60441,McDonald's
1 Yorktown Shopping Ctr IL 60148,0.22,41.869828999999996,-88.00386400000001,Lombard,IL,60148,McDonald's
540 W North Ave IL 60148,0.88,41.904897,-88.031839,Lombard,IL,60148,McDonald's
300 E Roosevelt Rd IL 60148,1.0,41.860857,-88.009559,Lombard,IL,60148,McDonald's
269 Yorktown Shopping Ctr IL 60148,0.22,41.869828999999996,-88.00386400000001,Lombard,IL,60148,McDonald's
1 Yorktown Shopping Ctr IL 60148,0.22,41.869828999999996,-88.00386400000001,Lombard,IL,60148,McDonald's
540 W North Ave IL 60148,0.88,41.904897,-88.031839,Lombard,IL,60148,McDonald's
300 E Roosevelt Rd IL 60148,1.0,41.860857,-88.009559,Lombard,IL,60148,McDonald's
269 Yorktown Shopping Ctr IL 60148,0.22,41.869828999999996,-88.00386400000001,Lombard,IL,60148,McDonald's
625 W Jackson St IL 61455,1.0,40.458709999999996,-90.679824,Macomb,IL,61455,McDonald's
105 S Prairie St IL 61455,1.0,40.458546000000005,-90.652325,Macomb,IL,61455,McDonald's
625 W Jackson St IL 61455,1.0,40.458709999999996,-90.679824,Macomb,IL,61455,McDonald's
105 S Prairie St IL 61455,1.0,40.458546000000005,-90.652325,Macomb,IL,61455,McDonald's
700 N Court St IL 62959,1.0,37.735386,-88.93298,Marion,IL,62959,McDonald's
2603 W Deyoung St IL 62959,1.0,37.740296,-88.963302,Marion,IL,62959,McDonald's
700 N Court St IL 62959,1.0,37.735386,-88.93298,Marion,IL,62959,McDonald's
2603 W Deyoung St IL 62959,1.0,37.740296,-88.963302,Marion,IL,62959,McDonald's
4212 Lake Land Blvd IL 61938,1.0,39.43316,-88.377525,Mattoon,IL,61938,McDonald's
103 Dettro Dr IL 61938,1.0,39.483529,-88.336775,Mattoon,IL,61938,McDonald's
101 Dettro Dr IL 61938,1.0,39.481975,-88.337839,Mattoon,IL,61938,McDonald's
4212 Lake Land Blvd IL 61938,1.0,39.43316,-88.377525,Mattoon,IL,61938,McDonald's
103 Dettro Dr IL 61938,1.0,39.483529,-88.336775,Mattoon,IL,61938,McDonald's
101 Dettro Dr IL 61938,1.0,39.481975,-88.337839,Mattoon,IL,61938,McDonald's
507 West Roosevelt Road IL 60153,1.0,41.864518,-87.838378,Maywood,IL,60153,McDonald's
11 N 1st Ave IL 60153,1.0,41.888277,-87.833475,Maywood,IL,60153,McDonald's
507 West Roosevelt Road IL 60153,1.0,41.864518,-87.838378,Maywood,IL,60153,McDonald's
11 N 1st Ave IL 60153,1.0,41.888277,-87.833475,Maywood,IL,60153,McDonald's
500 W Randolph St IL 62859,0.9,40.315621,-88.98451,Heyworth,IL,61745,McDonald's
104 N Jackson St IL 62859,1.0,38.095304,-88.53519200000001,Mc Leansboro,IL,62859,McDonald's
500 W Randolph St IL 62859,0.9,40.315621,-88.98451,Heyworth,IL,61745,McDonald's
104 N Jackson St IL 62859,1.0,38.095304,-88.53519200000001,Mc Leansboro,IL,62859,McDonald's
522 S Il Route 31 IL 60050,0.9,42.163156,-88.296027,Algonquin,IL,60102,McDonald's
4411 W Elm St IL 60050,1.0,42.346828,-88.284367,McHenry,IL,60050,McDonald's
2019 N Richmond Rd IL 60051,0.85,42.356852,-88.26901600000001,McHenry,IL,60050,McDonald's
522 S Il Route 31 IL 60050,0.9,42.163156,-88.296027,Algonquin,IL,60102,McDonald's
4411 W Elm St IL 60050,1.0,42.346828,-88.284367,McHenry,IL,60050,McDonald's
2019 N Richmond Rd IL 60051,0.85,42.356852,-88.26901600000001,McHenry,IL,60050,McDonald's
1413 Washington St IL 61342,1.0,41.548055,-89.13030400000001,Mendota,IL,61342,McDonald's
2701 E 12th St IL 61342,1.0,41.554814,-89.106406,Mendota,IL,61342,McDonald's
1413 Washington St IL 61342,1.0,41.548055,-89.13030400000001,Mendota,IL,61342,McDonald's
2701 E 12th St IL 61342,1.0,41.554814,-89.106406,Mendota,IL,61342,McDonald's
100 Ridge Rd IL 60447,0.6,41.492433,-88.27239200000001,Minooka,IL,60447,McDonald's
102 Ridge Rd IL 60447,0.7,41.455665,-88.27149399999999,Minooka,IL,60447,McDonald's
100 Ridge Rd IL 60447,0.6,41.492433,-88.27239200000001,Minooka,IL,60447,McDonald's
102 Ridge Rd IL 60447,0.7,41.455665,-88.27149399999999,Minooka,IL,60447,McDonald's
1800 36th Ave IL 61265,1.0,41.477799,-90.506751,Moline,IL,61265,McDonald's
2701 69th Avenue Ct IL 61265,1.0,41.45556,-90.499429,Moline,IL,61265,McDonald's
3433 Avenue Of The Cities IL 61265,0.6,41.490013,-90.506848,Moline,IL,61265,McDonald's
3435 Avenue Of The Cities IL 61265,0.6,41.490013,-90.506848,Moline,IL,61265,McDonald's
400 1st St IL 61265,1.0,41.513143,-90.46074,Moline,IL,61265,McDonald's
1800 36th Ave IL 61265,1.0,41.477799,-90.506751,Moline,IL,61265,McDonald's
2701 69th Avenue Ct IL 61265,1.0,41.45556,-90.499429,Moline,IL,61265,McDonald's
3433 Avenue Of The Cities IL 61265,0.6,41.490013,-90.506848,Moline,IL,61265,McDonald's
3435 Avenue Of The Cities IL 61265,0.6,41.490013,-90.506848,Moline,IL,61265,McDonald's
400 1st St IL 61265,1.0,41.513143,-90.46074,Moline,IL,61265,McDonald's
100 W Rand Rd IL 60056,1.0,42.082414,-87.937673,Mount Prospect,IL,60056,McDonald's
13 W Rand Rd IL 60056,1.0,42.081695,-87.938524,Mount Prospect,IL,60056,McDonald's
999 N Elmhurst Rd IL 60056,1.0,42.08444,-87.933324,Mount Prospect,IL,60056,McDonald's
100 W Rand Rd IL 60056,1.0,42.082414,-87.937673,Mount Prospect,IL,60056,McDonald's
13 W Rand Rd IL 60056,1.0,42.081695,-87.938524,Mount Prospect,IL,60056,McDonald's
999 N Elmhurst Rd IL 60056,1.0,42.08444,-87.933324,Mount Prospect,IL,60056,McDonald's
102 Potomac Blvd IL 62864,1.0,38.318071,-88.955954,Mount Vernon,IL,62864,McDonald's
2806 Broadway St IL 62864,1.0,38.315388,-88.926516,Mount Vernon,IL,62864,McDonald's
102 Potomac Blvd IL 62864,1.0,38.318071,-88.955954,Mount Vernon,IL,62864,McDonald's
2806 Broadway St IL 62864,1.0,38.315388,-88.926516,Mount Vernon,IL,62864,McDonald's
663 Illinois 83 IL 60060,0.6,42.245377000000005,-88.011523,Mundelein,IL,60060,McDonald's
450 Townline Rd IL 60060,1.0,42.240542,-87.99493199999999,Mundelein,IL,60060,McDonald's
151 N Lake St IL 60060,1.0,42.265592,-88.00353199999999,Mundelein,IL,60060,McDonald's
665 S Il Route 83 IL 60060,1.0,42.255588,-88.021909,Mundelein,IL,60060,McDonald's
663 Illinois 83 IL 60060,0.6,42.245377000000005,-88.011523,Mundelein,IL,60060,McDonald's
450 Townline Rd IL 60060,1.0,42.240542,-87.99493199999999,Mundelein,IL,60060,McDonald's
151 N Lake St IL 60060,1.0,42.265592,-88.00353199999999,Mundelein,IL,60060,McDonald's
665 S Il Route 83 IL 60060,1.0,42.255588,-88.021909,Mundelein,IL,60060,McDonald's
550 E Industrial Park Rd IL 62966,1.0,37.789131,-89.322671,Murphysboro,IL,62966,McDonald's
1020 Walnut St IL 62966,1.0,37.764583,-89.335061,Murphysboro,IL,62966,McDonald's
550 E Industrial Park Rd IL 62966,1.0,37.789131,-89.322671,Murphysboro,IL,62966,McDonald's
1020 Walnut St IL 62966,1.0,37.764583,-89.335061,Murphysboro,IL,62966,McDonald's
339a Douglas Ave IL 60540,1.0,41.777519,-88.154209,Naperville,IL,60540,McDonald's
1298 S Naper Blvd IL 60540,1.0,41.749733,-88.115666,Naperville,IL,60540,McDonald's
1376 Illinois 59 IL 60563,1.0,41.790690999999995,-88.20507099999999,Naperville,IL,60563,McDonald's
514 N River Rd IL 60563,1.0,41.783978999999995,-88.18167199999999,Naperville,IL,60563,McDonald's
1520 N Naper Blvd IL 60563,1.0,41.798123,-88.118992,Naperville,IL,60563,McDonald's
3232 S State Route 59 IL 60564,1.0,41.705583000000004,-88.204828,Naperville,IL,60564,McDonald's
892 W 75th St IL 60565,1.0,41.747321,-88.163876,Naperville,IL,60565,McDonald's
339a Douglas Ave IL 60540,1.0,41.777519,-88.154209,Naperville,IL,60540,McDonald's
1298 S Naper Blvd IL 60540,1.0,41.749733,-88.115666,Naperville,IL,60540,McDonald's
1376 Illinois 59 IL 60563,1.0,41.790690999999995,-88.20507099999999,Naperville,IL,60563,McDonald's
514 N River Rd IL 60563,1.0,41.783978999999995,-88.18167199999999,Naperville,IL,60563,McDonald's
1520 N Naper Blvd IL 60563,1.0,41.798123,-88.118992,Naperville,IL,60563,McDonald's
3232 S State Route 59 IL 60564,1.0,41.705583000000004,-88.204828,Naperville,IL,60564,McDonald's
892 W 75th St IL 60565,1.0,41.747321,-88.163876,Naperville,IL,60565,McDonald's
600 W Maple St IL 60451,1.0,41.517903000000004,-87.981753,New Lenox,IL,60451,McDonald's
2151 East Laraway Road IL 60451,1.0,41.484358,-87.921617,New Lenox,IL,60451,McDonald's
600 W Maple St IL 60451,1.0,41.517903000000004,-87.981753,New Lenox,IL,60451,McDonald's
2151 East Laraway Road IL 60451,1.0,41.484358,-87.921617,New Lenox,IL,60451,McDonald's
N Milwaukee Ave IL 60016,1.0,42.060491,-87.844021,Des Plaines,IL,60016,McDonald's
298 Golf Mill Ctr IL 60714,1.0,42.0503,-87.836363,Niles,IL,60714,McDonald's
8460 W Dempster St IL 60714,1.0,42.040518,-87.83767900000001,Niles,IL,60714,McDonald's
7969 N Milwaukee Ave IL 60714,1.0,42.025765,-87.813194,Niles,IL,60714,McDonald's
N Milwaukee Ave IL 60016,1.0,42.060491,-87.844021,Des Plaines,IL,60016,McDonald's
298 Golf Mill Ctr IL 60714,1.0,42.0503,-87.836363,Niles,IL,60714,McDonald's
8460 W Dempster St IL 60714,1.0,42.040518,-87.83767900000001,Niles,IL,60714,McDonald's
7969 N Milwaukee Ave IL 60714,1.0,42.025765,-87.813194,Niles,IL,60714,McDonald's
804 S Main St IL 61761,1.0,40.503375,-88.99423399999999,Normal,IL,61761,McDonald's
1535 E College Ave IL 61761,1.0,40.509842,-88.95594399999999,Normal,IL,61761,McDonald's
1607 N Main St IL 61761,1.0,40.530239,-88.996613,Normal,IL,61761,McDonald's
804 S Main St IL 61761,1.0,40.503375,-88.99423399999999,Normal,IL,61761,McDonald's
1535 E College Ave IL 61761,1.0,40.509842,-88.95594399999999,Normal,IL,61761,McDonald's
1607 N Main St IL 61761,1.0,40.530239,-88.996613,Normal,IL,61761,McDonald's
2211 Green Bay Rd IL 60064,1.0,42.319067,-87.865504,North Chicago,IL,60064,McDonald's
3001 6th St IL 60088,1.0,42.307959999999994,-87.838274,Great Lakes,IL,60088,McDonald's
2211 Green Bay Rd IL 60064,1.0,42.319067,-87.865504,North Chicago,IL,60064,McDonald's
3001 6th St IL 60088,1.0,42.307959999999994,-87.838274,Great Lakes,IL,60088,McDonald's
200 Skokie Blvd IL 60062,1.0,42.149167999999996,-87.800216,Northbrook,IL,60062,McDonald's
2261 Northbrook Ct IL 60062,1.0,42.151761,-87.81698,Northbrook,IL,60062,McDonald's
4195 Dundee Rd IL 60062,1.0,42.138315999999996,-87.88238299999999,Northbrook,IL,60062,McDonald's
Dundee Rd IL 60062,1.0,42.138159,-87.844012,Northbrook,IL,60062,McDonald's
200 Skokie Blvd IL 60062,1.0,42.149167999999996,-87.800216,Northbrook,IL,60062,McDonald's
2261 Northbrook Ct IL 60062,1.0,42.151761,-87.81698,Northbrook,IL,60062,McDonald's
4195 Dundee Rd IL 60062,1.0,42.138315999999996,-87.88238299999999,Northbrook,IL,60062,McDonald's
Dundee Rd IL 60062,1.0,42.138159,-87.844012,Northbrook,IL,60062,McDonald's
1790 Frank Scott Pkwy E IL 62269,0.74,38.570934,-89.930439,O'fallon,IL,62269,McDonald's
1610 W Us Highway 50 IL 62269,1.0,38.593049,-89.955096,O Fallon,IL,62269,McDonald's
109 E Us Highway 50 IL 62269,1.0,38.584533,-89.909204,O Fallon,IL,62269,McDonald's
108 E Us Highway 50 IL 62269,1.0,38.585189,-89.91002399999999,O Fallon,IL,62269,McDonald's
1790 Frank Scott Pkwy E IL 62269,0.74,38.570934,-89.930439,O'fallon,IL,62269,McDonald's
1610 W Us Highway 50 IL 62269,1.0,38.593049,-89.955096,O Fallon,IL,62269,McDonald's
109 E Us Highway 50 IL 62269,1.0,38.584533,-89.909204,O Fallon,IL,62269,McDonald's
108 E Us Highway 50 IL 62269,1.0,38.585189,-89.91002399999999,O Fallon,IL,62269,McDonald's
2111 Midwest Rd IL 60521,0.65,41.847536,-87.97165600000001,Oak Brook,IL,60523,McDonald's
66 Oakbrook Ctr IL 60521,0.67,41.849086,-87.95415799999999,Hinsdale,IL,60521,McDonald's
2915 Jorie Blvd IL 60523,1.0,41.836065999999995,-87.943791,Oak Brook,IL,60523,McDonald's
1120 W 22nd St IL 60523,1.0,41.84809,-87.945306,Oak Brook,IL,60523,McDonald's
Mcdonalds Dr IL 60523,1.0,41.848040000000005,-87.945699,Oak Brook,IL,60523,McDonald's
2111 Midwest Rd IL 60521,0.65,41.847536,-87.97165600000001,Oak Brook,IL,60523,McDonald's
66 Oakbrook Ctr IL 60521,0.67,41.849086,-87.95415799999999,Hinsdale,IL,60521,McDonald's
2915 Jorie Blvd IL 60523,1.0,41.836065999999995,-87.943791,Oak Brook,IL,60523,McDonald's
1120 W 22nd St IL 60523,1.0,41.84809,-87.945306,Oak Brook,IL,60523,McDonald's
Mcdonalds Dr IL 60523,1.0,41.848040000000005,-87.945699,Oak Brook,IL,60523,McDonald's
9128 S Cicero Ave IL 60453,1.0,41.726831,-87.741483,Oak Lawn,IL,60453,McDonald's
10549 S Cicero Ave IL 60453,1.0,41.700377,-87.739474,Oak Lawn,IL,60453,McDonald's
6034 W 95th St IL 60453,1.0,41.719999,-87.771836,Oak Lawn,IL,60453,McDonald's
9128 S Cicero Ave IL 60453,1.0,41.726831,-87.741483,Oak Lawn,IL,60453,McDonald's
10549 S Cicero Ave IL 60453,1.0,41.700377,-87.739474,Oak Lawn,IL,60453,McDonald's
6034 W 95th St IL 60453,1.0,41.719999,-87.771836,Oak Lawn,IL,60453,McDonald's
11241 W 159th St IL 60462,0.65,41.600193,-87.89304,Orland Park,IL,60467,McDonald's
14445 S La Grange Rd IL 60462,0.22,41.625307,-87.83293,Orland Park,IL,60462,McDonald's
9110 W 159th St IL 60462,1.0,41.601646,-87.845136,Orland Park,IL,60462,McDonald's
11111 179th Street IL 60467,1.0,41.563915,-87.888478,Orland Park,IL,60467,McDonald's
11241 W 159th St IL 60462,0.65,41.600193,-87.89304,Orland Park,IL,60467,McDonald's
14445 S La Grange Rd IL 60462,0.22,41.625307,-87.83293,Orland Park,IL,60462,McDonald's
9110 W 159th St IL 60462,1.0,41.601646,-87.845136,Orland Park,IL,60462,McDonald's
11111 179th Street IL 60467,1.0,41.563915,-87.888478,Orland Park,IL,60467,McDonald's
3417 Orchard Rd IL 60543,1.0,41.68618,-88.380972,Oswego,IL,60543,McDonald's
U.S. 34 IL 60543,1.0,41.695592,-88.323771,Oswego,IL,60543,McDonald's
339 Douglas St IL 60543,1.0,41.679429999999996,-88.354827,Oswego,IL,60543,McDonald's
2890 U.S. 34 IL 60543,1.0,41.695831,-88.321794,Oswego,IL,60543,McDonald's
3417 Orchard Rd IL 60543,1.0,41.68618,-88.380972,Oswego,IL,60543,McDonald's
U.S. 34 IL 60543,1.0,41.695592,-88.323771,Oswego,IL,60543,McDonald's
339 Douglas St IL 60543,1.0,41.679429999999996,-88.354827,Oswego,IL,60543,McDonald's
2890 U.S. 34 IL 60543,1.0,41.695831,-88.321794,Oswego,IL,60543,McDonald's
127 E Norris Dr IL 61350,1.0,41.356029,-88.84008100000001,Ottawa,IL,61350,McDonald's
4041 Veterans Dr IL 61350,0.33,41.34559,-88.84258,Ottawa,IL,61350,McDonald's
127 E Norris Dr IL 61350,1.0,41.356029,-88.84008100000001,Ottawa,IL,61350,McDonald's
4041 Veterans Dr IL 61350,0.33,41.34559,-88.84258,Ottawa,IL,61350,McDonald's
275 W Northwest Hwy IL 60067,1.0,42.117906,-88.036376,Palatine,IL,60067,McDonald's
1576 N Rand Rd IL 60074,1.0,42.137122,-88.019818,Palatine,IL,60074,McDonald's
1570 E Northwest Hwy IL 60074,1.0,42.094840000000005,-88.00601,Palatine,IL,60074,McDonald's
275 W Northwest Hwy IL 60067,1.0,42.117906,-88.036376,Palatine,IL,60067,McDonald's
1576 N Rand Rd IL 60074,1.0,42.137122,-88.019818,Palatine,IL,60074,McDonald's
1570 E Northwest Hwy IL 60074,1.0,42.094840000000005,-88.00601,Palatine,IL,60074,McDonald's
1013 Court St IL 61554,1.0,40.565639000000004,-89.636748,Pekin,IL,61554,McDonald's
3295 Court St IL 61554,1.0,40.546803000000004,-89.604031,Pekin,IL,61554,McDonald's
3291 Court St IL 61554,1.0,40.546098,-89.602197,Pekin,IL,61554,McDonald's
3320 Veterans Dr IL 61554,0.9,40.538728000000006,-89.595112,Pekin,IL,61554,McDonald's
1124 Wesley Rd IL 61554,0.9,40.626366,-89.61831,Creve Coeur,IL,61610,McDonald's
1013 Court St IL 61554,1.0,40.565639000000004,-89.636748,Pekin,IL,61554,McDonald's
3295 Court St IL 61554,1.0,40.546803000000004,-89.604031,Pekin,IL,61554,McDonald's
3291 Court St IL 61554,1.0,40.546098,-89.602197,Pekin,IL,61554,McDonald's
3320 Veterans Dr IL 61554,0.9,40.538728000000006,-89.595112,Pekin,IL,61554,McDonald's
1124 Wesley Rd IL 61554,0.9,40.626366,-89.61831,Creve Coeur,IL,61610,McDonald's
2920 Ne Adams St IL 61603,1.0,40.715376,-89.55989,Peoria,IL,61603,McDonald's
2205 N Knoxville Ave IL 61603,1.0,40.71478,-89.593991,Peoria,IL,61603,McDonald's
627 North Western Avenue IL 61604,1.0,40.695637,-89.623326,Peoria,IL,61604,McDonald's
627 N Western Ave IL 61604,1.0,40.695637,-89.623326,Peoria,IL,61604,McDonald's
1017 W Main St IL 61606,1.0,40.699993,-89.610085,Peoria,IL,61606,McDonald's
5600 Washington St IL 61607,0.9,40.652711,-89.647588,Peoria,IL,61607,McDonald's
1205 W Garfield Ave IL 61607,0.9,40.645022,-89.672126,Bartonville,IL,61607,McDonald's
2320 W War Memorial Dr IL 61614,1.0,40.744113,-89.630425,Peoria,IL,61614,McDonald's
3600 N University St IL 61614,0.8,40.731545000000004,-89.612063,Peoria,IL,61604,McDonald's
4007 Barring Trce IL 61615,1.0,40.769913,-89.654748,Peoria,IL,61615,McDonald's
2920 Ne Adams St IL 61603,1.0,40.715376,-89.55989,Peoria,IL,61603,McDonald's
2205 N Knoxville Ave IL 61603,1.0,40.71478,-89.593991,Peoria,IL,61603,McDonald's
627 North Western Avenue IL 61604,1.0,40.695637,-89.623326,Peoria,IL,61604,McDonald's
627 N Western Ave IL 61604,1.0,40.695637,-89.623326,Peoria,IL,61604,McDonald's
1017 W Main St IL 61606,1.0,40.699993,-89.610085,Peoria,IL,61606,McDonald's
5600 Washington St IL 61607,0.9,40.652711,-89.647588,Peoria,IL,61607,McDonald's
1205 W Garfield Ave IL 61607,0.9,40.645022,-89.672126,Bartonville,IL,61607,McDonald's
2320 W War Memorial Dr IL 61614,1.0,40.744113,-89.630425,Peoria,IL,61614,McDonald's
3600 N University St IL 61614,0.8,40.731545000000004,-89.612063,Peoria,IL,61604,McDonald's
4007 Barring Trce IL 61615,1.0,40.769913,-89.654748,Peoria,IL,61615,McDonald's
3947 Frontage Rd IL 61354,1.0,41.365257,-89.15932,Peru,IL,61354,McDonald's
924 Shooting Park Rd IL 61354,1.0,41.338396,-89.117182,Peru,IL,61354,McDonald's
5251 Trompeter Rd IL 61354,1.0,41.369618,-89.127643,Peru,IL,61354,McDonald's
3947 Frontage Rd IL 61354,1.0,41.365257,-89.15932,Peru,IL,61354,McDonald's
924 Shooting Park Rd IL 61354,1.0,41.338396,-89.117182,Peru,IL,61354,McDonald's
5251 Trompeter Rd IL 61354,1.0,41.369618,-89.127643,Peru,IL,61354,McDonald's
524 W Washington St IL 62363,1.0,39.606932,-90.812619,Pittsfield,IL,62363,McDonald's
534 W Washington St IL 62363,1.0,39.606933000000005,-90.812752,Pittsfield,IL,62363,McDonald's
524 W Washington St IL 62363,1.0,39.606932,-90.812619,Pittsfield,IL,62363,McDonald's
534 W Washington St IL 62363,1.0,39.606933000000005,-90.812752,Pittsfield,IL,62363,McDonald's
15810 South Route 59 IL 60544,1.0,41.594463,-88.202164,Plainfield,IL,60544,McDonald's
170 S Division St IL 60544,1.0,41.59935,-88.201971,Plainfield,IL,60544,McDonald's
12501 S Route 59 IL 60585,1.0,41.654801,-88.202894,Plainfield,IL,60585,McDonald's
2220 S Route 59 IL 60586,0.8,41.561971,-88.199568,Plainfield,IL,60586,McDonald's
15810 South Route 59 IL 60544,1.0,41.594463,-88.202164,Plainfield,IL,60544,McDonald's
170 S Division St IL 60544,1.0,41.59935,-88.201971,Plainfield,IL,60544,McDonald's
12501 S Route 59 IL 60585,1.0,41.654801,-88.202894,Plainfield,IL,60585,McDonald's
2220 S Route 59 IL 60586,0.8,41.561971,-88.199568,Plainfield,IL,60586,McDonald's
3201 Broadway St IL 62301,1.0,39.935643,-91.364594,Quincy,IL,62301,McDonald's
1301 Broadway St IL 62301,1.0,39.935836,-91.394759,Quincy,IL,62301,McDonald's
3201 Broadway St IL 62301,1.0,39.935643,-91.364594,Quincy,IL,62301,McDonald's
1301 Broadway St IL 62301,1.0,39.935836,-91.394759,Quincy,IL,62301,McDonald's
626 N Harlem Ave IL 60305,1.0,41.891822999999995,-87.805299,River Forest,IL,60305,McDonald's
624 N Harlem Ave IL 60305,1.0,41.891734,-87.805458,River Forest,IL,60305,McDonald's
626 N Harlem Ave IL 60305,1.0,41.891822999999995,-87.805299,River Forest,IL,60305,McDonald's
624 N Harlem Ave IL 60305,1.0,41.891734,-87.805458,River Forest,IL,60305,McDonald's
W Grand Ave IL 60171,1.0,41.929331,-87.84116800000001,River Grove,IL,60171,McDonald's
8800 Grand Ave IL 60171,1.0,41.929708000000005,-87.84682600000001,River Grove,IL,60171,McDonald's
W Grand Ave IL 60171,1.0,41.929331,-87.84116800000001,River Grove,IL,60171,McDonald's
8800 Grand Ave IL 60171,1.0,41.929708000000005,-87.84682600000001,River Grove,IL,60171,McDonald's
1120 N 7th St IL 61068,1.0,41.934428000000004,-89.06840799999999,Rochelle,IL,61068,McDonald's
892 Ranger Rd IL 61068,1.0,41.933181,-89.035073,Rochelle,IL,61068,McDonald's
1120 N 7th St IL 61068,1.0,41.934428000000004,-89.06840799999999,Rochelle,IL,61068,McDonald's
892 Ranger Rd IL 61068,1.0,41.933181,-89.035073,Rochelle,IL,61068,McDonald's
1005 1st Ave IL 61071,1.0,41.773159,-89.68918599999999,Rock Falls,IL,61071,McDonald's
1003 1st Ave IL 61071,1.0,41.772188,-89.68876999999999,Rock Falls,IL,61071,McDonald's
1005 1st Ave IL 61071,1.0,41.773159,-89.68918599999999,Rock Falls,IL,61071,McDonald's
1003 1st Ave IL 61071,1.0,41.772188,-89.68876999999999,Rock Falls,IL,61071,McDonald's
2950 11th St IL 61201,0.6,41.485006,-90.58308000000001,Rock Island,IL,61201,McDonald's
1813 30th St IL 61201,1.0,41.493225,-90.55727900000001,Rock Island,IL,61201,McDonald's
2950 11th St IL 61201,0.6,41.485006,-90.58308000000001,Rock Island,IL,61201,McDonald's
1813 30th St IL 61201,1.0,41.493225,-90.55727900000001,Rock Island,IL,61201,McDonald's
3710 Auburn St IL 61101,1.0,42.287988,-89.11545500000001,Rockford,IL,61101,McDonald's
930 W Riverside Blvd IL 61103,1.0,42.315603,-89.076546,Rockford,IL,61103,McDonald's
3137 N Main St IL 61103,1.0,42.307762,-89.0765,Rockford,IL,61103,McDonald's
1441 Kishwaukee St IL 61104,1.0,42.252407,-89.08738000000001,Rockford,IL,61104,McDonald's
1032 E State St IL 61104,1.0,42.267056,-89.080506,Rockford,IL,61104,McDonald's
314 N Mulford Rd IL 61107,1.0,42.269928,-89.001059,Rockford,IL,61107,McDonald's
420 S Perryville Rd IL 61108,0.9,42.266295,-88.980192,Rockford,IL,61108,McDonald's
4623 E State St IL 61108,1.0,42.263133,-89.025513,Rockford,IL,61108,McDonald's
2715 Charles St IL 61108,1.0,42.258661,-89.052717,Rockford,IL,61108,McDonald's
7219 Walton St IL 61108,0.87,42.266192,-88.973371,Rockford,IL,61108,McDonald's
4403 Harrison Ave IL 61108,1.0,42.238135,-89.03013100000001,Rockford,IL,61108,McDonald's
2622 Charles St IL 61108,1.0,42.259592,-89.05444,Rockford,IL,61108,McDonald's
S Mulford Rd IL 61108,1.0,42.252241,-88.999537,Rockford,IL,61108,McDonald's
4365 11th St IL 61109,1.0,42.209314,-89.07346,Rockford,IL,61109,McDonald's
3237 11th St IL 61109,1.0,42.225609000000006,-89.072777,Rockford,IL,61109,McDonald's
7200 Harrison Ave IL 61112,1.0,42.247219,-88.975219,Rockford,IL,61112,McDonald's
6995 E Riverside Blvd IL 61114,1.0,42.318734,-88.980108,Rockford,IL,61114,McDonald's
3858 Northridge Dr IL 61114,1.0,42.316259,-89.033511,Rockford,IL,61114,McDonald's
3710 Auburn St IL 61101,1.0,42.287988,-89.11545500000001,Rockford,IL,61101,McDonald's
930 W Riverside Blvd IL 61103,1.0,42.315603,-89.076546,Rockford,IL,61103,McDonald's
3137 N Main St IL 61103,1.0,42.307762,-89.0765,Rockford,IL,61103,McDonald's
1441 Kishwaukee St IL 61104,1.0,42.252407,-89.08738000000001,Rockford,IL,61104,McDonald's
1032 E State St IL 61104,1.0,42.267056,-89.080506,Rockford,IL,61104,McDonald's
314 N Mulford Rd IL 61107,1.0,42.269928,-89.001059,Rockford,IL,61107,McDonald's
420 S Perryville Rd IL 61108,0.9,42.266295,-88.980192,Rockford,IL,61108,McDonald's
4623 E State St IL 61108,1.0,42.263133,-89.025513,Rockford,IL,61108,McDonald's
2715 Charles St IL 61108,1.0,42.258661,-89.052717,Rockford,IL,61108,McDonald's
7219 Walton St IL 61108,0.87,42.266192,-88.973371,Rockford,IL,61108,McDonald's
4403 Harrison Ave IL 61108,1.0,42.238135,-89.03013100000001,Rockford,IL,61108,McDonald's
2622 Charles St IL 61108,1.0,42.259592,-89.05444,Rockford,IL,61108,McDonald's
S Mulford Rd IL 61108,1.0,42.252241,-88.999537,Rockford,IL,61108,McDonald's
4365 11th St IL 61109,1.0,42.209314,-89.07346,Rockford,IL,61109,McDonald's
3237 11th St IL 61109,1.0,42.225609000000006,-89.072777,Rockford,IL,61109,McDonald's
7200 Harrison Ave IL 61112,1.0,42.247219,-88.975219,Rockford,IL,61112,McDonald's
6995 E Riverside Blvd IL 61114,1.0,42.318734,-88.980108,Rockford,IL,61114,McDonald's
3858 Northridge Dr IL 61114,1.0,42.316259,-89.033511,Rockford,IL,61114,McDonald's
3140 Kirchoff Rd IL 60008,1.0,42.078604999999996,-88.019276,Rolling Meadows,IL,60008,McDonald's
1775 Algonquin Rd IL 60008,1.0,42.05597,-88.00071,Rolling Meadows,IL,60008,McDonald's
3140 Kirchoff Rd IL 60008,1.0,42.078604999999996,-88.019276,Rolling Meadows,IL,60008,McDonald's
1775 Algonquin Rd IL 60008,1.0,42.05597,-88.00071,Rolling Meadows,IL,60008,McDonald's
778 S Weber Rd IL 60446,1.0,41.59721,-88.123397,Romeoville,IL,60446,McDonald's
645 North Independence Boulevard IL 60446,1.0,41.652478,-88.08004100000001,Romeoville,IL,60446,McDonald's
1300 Marquette Dr IL 60446,1.0,41.672076000000004,-88.068139,Romeoville,IL,60446,McDonald's
675 N Weber Rd IL 60446,1.0,41.651063,-88.124162,Romeoville,IL,60446,McDonald's
778 S Weber Rd IL 60446,1.0,41.59721,-88.123397,Romeoville,IL,60446,McDonald's
645 North Independence Boulevard IL 60446,1.0,41.652478,-88.08004100000001,Romeoville,IL,60446,McDonald's
1300 Marquette Dr IL 60446,1.0,41.672076000000004,-88.068139,Romeoville,IL,60446,McDonald's
675 N Weber Rd IL 60446,1.0,41.651063,-88.124162,Romeoville,IL,60446,McDonald's
439 E Irving Park Rd IL 60172,0.8,41.960512,-87.932213,Bensenville,IL,60106,McDonald's
440 E Maple Ave IL 60172,0.87,41.981772,-88.070247,Roselle,IL,60172,McDonald's
439 E Irving Park Rd IL 60172,0.8,41.960512,-87.932213,Bensenville,IL,60106,McDonald's
440 E Maple Ave IL 60172,0.87,41.981772,-88.070247,Roselle,IL,60172,McDonald's
6200 North River Road IL 60018,1.0,41.990425,-87.860454,Des Plaines,IL,60018,McDonald's
6150 N River Rd IL 60018,1.0,41.989058,-87.860875,Rosemont,IL,60018,McDonald's
6200 North River Road IL 60018,1.0,41.990425,-87.860454,Des Plaines,IL,60018,McDonald's
6150 N River Rd IL 60018,1.0,41.989058,-87.860875,Rosemont,IL,60018,McDonald's
774 W Rollins Rd IL 60073,1.0,42.379264,-88.100258,Round Lake Beach,IL,60073,McDonald's
U.S. 12 IL 60073,1.0,42.315883,-88.16455400000001,Round Lake,IL,60073,McDonald's
774 W Rollins Rd IL 60073,1.0,42.379264,-88.100258,Round Lake Beach,IL,60073,McDonald's
U.S. 12 IL 60073,1.0,42.315883,-88.16455400000001,Round Lake,IL,60073,McDonald's
775 E Algonquin Rd IL 60173,1.0,42.072912,-88.060007,Schaumburg,IL,60173,McDonald's
955 E Golf Rd IL 60173,1.0,42.049229,-88.055724,Schaumburg,IL,60173,McDonald's
720 E Higgins Rd IL 60173,1.0,42.041631,-88.06116800000001,Schaumburg,IL,60173,McDonald's
550 S Roselle Rd IL 60193,1.0,42.017565000000005,-88.08057,Schaumburg,IL,60193,McDonald's
2545 W Schaumburg Rd IL 60194,1.0,42.024398,-88.143551,Schaumburg,IL,60194,McDonald's
522 W Golf Rd IL 60195,1.0,42.049268,-88.093588,Schaumburg,IL,60195,McDonald's
775 E Algonquin Rd IL 60173,1.0,42.072912,-88.060007,Schaumburg,IL,60173,McDonald's
955 E Golf Rd IL 60173,1.0,42.049229,-88.055724,Schaumburg,IL,60173,McDonald's
720 E Higgins Rd IL 60173,1.0,42.041631,-88.06116800000001,Schaumburg,IL,60173,McDonald's
550 S Roselle Rd IL 60193,1.0,42.017565000000005,-88.08057,Schaumburg,IL,60193,McDonald's
2545 W Schaumburg Rd IL 60194,1.0,42.024398,-88.143551,Schaumburg,IL,60194,McDonald's
522 W Golf Rd IL 60195,1.0,42.049268,-88.093588,Schaumburg,IL,60195,McDonald's
10201 Belle Plaine Ave IL 60176,1.0,41.952957,-87.880764,Schiller Park,IL,60176,McDonald's
9449 Irving Park Rd IL 60176,1.0,41.954158,-87.863547,Schiller Park,IL,60176,McDonald's
10201 Belle Plaine Ave IL 60176,1.0,41.952957,-87.880764,Schiller Park,IL,60176,McDonald's
9449 Irving Park Rd IL 60176,1.0,41.954158,-87.863547,Schiller Park,IL,60176,McDonald's
275 Old Orchard Shopping Ctr IL 60077,0.7,42.152308000000005,-88.11227099999999,Barrington,IL,60010,McDonald's
4830 Dempster St IL 60077,1.0,42.041062,-87.74862900000001,Skokie,IL,60077,McDonald's
5360 Touhy Ave IL 60077,1.0,42.012343,-87.76221,Skokie,IL,60077,McDonald's
275 Old Orchard Shopping Ctr IL 60077,0.7,42.152308000000005,-88.11227099999999,Barrington,IL,60010,McDonald's
4830 Dempster St IL 60077,1.0,42.041062,-87.74862900000001,Skokie,IL,60077,McDonald's
5360 Touhy Ave IL 60077,1.0,42.012343,-87.76221,Skokie,IL,60077,McDonald's
15766 Manchester Rd IL 61080,1.0,42.490082,-88.989346,South Beloit,IL,61080,McDonald's
811 Prairie Hill Rd IL 61080,1.0,42.471661,-89.055901,South Beloit,IL,61080,McDonald's
15766 Manchester Rd IL 61080,1.0,42.490082,-88.989346,South Beloit,IL,61080,McDonald's
811 Prairie Hill Rd IL 61080,1.0,42.471661,-89.055901,South Beloit,IL,61080,McDonald's
453 Redington Dr IL 60177,1.0,41.98128,-88.34145699999999,South Elgin,IL,60177,McDonald's
100 N Mclean Blvd IL 60177,1.0,41.996682,-88.31666899999999,South Elgin,IL,60177,McDonald's
453 Redington Dr IL 60177,1.0,41.98128,-88.34145699999999,South Elgin,IL,60177,McDonald's
100 N Mclean Blvd IL 60177,1.0,41.996682,-88.31666899999999,South Elgin,IL,60177,McDonald's
700 E Tri State Tollway IL 60473,1.0,41.578314,-87.635465,South Holland,IL,60473,McDonald's
801 E 162nd St IL 60473,1.0,41.600468,-87.597164,South Holland,IL,60473,McDonald's
700 E Tri State Tollway IL 60473,1.0,41.578314,-87.635465,South Holland,IL,60473,McDonald's
801 E 162nd St IL 60473,1.0,41.600468,-87.597164,South Holland,IL,60473,McDonald's
522 W Jefferson St IL 62702,1.0,39.802879,-89.660341,Springfield,IL,62702,McDonald's
3208 E Clear Lake Ave IL 62702,1.0,39.801763,-89.605554,Springfield,IL,62702,McDonald's
901 N Grand Ave E IL 62702,1.0,39.816463,-89.643213,Springfield,IL,62702,McDonald's
2100 N Dirksen Pkwy IL 62702,1.0,39.830303,-89.60470500000001,Springfield,IL,62702,McDonald's
501 S Grand Ave E IL 62703,1.0,39.787234000000005,-89.6497,Springfield,IL,62703,McDonald's
3250 S 6th Street Rd IL 62703,1.0,39.756479,-89.644672,Springfield,IL,62703,McDonald's
1100 Lejune Dr IL 62703,0.33,39.762206,-89.62754699999999,Springfield,IL,62703,McDonald's
3151 S Dirksen Pkwy IL 62703,1.0,39.76048,-89.607647,Springfield,IL,62703,McDonald's
Chatham Rd IL 62704,1.0,39.772316,-89.686746,Springfield,IL,62704,McDonald's
1825 S Macarthur Blvd IL 62704,1.0,39.781008,-89.668459,Springfield,IL,62704,McDonald's
247 White Oaks Mall IL 62704,0.33,39.772463,-89.688924,Springfield,IL,62704,McDonald's
3420 Freedom Dr IL 62704,1.0,39.751327,-89.707756,Springfield,IL,62704,McDonald's
861 Toronto Rd IL 62712,1.0,39.713903,-89.642584,Springfield,IL,62712,McDonald's
4993 Mechanicsburg Rd IL 62712,1.0,39.802554,-89.55933900000001,Springfield,IL,62712,McDonald's
522 W Jefferson St IL 62702,1.0,39.802879,-89.660341,Springfield,IL,62702,McDonald's
3208 E Clear Lake Ave IL 62702,1.0,39.801763,-89.605554,Springfield,IL,62702,McDonald's
901 N Grand Ave E IL 62702,1.0,39.816463,-89.643213,Springfield,IL,62702,McDonald's
2100 N Dirksen Pkwy IL 62702,1.0,39.830303,-89.60470500000001,Springfield,IL,62702,McDonald's
501 S Grand Ave E IL 62703,1.0,39.787234000000005,-89.6497,Springfield,IL,62703,McDonald's
3250 S 6th Street Rd IL 62703,1.0,39.756479,-89.644672,Springfield,IL,62703,McDonald's
1100 Lejune Dr IL 62703,0.33,39.762206,-89.62754699999999,Springfield,IL,62703,McDonald's
3151 S Dirksen Pkwy IL 62703,1.0,39.76048,-89.607647,Springfield,IL,62703,McDonald's
Chatham Rd IL 62704,1.0,39.772316,-89.686746,Springfield,IL,62704,McDonald's
1825 S Macarthur Blvd IL 62704,1.0,39.781008,-89.668459,Springfield,IL,62704,McDonald's
247 White Oaks Mall IL 62704,0.33,39.772463,-89.688924,Springfield,IL,62704,McDonald's
3420 Freedom Dr IL 62704,1.0,39.751327,-89.707756,Springfield,IL,62704,McDonald's
861 Toronto Rd IL 62712,1.0,39.713903,-89.642584,Springfield,IL,62712,McDonald's
4993 Mechanicsburg Rd IL 62712,1.0,39.802554,-89.55933900000001,Springfield,IL,62712,McDonald's
3800 E Main St IL 60174,1.0,41.923472,-88.269233,Saint Charles,IL,60174,McDonald's
1915 W Main St IL 60174,1.0,41.912368,-88.337484,Saint Charles,IL,60174,McDonald's
3900 E Main St IL 60174,1.0,41.921484,-88.273385,Saint Charles,IL,60174,McDonald's
3800 E Main St IL 60174,1.0,41.923472,-88.269233,Saint Charles,IL,60174,McDonald's
1915 W Main St IL 60174,1.0,41.912368,-88.337484,Saint Charles,IL,60174,McDonald's
3900 E Main St IL 60174,1.0,41.921484,-88.273385,Saint Charles,IL,60174,McDonald's
15920 Harlem Ave IL 60477,1.0,41.601729,-87.795934,Tinley Park,IL,60477,McDonald's
17171 Harlem Ave IL 60477,1.0,41.578185,-87.792857,Tinley Park,IL,60477,McDonald's
15920 Harlem Ave IL 60477,1.0,41.601729,-87.795934,Tinley Park,IL,60477,McDonald's
17171 Harlem Ave IL 60477,1.0,41.578185,-87.792857,Tinley Park,IL,60477,McDonald's
601 N Cunningham Ave IL 61802,1.0,40.11788,-88.204216,Urbana,IL,61802,McDonald's
1705 Philo Rd IL 61802,1.0,40.097412,-88.191215,Urbana,IL,61802,McDonald's
601 N Cunningham Ave IL 61802,1.0,40.11788,-88.204216,Urbana,IL,61802,McDonald's
1705 Philo Rd IL 61802,1.0,40.097412,-88.191215,Urbana,IL,61802,McDonald's
700 N Milwaukee Ave IL 60061,1.0,42.237571,-87.946711,Vernon Hills,IL,60061,McDonald's
909 Hawthorn Ctr IL 60061,1.0,42.243244,-87.94941999999999,Vernon Hills,IL,60061,McDonald's
700 N Milwaukee Ave IL 60061,1.0,42.237571,-87.946711,Vernon Hills,IL,60061,McDonald's
909 Hawthorn Ctr IL 60061,1.0,42.243244,-87.94941999999999,Vernon Hills,IL,60061,McDonald's
340 E Saint Charles Rd IL 60181,1.0,41.890122999999996,-87.971469,Villa Park,IL,60181,McDonald's
350 E Saint Charles Rd IL 60181,1.0,41.890387,-87.969853,Villa Park,IL,60181,McDonald's
340 E Saint Charles Rd IL 60181,1.0,41.890122999999996,-87.971469,Villa Park,IL,60181,McDonald's
350 E Saint Charles Rd IL 60181,1.0,41.890387,-87.969853,Villa Park,IL,60181,McDonald's
28231 Diehl Rd IL 60555,1.0,41.801527,-88.171653,Warrenville,IL,60555,McDonald's
4320 Winfield Rd IL 60555,1.0,41.806233,-88.167018,Warrenville,IL,60555,McDonald's
2S606 Illinois 59 IL 60555,1.0,41.829798,-88.201288,Warrenville,IL,60555,McDonald's
28231 Diehl Rd IL 60555,1.0,41.801527,-88.171653,Warrenville,IL,60555,McDonald's
4320 Winfield Rd IL 60555,1.0,41.806233,-88.167018,Warrenville,IL,60555,McDonald's
2S606 Illinois 59 IL 60555,1.0,41.829798,-88.201288,Warrenville,IL,60555,McDonald's
113 Eastgate Dr IL 61571,1.0,40.715877,-89.507865,Washington,IL,61571,McDonald's
1400 Washington Rd IL 61571,1.0,40.704127,-89.429637,Washington,IL,61571,McDonald's
113 Eastgate Dr IL 61571,1.0,40.715877,-89.507865,Washington,IL,61571,McDonald's
1400 Washington Rd IL 61571,1.0,40.704127,-89.429637,Washington,IL,61571,McDonald's
1010 Waukegan Rd IL 60085,1.0,42.344766,-87.895055,Waukegan,IL,60085,McDonald's
3900 Fountain Square Pl IL 60085,1.0,42.345156,-87.898452,Waukegan,IL,60085,McDonald's
3301 Grand Ave IL 60085,1.0,42.369981,-87.881853,Waukegan,IL,60085,McDonald's
304 N Sheridan Rd IL 60085,1.0,42.364094,-87.830382,Waukegan,IL,60085,McDonald's
1939 N Lewis Ave IL 60087,1.0,42.388094,-87.85489100000001,Waukegan,IL,60087,McDonald's
1010 Waukegan Rd IL 60085,1.0,42.344766,-87.895055,Waukegan,IL,60085,McDonald's
3900 Fountain Square Pl IL 60085,1.0,42.345156,-87.898452,Waukegan,IL,60085,McDonald's
3301 Grand Ave IL 60085,1.0,42.369981,-87.881853,Waukegan,IL,60085,McDonald's
304 N Sheridan Rd IL 60085,1.0,42.364094,-87.830382,Waukegan,IL,60085,McDonald's
1939 N Lewis Ave IL 60087,1.0,42.388094,-87.85489100000001,Waukegan,IL,60087,McDonald's
89 W North Ave IL 60185,1.0,41.907384,-88.149984,West Chicago,IL,60185,McDonald's
305 S Neltnor Blvd IL 60185,1.0,41.881755,-88.194073,West Chicago,IL,60185,McDonald's
89 W North Ave IL 60185,1.0,41.907384,-88.149984,West Chicago,IL,60185,McDonald's
305 S Neltnor Blvd IL 60185,1.0,41.881755,-88.194073,West Chicago,IL,60185,McDonald's
201 E 9th St IL 62896,1.0,37.90674,-88.926873,West Frankfort,IL,62896,McDonald's
301 E 9th St IL 62896,1.0,37.906763,-88.925435,West Frankfort,IL,62896,McDonald's
2 W Frankfort Plz IL 62896,1.0,37.897498999999996,-88.956114,West Frankfort,IL,62896,McDonald's
201 E 9th St IL 62896,1.0,37.90674,-88.926873,West Frankfort,IL,62896,McDonald's
301 E 9th St IL 62896,1.0,37.906763,-88.925435,West Frankfort,IL,62896,McDonald's
2 W Frankfort Plz IL 62896,1.0,37.897498999999996,-88.956114,West Frankfort,IL,62896,McDonald's
2175 W Roosevelt Rd IL 60187,1.0,41.858127,-88.141938,Wheaton,IL,60187,McDonald's
2030 S Naperville Rd IL 60187,0.85,41.832475,-88.104033,Wheaton,IL,60189,McDonald's
2175 W Roosevelt Rd IL 60187,1.0,41.858127,-88.141938,Wheaton,IL,60187,McDonald's
2030 S Naperville Rd IL 60187,0.85,41.832475,-88.104033,Wheaton,IL,60189,McDonald's
188 E Dundee Rd IL 60090,1.0,42.14012,-87.911158,Wheeling,IL,60090,McDonald's
1355 E Lake Cook Rd IL 60090,1.0,42.153279,-87.95443399999999,Wheeling,IL,60090,McDonald's
188 E Dundee Rd IL 60090,1.0,42.14012,-87.911158,Wheeling,IL,60090,McDonald's
1355 E Lake Cook Rd IL 60090,1.0,42.153279,-87.95443399999999,Wheeling,IL,60090,McDonald's
1156 Vaughn Rd IL 62095,0.6,38.870384,-90.06469,Wood River,IL,62095,McDonald's
57 W Edwardsville Rd IL 62095,1.0,38.87478,-90.100137,Wood River,IL,62095,McDonald's
1156 Vaughn Rd IL 62095,0.6,38.870384,-90.06469,Wood River,IL,62095,McDonald's
57 W Edwardsville Rd IL 62095,1.0,38.87478,-90.100137,Wood River,IL,62095,McDonald's
2310 75th St IL 60517,1.0,41.750739,-88.039348,Woodridge,IL,60517,McDonald's
2401 63rd St IL 60517,1.0,41.772394,-88.04154,Woodridge,IL,60517,McDonald's
2310 75th St IL 60517,1.0,41.750739,-88.039348,Woodridge,IL,60517,McDonald's
2401 63rd St IL 60517,1.0,41.772394,-88.04154,Woodridge,IL,60517,McDonald's
3 W Veterans Pkwy IL 60560,1.0,41.658119,-88.444468,Yorkville,IL,60560,McDonald's
2007 Bridge St IL 60560,0.78,41.617837,-88.447633,Yorkville,IL,60560,McDonald's
12750 New York 34 IL 60560,0.8,41.662109,-88.502787,Plano,IL,60545,McDonald's
3 W Veterans Pkwy IL 60560,1.0,41.658119,-88.444468,Yorkville,IL,60560,McDonald's
2007 Bridge St IL 60560,0.78,41.617837,-88.447633,Yorkville,IL,60560,McDonald's
12750 New York 34 IL 60560,0.8,41.662109,-88.502787,Plano,IL,60545,McDonald's
2028 Sheridan Rd IL 60099,0.89,42.457390999999994,-87.825641,Zion,IL,60099,McDonald's
2008 N Sheridan Rd IL 60099,0.9,42.45861,-87.825016,Zion,IL,60099,McDonald's
2028 Sheridan Rd IL 60099,0.89,42.457390999999994,-87.825641,Zion,IL,60099,McDonald's
2008 N Sheridan Rd IL 60099,0.9,42.45861,-87.825016,Zion,IL,60099,McDonald's
