id,strLocation,latitude,longitude,city,state,zip,Store
2400 Missouri 291 MO 64057,0.85,39.075001,-94.379703,Independence,MO,64055,Dunkin'
2400 Missouri 291 MO 64057,0.85,39.075001,-94.379703,Independence,MO,64055,Dunkin'
2400 Missouri 291 MO 64057,0.85,39.075001,-94.379703,Independence,MO,64055,Dunkin'
2400 Missouri 291 MO 64057,0.85,39.075001,-94.379703,Independence,MO,64055,Dunkin'
33 E Lake St IL 60101,1.0,41.931216,-87.987127,Addison,IL,60101,Dunkin'
1750 W Lake St IL 60101,1.0,41.950451,-88.030146,Addison,IL,60101,Dunkin'
33 E Lake St IL 60101,1.0,41.931216,-87.987127,Addison,IL,60101,Dunkin'
1750 W Lake St IL 60101,1.0,41.950451,-88.030146,Addison,IL,60101,Dunkin'
1319 East Algonquin Road IL 60102,1.0,42.161334000000004,-88.276569,Algonquin,IL,60102,Dunkin'
2543 W Algonquin Rd IL 60102,1.0,42.175207,-88.33853,Algonquin,IL,60102,Dunkin'
1319 East Algonquin Road IL 60102,1.0,42.161334000000004,-88.276569,Algonquin,IL,60102,Dunkin'
2543 W Algonquin Rd IL 60102,1.0,42.175207,-88.33853,Algonquin,IL,60102,Dunkin'
4028 W 127th St IL 60803,1.0,41.662231,-87.719755,Alsip,IL,60803,Dunkin'
12150 S Cicero Ave IL 60803,1.0,41.671618,-87.73899899999999,Alsip,IL,60803,Dunkin'
11817 S Pulaski Rd IL 60803,1.0,41.678205,-87.71965300000001,Alsip,IL,60803,Dunkin'
4028 W 127th St IL 60803,1.0,41.662231,-87.719755,Alsip,IL,60803,Dunkin'
12150 S Cicero Ave IL 60803,1.0,41.671618,-87.73899899999999,Alsip,IL,60803,Dunkin'
11817 S Pulaski Rd IL 60803,1.0,41.678205,-87.71965300000001,Alsip,IL,60803,Dunkin'
440 Orchard Street IL 60002,1.0,42.478986,-88.098421,Antioch,IL,60002,Dunkin'
442 Orchard St IL 60002,1.0,42.478896,-88.099041,Antioch,IL,60002,Dunkin'
440 Orchard Street IL 60002,1.0,42.478986,-88.098421,Antioch,IL,60002,Dunkin'
442 Orchard St IL 60002,1.0,42.478896,-88.099041,Antioch,IL,60002,Dunkin'
105 W Dundee Rd IL 60004,1.0,42.138571,-87.96046899999999,Arlington Heights,IL,60004,Dunkin'
1818 West Northwest Highway IL 60004,0.22,42.11278,-87.97954200000001,Arlington Heights,IL,60004,Dunkin'
4204 N Arlington Heights Rd Ste F IL 60004,1.0,42.151816,-87.98534000000001,Arlington Heights,IL,60004,Dunkin'
[700-798] W Dundee Rd IL 60004,1.0,42.139264000000004,-87.99569100000001,Arlington Heights,IL,60004,Dunkin'
1010 E Rand Rd IL 60004,1.0,42.106252000000005,-87.970425,Arlington Heights,IL,60004,Dunkin'
2106 S Arlington Heights Rd IL 60005,1.0,42.047078000000006,-87.983204,Arlington Heights,IL,60005,Dunkin'
122 S Arlington Heights Rd IL 60005,1.0,42.08,-87.980787,Arlington Heights,IL,60005,Dunkin'
105 W Dundee Rd IL 60004,1.0,42.138571,-87.96046899999999,Arlington Heights,IL,60004,Dunkin'
1818 West Northwest Highway IL 60004,0.22,42.11278,-87.97954200000001,Arlington Heights,IL,60004,Dunkin'
4204 N Arlington Heights Rd Ste F IL 60004,1.0,42.151816,-87.98534000000001,Arlington Heights,IL,60004,Dunkin'
[700-798] W Dundee Rd IL 60004,1.0,42.139264000000004,-87.99569100000001,Arlington Heights,IL,60004,Dunkin'
1010 E Rand Rd IL 60004,1.0,42.106252000000005,-87.970425,Arlington Heights,IL,60004,Dunkin'
2106 S Arlington Heights Rd IL 60005,1.0,42.047078000000006,-87.983204,Arlington Heights,IL,60005,Dunkin'
122 S Arlington Heights Rd IL 60005,1.0,42.08,-87.980787,Arlington Heights,IL,60005,Dunkin'
2681 East New York Street IL 60502,1.0,41.757992,-88.251083,Aurora,IL,60502,Dunkin'
2933 Kirk Road IL 60502,1.0,41.815512,-88.279028,Aurora,IL,60502,Dunkin'
1237 N Eola Rd IL 60502,1.0,41.782562,-88.240013,Aurora,IL,60502,Dunkin'
2380 S Eola Rd IL 60503,1.0,41.711141,-88.253442,Aurora,IL,60503,Dunkin'
3999 75th Street IL 60504,1.0,41.746423,-88.216307,Aurora,IL,60504,Dunkin'
1255 N Farnsworth Ave IL 60505,1.0,41.783496,-88.28149599999999,Aurora,IL,60505,Dunkin'
3 N Smith St IL 60505,1.0,41.752596000000004,-88.293387,Aurora,IL,60505,Dunkin'
2112 W Galena Blvd IL 60506,1.0,41.763579,-88.367587,Aurora,IL,60506,Dunkin'
2681 East New York Street IL 60502,1.0,41.757992,-88.251083,Aurora,IL,60502,Dunkin'
2933 Kirk Road IL 60502,1.0,41.815512,-88.279028,Aurora,IL,60502,Dunkin'
1237 N Eola Rd IL 60502,1.0,41.782562,-88.240013,Aurora,IL,60502,Dunkin'
2380 S Eola Rd IL 60503,1.0,41.711141,-88.253442,Aurora,IL,60503,Dunkin'
3999 75th Street IL 60504,1.0,41.746423,-88.216307,Aurora,IL,60504,Dunkin'
1255 N Farnsworth Ave IL 60505,1.0,41.783496,-88.28149599999999,Aurora,IL,60505,Dunkin'
3 N Smith St IL 60505,1.0,41.752596000000004,-88.293387,Aurora,IL,60505,Dunkin'
2112 W Galena Blvd IL 60506,1.0,41.763579,-88.367587,Aurora,IL,60506,Dunkin'
5590 County Farm Road IL 60103,1.0,41.97413,-88.151049,Bartlett,IL,60103,Dunkin'
225 E Lake St IL 60103,1.0,42.002564,-88.18151,Bartlett,IL,60103,Dunkin'
751 S Il Route 59 IL 60103,0.3,41.977639,-88.20786,Bartlett,IL,60103,Dunkin'
5590 County Farm Road IL 60103,1.0,41.97413,-88.151049,Bartlett,IL,60103,Dunkin'
225 E Lake St IL 60103,1.0,42.002564,-88.18151,Bartlett,IL,60103,Dunkin'
751 S Il Route 59 IL 60103,0.3,41.977639,-88.20786,Bartlett,IL,60103,Dunkin'
1100 Il Route 83 IL 60106,0.33,41.959701,-87.941835,Bensenville,IL,60106,Dunkin'
1004 W Irving Park Rd IL 60106,1.0,41.960607,-87.955453,Bensenville,IL,60106,Dunkin'
1100 Il Route 83 IL 60106,0.33,41.959701,-87.941835,Bensenville,IL,60106,Dunkin'
1004 W Irving Park Rd IL 60106,1.0,41.960607,-87.955453,Bensenville,IL,60106,Dunkin'
5725 Saint Charles Road IL 60163,1.0,41.889099,-87.911516,Berkeley,IL,60163,Dunkin'
5525 Saint Charles Rd IL 60163,1.0,41.888752000000004,-87.906349,Berkeley,IL,60163,Dunkin'
5725 Saint Charles Road IL 60163,1.0,41.889099,-87.911516,Berkeley,IL,60163,Dunkin'
5525 Saint Charles Rd IL 60163,1.0,41.888752000000004,-87.906349,Berkeley,IL,60163,Dunkin'
4501 Harlem Avenue IL 60402,1.0,41.81047,-87.802111,Berwyn,IL,60402,Dunkin'
6601 Cermak Rd IL 60402,1.0,41.850183,-87.788671,Berwyn,IL,60402,Dunkin'
2945 Harlem Ave IL 60402,1.0,41.838652,-87.803095,Berwyn,IL,60402,Dunkin'
7020 Ogden Ave IL 60402,1.0,41.824983,-87.79829000000001,Berwyn,IL,60402,Dunkin'
4501 Harlem Avenue IL 60402,1.0,41.81047,-87.802111,Berwyn,IL,60402,Dunkin'
6601 Cermak Rd IL 60402,1.0,41.850183,-87.788671,Berwyn,IL,60402,Dunkin'
2945 Harlem Ave IL 60402,1.0,41.838652,-87.803095,Berwyn,IL,60402,Dunkin'
7020 Ogden Ave IL 60402,1.0,41.824983,-87.79829000000001,Berwyn,IL,60402,Dunkin'
169 E Lake St IL 60108,1.0,41.958076,-88.07391199999999,Bloomingdale,IL,60108,Dunkin'
142 S Gary Ave Ste 109 IL 60108,1.0,41.947081,-88.122623,Bloomingdale,IL,60108,Dunkin'
169 E Lake St IL 60108,1.0,41.958076,-88.07391199999999,Bloomingdale,IL,60108,Dunkin'
142 S Gary Ave Ste 109 IL 60108,1.0,41.947081,-88.122623,Bloomingdale,IL,60108,Dunkin'
2306 E Oakland Ave IL 61701,1.0,40.474082,-88.959175,Bloomington,IL,61701,Dunkin'
2225 W Market St IL 61704,1.0,40.484573,-89.024823,Bloomington,IL,61704,Dunkin'
2306 E Oakland Ave IL 61701,1.0,40.474082,-88.959175,Bloomington,IL,61701,Dunkin'
2225 W Market St IL 61704,1.0,40.484573,-89.024823,Bloomington,IL,61704,Dunkin'
2323 Burr Oak Ave IL 60406,1.0,41.662566999999996,-87.678889,Blue Island,IL,60406,Dunkin'
13101 Western Ave IL 60406,1.0,41.655327,-87.679846,Blue Island,IL,60406,Dunkin'
2323 Burr Oak Ave IL 60406,1.0,41.662566999999996,-87.678889,Blue Island,IL,60406,Dunkin'
13101 Western Ave IL 60406,1.0,41.655327,-87.679846,Blue Island,IL,60406,Dunkin'
1255 W Boughton Rd IL 60440,1.0,41.70262,-88.12340999999999,Bolingbrook,IL,60440,Dunkin'
595 N Pinecrest Rd Ste E IL 60440,1.0,41.71736,-88.05115699999999,Bolingbrook,IL,60440,Dunkin'
245 S Bolingbrook Dr IL 60440,1.0,41.693457,-88.068676,Bolingbrook,IL,60440,Dunkin'
760 South Weber Road IL 60490,1.0,41.6725,-88.12459100000001,Bolingbrook,IL,60490,Dunkin'
1255 W Boughton Rd IL 60440,1.0,41.70262,-88.12340999999999,Bolingbrook,IL,60440,Dunkin'
595 N Pinecrest Rd Ste E IL 60440,1.0,41.71736,-88.05115699999999,Bolingbrook,IL,60440,Dunkin'
245 S Bolingbrook Dr IL 60440,1.0,41.693457,-88.068676,Bolingbrook,IL,60440,Dunkin'
760 South Weber Road IL 60490,1.0,41.6725,-88.12459100000001,Bolingbrook,IL,60490,Dunkin'
1697 Weiland Rd IL 60089,1.0,42.181787,-87.948157,Buffalo Grove,IL,60089,Dunkin'
1169 Mchenry Rd IL 60089,1.0,42.174053,-87.982974,Buffalo Grove,IL,60089,Dunkin'
245 Mchenry Rd IL 60089,1.0,42.157088,-87.959171,Buffalo Grove,IL,60089,Dunkin'
[100-130] Weiland Rd IL 60089,1.0,42.155827,-87.95443,Buffalo Grove,IL,60089,Dunkin'
1697 Weiland Rd IL 60089,1.0,42.181787,-87.948157,Buffalo Grove,IL,60089,Dunkin'
1169 Mchenry Rd IL 60089,1.0,42.174053,-87.982974,Buffalo Grove,IL,60089,Dunkin'
245 Mchenry Rd IL 60089,1.0,42.157088,-87.959171,Buffalo Grove,IL,60089,Dunkin'
[100-130] Weiland Rd IL 60089,1.0,42.155827,-87.95443,Buffalo Grove,IL,60089,Dunkin'
533 Torrence Ave IL 60409,1.0,41.620670000000004,-87.558729,Calumet City,IL,60409,Dunkin'
664 River Oaks Dr IL 60409,1.0,41.600414,-87.54146300000001,Calumet City,IL,60409,Dunkin'
533 Torrence Ave IL 60409,1.0,41.620670000000004,-87.558729,Calumet City,IL,60409,Dunkin'
664 River Oaks Dr IL 60409,1.0,41.600414,-87.54146300000001,Calumet City,IL,60409,Dunkin'
317 South Schmale Road IL 60188,1.0,41.896884,-88.101831,Carol Stream,IL,60188,Dunkin'
242 W Army Trail Rd IL 60188,1.0,41.939422,-88.130195,Carol Stream,IL,60188,Dunkin'
106 East North Avenue IL 60188,0.9,41.902162,-88.093674,Carol Stream,IL,60188,Dunkin'
880 W Army Trail Rd IL 60188,0.88,41.94025,-88.150993,Carol Stream,IL,60188,Dunkin'
317 South Schmale Road IL 60188,1.0,41.896884,-88.101831,Carol Stream,IL,60188,Dunkin'
242 W Army Trail Rd IL 60188,1.0,41.939422,-88.130195,Carol Stream,IL,60188,Dunkin'
106 East North Avenue IL 60188,0.9,41.902162,-88.093674,Carol Stream,IL,60188,Dunkin'
880 W Army Trail Rd IL 60188,0.88,41.94025,-88.150993,Carol Stream,IL,60188,Dunkin'
607 East Green Street IL 61820,1.0,40.110172999999996,-88.23,Champaign,IL,61820,Dunkin'
607 East Green Street IL 61820,1.0,40.110172999999996,-88.23,Champaign,IL,61820,Dunkin'
515 S Neil St IL 61820,1.0,40.110494,-88.243905,Champaign,IL,61820,Dunkin'
1302 North Prospect Avenue IL 61820,1.0,40.128671999999995,-88.2574,Champaign,IL,61820,Dunkin'
1302 North Prospect Avenue IL 61820,1.0,40.128671999999995,-88.2574,Champaign,IL,61820,Dunkin'
607 East Green Street IL 61820,1.0,40.110172999999996,-88.23,Champaign,IL,61820,Dunkin'
607 East Green Street IL 61820,1.0,40.110172999999996,-88.23,Champaign,IL,61820,Dunkin'
515 S Neil St IL 61820,1.0,40.110494,-88.243905,Champaign,IL,61820,Dunkin'
1302 North Prospect Avenue IL 61820,1.0,40.128671999999995,-88.2574,Champaign,IL,61820,Dunkin'
1302 North Prospect Avenue IL 61820,1.0,40.128671999999995,-88.2574,Champaign,IL,61820,Dunkin'
27 E Lake St IL 60601,1.0,41.885601,-87.627013,Chicago,IL,60601,Dunkin'
203 N La Salle St IL 60601,1.0,41.88606,-87.631681,Chicago,IL,60601,Dunkin'
201 N Clark St IL 60601,1.0,41.886061,-87.63069,Chicago,IL,60601,Dunkin'
201 N State St IL 60601,1.0,41.885598,-87.627939,Chicago,IL,60601,Dunkin'
100 W Randolph St IL 60601,1.0,41.884843,-87.63198100000001,Chicago,IL,60601,Dunkin'
300 E Randolph St IL 60601,1.0,41.884839,-87.619893,Chicago,IL,60601,Dunkin'
303 E Wacker Dr IL 60601,1.0,41.88687,-87.61479,Chicago,IL,60601,Dunkin'
233 N Michigan Ave IL 60601,1.0,41.887121,-87.623273,Chicago,IL,60601,Dunkin'
75 E Washington St IL 60602,1.0,41.883072999999996,-87.625214,Chicago,IL,60602,Dunkin'
166 W Washington St IL 60602,1.0,41.883464000000004,-87.633055,Chicago,IL,60602,Dunkin'
6 N Wabash Ave IL 60602,1.0,41.882239,-87.626367,Chicago,IL,60602,Dunkin'
31 E Adams St IL 60603,1.0,41.879346999999996,-87.627144,Chicago,IL,60603,Dunkin'
333 S State St IL 60604,1.0,41.877495,-87.627218,Chicago,IL,60604,Dunkin'
230 S State St IL 60604,1.0,41.878735,-87.627842,Chicago,IL,60604,Dunkin'
62 E Jackson Blvd IL 60604,1.0,41.878405,-87.625672,Chicago,IL,60604,Dunkin'
77 W Jackson Blvd IL 60604,1.0,41.8776,-87.63041899999999,Chicago,IL,60604,Dunkin'
1575 S Michigan Ave IL 60605,1.0,41.860838,-87.62385400000001,Chicago,IL,60605,Dunkin'
406 S Michigan Ave IL 60605,1.0,41.876756,-87.624851,Chicago,IL,60605,Dunkin'
600 S Wabash Ave IL 60605,1.0,41.874265,-87.626369,Chicago,IL,60605,Dunkin'
439 S Dearborn St IL 60605,1.0,41.875931,-87.62897199999999,Chicago,IL,60605,Dunkin'
171 W Van Buren St IL 60605,1.0,41.876665,-87.63322600000001,Chicago,IL,60605,Dunkin'
1231 S Wabash Ave IL 60605,1.0,41.8669,-87.62530699999999,Chicago,IL,60605,Dunkin'
205 W Randolph St IL 60606,1.0,41.884231,-87.634156,Chicago,IL,60606,Dunkin'
220 W Washington St IL 60606,1.0,41.88337,-87.634877,Chicago,IL,60606,Dunkin'
215 W Lake St IL 60606,1.0,41.885378,-87.634625,Chicago,IL,60606,Dunkin'
2 N Riverside Plz IL 60606,1.0,41.882379,-87.639487,Chicago,IL,60606,Dunkin'
201 W Madison St IL 60606,1.0,41.8816,-87.634113,Chicago,IL,60606,Dunkin'
229 W Jackson Blvd IL 60606,1.0,41.877894,-87.63481800000001,Chicago,IL,60606,Dunkin'
1121 S Jefferson St IL 60607,1.0,41.868512,-87.641645,Chicago,IL,60607,Dunkin'
1015 West Lake Street IL 60607,1.0,41.885337,-87.65276899999999,Chicago,IL,60607,Dunkin'
901 W Washington Blvd IL 60607,1.0,41.882856,-87.650318,Chicago,IL,60607,Dunkin'
500 W Roosevelt Rd IL 60607,1.0,41.867711,-87.63959,Chicago,IL,60607,Dunkin'
1710 W 18th St IL 60608,1.0,41.85802,-87.669213,Chicago,IL,60608,Dunkin'
2356 W Cermak Rd IL 60608,1.0,41.852337,-87.685251,Chicago,IL,60608,Dunkin'
2401 W Ogden Ave IL 60608,1.0,41.864264,-87.686243,Chicago,IL,60608,Dunkin'
1651 W Roosevelt Rd IL 60608,1.0,41.866702000000004,-87.66751,Chicago,IL,60608,Dunkin'
3100 S Halsted St IL 60608,1.0,41.837924,-87.64664599999999,Chicago,IL,60608,Dunkin'
2340 W 52nd St IL 60609,1.0,41.799059,-87.682216,Chicago,IL,60609,Dunkin'
4302 S Ashland Ave IL 60609,1.0,41.815681,-87.665543,Chicago,IL,60609,Dunkin'
333 W North Ave IL 60610,1.0,41.910933,-87.638228,Chicago,IL,60610,Dunkin'
101 W Division St IL 60610,1.0,41.90405,-87.63144399999999,Chicago,IL,60610,Dunkin'
20 E Chicago Ave IL 60611,1.0,41.896955,-87.62734499999999,Chicago,IL,60611,Dunkin'
401 E Ontario St IL 60611,1.0,41.893281,-87.616679,Chicago,IL,60611,Dunkin'
200 E Ohio St IL 60611,1.0,41.892807,-87.622451,Chicago,IL,60611,Dunkin'
1713 W Polk St IL 60612,1.0,41.871258000000005,-87.669597,Chicago,IL,60612,Dunkin'
1755 W Addison St IL 60613,1.0,41.946742,-87.67335899999999,Chicago,IL,60613,Dunkin'
1441 W Montrose Ave IL 60613,1.0,41.961289,-87.666573,Chicago,IL,60613,Dunkin'
801 W Diversey Pkwy IL 60614,1.0,41.932452000000005,-87.649473,Chicago,IL,60614,Dunkin'
1927 W Fullerton Ave IL 60614,1.0,41.922628,-87.66901700000001,Chicago,IL,60614,Dunkin'
1982 N Clybourn Ave IL 60614,1.0,41.917279,-87.658695,Chicago,IL,60614,Dunkin'
1411 E 53rd St IL 60615,1.0,41.799186,-87.591225,Chicago,IL,60615,Dunkin'
749 W 31st St IL 60616,1.0,41.837727,-87.645923,Chicago,IL,60616,Dunkin'
2477 S Archer Ave IL 60616,1.0,41.84709,-87.646086,Chicago,IL,60616,Dunkin'
8753 S Stony Island Ave IL 60617,1.0,41.735282,-87.584897,Chicago,IL,60617,Dunkin'
3101 W Irving Park Rd IL 60618,1.0,41.953633,-87.705841,Chicago,IL,60618,Dunkin'
4010 N Western Ave IL 60618,1.0,41.954443,-87.68893299999999,Chicago,IL,60618,Dunkin'
3310 W Addison St IL 60618,1.0,41.946822999999995,-87.710718,Chicago,IL,60618,Dunkin'
3801 W Belmont Ave IL 60618,1.0,41.938941,-87.7222,Chicago,IL,60618,Dunkin'
3214 N Kimball Ave IL 60618,1.0,41.939794,-87.712901,Chicago,IL,60618,Dunkin'
3535 N Western Ave IL 60618,1.0,41.945929,-87.687742,Chicago,IL,60618,Dunkin'
814 E 87th St IL 60619,1.0,41.736928999999996,-87.603971,Chicago,IL,60619,Dunkin'
8255 S Halsted St IL 60620,1.0,41.743666,-87.643479,Chicago,IL,60620,Dunkin'
7921 South Western Avenue IL 60620,1.0,41.749451,-87.682175,Chicago,IL,60620,Dunkin'
207 W 79th St IL 60620,1.0,41.750612,-87.629828,Chicago,IL,60620,Dunkin'
120 W 87th St IL 60620,1.0,41.735194,-87.627339,Chicago,IL,60620,Dunkin'
150 W 63rd St IL 60621,1.0,41.780319,-87.629797,Chicago,IL,60621,Dunkin'
6237 South Halsted Street IL 60621,1.0,41.78092,-87.644671,Chicago,IL,60621,Dunkin'
1535 W Grand Ave IL 60622,0.8,41.890689,-87.666673,Chicago,IL,60642,Dunkin'
1234 N Halsted St IL 60622,0.8,41.904718,-87.64853199999999,Chicago,IL,60614,Dunkin'
1200 N Milwaukee Ave IL 60622,1.0,41.903507,-87.666484,Chicago,IL,60622,Dunkin'
1244 N Ashland Ave IL 60622,1.0,41.904907,-87.667835,Chicago,IL,60622,Dunkin'
2801 S Kedzie Ave IL 60623,1.0,41.840727,-87.704566,Chicago,IL,60623,Dunkin'
4821 N Kedzie Ave IL 60625,1.0,41.969389,-87.708157,Chicago,IL,60625,Dunkin'
4645 N Western Ave IL 60625,1.0,41.966275,-87.688457,Chicago,IL,60625,Dunkin'
5200 N Lincoln Ave IL 60625,1.0,41.976099,-87.692712,Chicago,IL,60625,Dunkin'
3152 W Lawrence Ave IL 60625,1.0,41.968612,-87.707646,Chicago,IL,60625,Dunkin'
7547 N Paulina St IL 60626,0.88,42.018737,-87.672101,Chicago,IL,60626,Dunkin'
1200 W Loyola Ave IL 60626,1.0,42.003161,-87.664107,Chicago,IL,60626,Dunkin'
1357 West Morse Avenue IL 60626,1.0,42.007768,-87.665398,Chicago,IL,60626,Dunkin'
1632 W Howard St IL 60626,1.0,42.0196,-87.67226099999999,Chicago,IL,60626,Dunkin'
6970 N Clark St IL 60626,1.0,42.008516,-87.674305,Chicago,IL,60626,Dunkin'
9802 S Halsted St IL 60628,1.0,41.715444,-87.643575,Chicago,IL,60628,Dunkin'
14 W 95th St IL 60628,0.87,41.721432,-87.624685,Chicago,IL,60628,Dunkin'
250 E 103rd St IL 60628,1.0,41.707549,-87.61669300000001,Chicago,IL,60628,Dunkin'
6500 S Kedzie Ave IL 60629,1.0,41.775064,-87.703401,Chicago,IL,60629,Dunkin'
5931 S Kedzie Ave IL 60629,1.0,41.785328,-87.702964,Chicago,IL,60629,Dunkin'
3712 W 62nd Pl IL 60629,1.0,41.779944,-87.716054,Chicago,IL,60629,Dunkin'
6925 S Pulaski Rd IL 60629,1.0,41.766961,-87.72209000000001,Chicago,IL,60629,Dunkin'
4612 W 59th St IL 60629,1.0,41.787774,-87.73804399999999,Chicago,IL,60629,Dunkin'
5949 W Higgins Ave IL 60630,1.0,41.972792,-87.777373,Chicago,IL,60630,Dunkin'
5205 N Nagle Ave IL 60630,1.0,41.975791,-87.78772,Chicago,IL,60630,Dunkin'
5050 N Cicero Ave IL 60630,1.0,41.973434999999995,-87.748231,Chicago,IL,60630,Dunkin'
4045 W Lawrence Ave IL 60630,1.0,41.967975,-87.72990300000001,Chicago,IL,60630,Dunkin'
742 West Higgins Road IL 60631,0.85,41.984732,-87.821752,Chicago,IL,60631,Dunkin'
742 West Higgins Road IL 60631,0.85,41.984732,-87.821752,Chicago,IL,60631,Dunkin'
7240 West Devon Avenue IL 60631,1.0,41.997678,-87.808432,Chicago,IL,60631,Dunkin'
742 Higgins Road IL 60631,0.8,41.986302,-87.834616,Park Ridge,IL,60068,Dunkin'
7156 N Harlem Ave IL 60631,1.0,42.01155,-87.806997,Chicago,IL,60631,Dunkin'
4113 South Pulaski Road IL 60632,1.0,41.818067,-87.72341800000001,Chicago,IL,60632,Dunkin'
4669 S Cicero Ave IL 60632,1.0,41.80816,-87.743113,Chicago,IL,60632,Dunkin'
3910 S Archer Ave IL 60632,1.0,41.822684,-87.69069499999999,Chicago,IL,60632,Dunkin'
4453 S Archer Ave IL 60632,1.0,41.812103,-87.70689899999999,Chicago,IL,60632,Dunkin'
4701 S Kedzie Ave IL 60632,1.0,41.807877000000005,-87.703324,Chicago,IL,60632,Dunkin'
5448 S Pulaski Rd IL 60632,1.0,41.793693,-87.72355999999999,Chicago,IL,60632,Dunkin'
4649 S Cicero Ave IL 60632,1.0,41.808159,-87.742799,Chicago,IL,60632,Dunkin'
3359 N Harlem Ave IL 60634,1.0,41.941432,-87.806403,Chicago,IL,60634,Dunkin'
6200 W Belmont Ave IL 60634,1.0,41.938651,-87.781428,Chicago,IL,60634,Dunkin'
4354 N Central Ave IL 60634,1.0,41.960336,-87.767595,Chicago,IL,60634,Dunkin'
7171 W Irving Park Rd IL 60634,1.0,41.952461,-87.806723,Chicago,IL,60634,Dunkin'
6408 W Irving Park Rd IL 60634,1.0,41.953224,-87.786916,Chicago,IL,60634,Dunkin'
6001 W Addison St IL 60634,1.0,41.945593,-87.776839,Chicago,IL,60634,Dunkin'
3039 N Central Ave IL 60634,1.0,41.936161,-87.766068,Chicago,IL,60634,Dunkin'
1614 W 59th St IL 60636,1.0,41.787459999999996,-87.665502,Chicago,IL,60636,Dunkin'
6100 S Western Ave IL 60636,1.0,41.782655,-87.684078,Chicago,IL,60636,Dunkin'
7059 S Ashland Ave IL 60636,1.0,41.765182,-87.663439,Chicago,IL,60636,Dunkin'
4957 S Central Ave IL 60638,1.0,41.802644,-87.762476,Chicago,IL,60638,Dunkin'
6738 W Archer Ave IL 60638,1.0,41.792464,-87.790658,Chicago,IL,60638,Dunkin'
5615 S Harlem Ave IL 60638,1.0,41.789666,-87.801043,Chicago,IL,60638,Dunkin'
6641 S Cicero Ave IL 60638,1.0,41.771727,-87.74169300000001,Chicago,IL,60638,Dunkin'
4644 W Diversey Ave IL 60639,1.0,41.932674,-87.743662,Chicago,IL,60639,Dunkin'
6336 W North Ave IL 60639,1.0,41.909529,-87.784774,Chicago,IL,60639,Dunkin'
2640 N Narragansett Ave IL 60639,1.0,41.928854,-87.785783,Chicago,IL,60639,Dunkin'
5959 W Diversey Ave IL 60639,1.0,41.930889,-87.77565899999999,Chicago,IL,60639,Dunkin'
5650 W Fullerton Ave IL 60639,1.0,41.924323,-87.767761,Chicago,IL,60639,Dunkin'
2337 N Cicero Ave IL 60639,1.0,41.923593,-87.74590500000001,Chicago,IL,60639,Dunkin'
5707 W North Ave IL 60639,1.0,41.909034999999996,-87.768784,Chicago,IL,60639,Dunkin'
1743 W Lawrence Ave IL 60640,1.0,41.968644,-87.673049,Chicago,IL,60640,Dunkin'
4547 N Broadway St IL 60640,1.0,41.965047999999996,-87.65687,Chicago,IL,60640,Dunkin'
4245 N Milwaukee Ave IL 60641,1.0,41.958264,-87.752012,Chicago,IL,60641,Dunkin'
5000 W Irving Park Rd IL 60641,1.0,41.953671,-87.75254,Chicago,IL,60641,Dunkin'
9800 South Western Avenue IL 60643,0.8,41.715161,-87.682296,Evergreen Park,IL,60805,Dunkin'
10401 S Western Ave IL 60643,1.0,41.704417,-87.681066,Chicago,IL,60643,Dunkin'
4800 W Lake St IL 60644,1.0,41.886881,-87.745297,Chicago,IL,60644,Dunkin'
782 N Laramie Ave IL 60644,1.0,41.894616,-87.755735,Chicago,IL,60644,Dunkin'
7578 N Western Ave IL 60645,1.0,42.019255,-87.69048199999999,Chicago,IL,60645,Dunkin'
6342 N Milwaukee Ave IL 60646,1.0,41.996308,-87.787254,Chicago,IL,60646,Dunkin'
1909 N Western Ave IL 60647,1.0,41.916709999999995,-87.687235,Chicago,IL,60647,Dunkin'
3427 W Diversey Ave IL 60647,1.0,41.931707,-87.713441,Chicago,IL,60647,Dunkin'
3309 W North Ave IL 60647,1.0,41.90972,-87.709987,Chicago,IL,60647,Dunkin'
1746 N Western Ave IL 60647,1.0,41.91356,-87.687692,Chicago,IL,60647,Dunkin'
1345 N Pulaski Rd IL 60651,1.0,41.905637,-87.725835,Chicago,IL,60651,Dunkin'
800 N Kedzie Ave IL 60651,1.0,41.896524,-87.707225,Chicago,IL,60651,Dunkin'
4747 West 79th Street IL 60652,1.0,41.749026,-87.740298,Chicago,IL,60652,Dunkin'
7905 S Cicero Ave IL 60652,1.0,41.749086,-87.741203,Chicago,IL,60652,Dunkin'
3977 W Columbus Ave IL 60652,1.0,41.735724,-87.72084100000001,Chicago,IL,60652,Dunkin'
7601 S Cicero Ave Ste 76 IL 60652,1.0,41.755323,-87.740572,Chicago,IL,60652,Dunkin'
4667 W 79th St IL 60652,1.0,41.749047999999995,-87.738327,Chicago,IL,60652,Dunkin'
3214 W 87th St IL 60652,1.0,41.735183,-87.711715,Chicago,IL,60652,Dunkin'
222 W Merchandise Mart Plaza IL 60654,1.0,41.888083,-87.636185,Chicago,IL,60654,Dunkin'
309 West Chicago Avenue IL 60654,1.0,41.89626,-87.63615,Chicago,IL,60654,Dunkin'
222 Merchandise Mart Plz IL 60654,0.9,41.888083,-87.636185,Chicago,IL,60654,Dunkin'
222 Merchandise Mart Plz Ste 203 IL 60654,0.9,41.888083,-87.636185,Chicago,IL,60654,Dunkin'
3206 West 111th Street IL 60655,1.0,41.691841,-87.701301,Chicago,IL,60655,Dunkin'
5550 N Harlem Ave IL 60656,1.0,41.982436,-87.80770799999999,Chicago,IL,60656,Dunkin'
3200 N Clark St IL 60657,1.0,41.94031,-87.65142800000001,Chicago,IL,60657,Dunkin'
3000 N Ashland Ave IL 60657,1.0,41.936365,-87.668877,Chicago,IL,60657,Dunkin'
3132 W Devon Ave IL 60659,1.0,41.997675,-87.708534,Chicago,IL,60659,Dunkin'
6254 N Western Ave IL 60659,1.0,41.99573,-87.690212,Chicago,IL,60659,Dunkin'
5723 N California Ave IL 60659,1.0,41.985696999999995,-87.698898,Chicago,IL,60659,Dunkin'
6250 N Clark St IL 60660,1.0,41.995826,-87.670598,Chicago,IL,60660,Dunkin'
6326 N Broadway St IL 60660,1.0,41.996849,-87.66063100000001,Chicago,IL,60660,Dunkin'
1954 W Peterson Ave IL 60660,1.0,41.991023999999996,-87.679259,Chicago,IL,60660,Dunkin'
1127 W Bryn Mawr Ave IL 60660,1.0,41.98333,-87.659087,Chicago,IL,60660,Dunkin'
555 W Lake St IL 60661,1.0,41.885494,-87.64197,Chicago,IL,60661,Dunkin'
117 S Clinton St IL 60661,1.0,41.879996000000006,-87.640857,Chicago,IL,60661,Dunkin'
500 W Madison St IL 60661,1.0,41.88239,-87.640472,Chicago,IL,60661,Dunkin'
547 W Jackson Blvd IL 60661,1.0,41.877722999999996,-87.641777,Chicago,IL,60661,Dunkin'
5600 Mannheim Rd IL 60666,0.5,41.916447999999995,-87.883964,Melrose Park,IL,60164,Dunkin'
10000 Bessie Coleman Dr IL 60666,0.16,41.850033,-87.650052,Amf Ohare,IL,60666,Dunkin'
[100-119] W North Ave IL 60707,0.6,41.909065999999996,-87.802699,Elmwood Park,IL,60707,Dunkin'
S Cicero Ave IL 60804,1.0,41.817941999999995,-87.74366500000001,Cicero,IL,60804,Dunkin'
27 E Lake St IL 60601,1.0,41.885601,-87.627013,Chicago,IL,60601,Dunkin'
203 N La Salle St IL 60601,1.0,41.88606,-87.631681,Chicago,IL,60601,Dunkin'
201 N Clark St IL 60601,1.0,41.886061,-87.63069,Chicago,IL,60601,Dunkin'
201 N State St IL 60601,1.0,41.885598,-87.627939,Chicago,IL,60601,Dunkin'
100 W Randolph St IL 60601,1.0,41.884843,-87.63198100000001,Chicago,IL,60601,Dunkin'
300 E Randolph St IL 60601,1.0,41.884839,-87.619893,Chicago,IL,60601,Dunkin'
303 E Wacker Dr IL 60601,1.0,41.88687,-87.61479,Chicago,IL,60601,Dunkin'
233 N Michigan Ave IL 60601,1.0,41.887121,-87.623273,Chicago,IL,60601,Dunkin'
75 E Washington St IL 60602,1.0,41.883072999999996,-87.625214,Chicago,IL,60602,Dunkin'
166 W Washington St IL 60602,1.0,41.883464000000004,-87.633055,Chicago,IL,60602,Dunkin'
6 N Wabash Ave IL 60602,1.0,41.882239,-87.626367,Chicago,IL,60602,Dunkin'
31 E Adams St IL 60603,1.0,41.879346999999996,-87.627144,Chicago,IL,60603,Dunkin'
333 S State St IL 60604,1.0,41.877495,-87.627218,Chicago,IL,60604,Dunkin'
230 S State St IL 60604,1.0,41.878735,-87.627842,Chicago,IL,60604,Dunkin'
62 E Jackson Blvd IL 60604,1.0,41.878405,-87.625672,Chicago,IL,60604,Dunkin'
77 W Jackson Blvd IL 60604,1.0,41.8776,-87.63041899999999,Chicago,IL,60604,Dunkin'
1575 S Michigan Ave IL 60605,1.0,41.860838,-87.62385400000001,Chicago,IL,60605,Dunkin'
406 S Michigan Ave IL 60605,1.0,41.876756,-87.624851,Chicago,IL,60605,Dunkin'
600 S Wabash Ave IL 60605,1.0,41.874265,-87.626369,Chicago,IL,60605,Dunkin'
439 S Dearborn St IL 60605,1.0,41.875931,-87.62897199999999,Chicago,IL,60605,Dunkin'
171 W Van Buren St IL 60605,1.0,41.876665,-87.63322600000001,Chicago,IL,60605,Dunkin'
1231 S Wabash Ave IL 60605,1.0,41.8669,-87.62530699999999,Chicago,IL,60605,Dunkin'
205 W Randolph St IL 60606,1.0,41.884231,-87.634156,Chicago,IL,60606,Dunkin'
220 W Washington St IL 60606,1.0,41.88337,-87.634877,Chicago,IL,60606,Dunkin'
215 W Lake St IL 60606,1.0,41.885378,-87.634625,Chicago,IL,60606,Dunkin'
2 N Riverside Plz IL 60606,1.0,41.882379,-87.639487,Chicago,IL,60606,Dunkin'
201 W Madison St IL 60606,1.0,41.8816,-87.634113,Chicago,IL,60606,Dunkin'
229 W Jackson Blvd IL 60606,1.0,41.877894,-87.63481800000001,Chicago,IL,60606,Dunkin'
1121 S Jefferson St IL 60607,1.0,41.868512,-87.641645,Chicago,IL,60607,Dunkin'
1015 West Lake Street IL 60607,1.0,41.885337,-87.65276899999999,Chicago,IL,60607,Dunkin'
901 W Washington Blvd IL 60607,1.0,41.882856,-87.650318,Chicago,IL,60607,Dunkin'
500 W Roosevelt Rd IL 60607,1.0,41.867711,-87.63959,Chicago,IL,60607,Dunkin'
1710 W 18th St IL 60608,1.0,41.85802,-87.669213,Chicago,IL,60608,Dunkin'
2356 W Cermak Rd IL 60608,1.0,41.852337,-87.685251,Chicago,IL,60608,Dunkin'
2401 W Ogden Ave IL 60608,1.0,41.864264,-87.686243,Chicago,IL,60608,Dunkin'
1651 W Roosevelt Rd IL 60608,1.0,41.866702000000004,-87.66751,Chicago,IL,60608,Dunkin'
3100 S Halsted St IL 60608,1.0,41.837924,-87.64664599999999,Chicago,IL,60608,Dunkin'
2340 W 52nd St IL 60609,1.0,41.799059,-87.682216,Chicago,IL,60609,Dunkin'
4302 S Ashland Ave IL 60609,1.0,41.815681,-87.665543,Chicago,IL,60609,Dunkin'
333 W North Ave IL 60610,1.0,41.910933,-87.638228,Chicago,IL,60610,Dunkin'
101 W Division St IL 60610,1.0,41.90405,-87.63144399999999,Chicago,IL,60610,Dunkin'
20 E Chicago Ave IL 60611,1.0,41.896955,-87.62734499999999,Chicago,IL,60611,Dunkin'
401 E Ontario St IL 60611,1.0,41.893281,-87.616679,Chicago,IL,60611,Dunkin'
200 E Ohio St IL 60611,1.0,41.892807,-87.622451,Chicago,IL,60611,Dunkin'
1713 W Polk St IL 60612,1.0,41.871258000000005,-87.669597,Chicago,IL,60612,Dunkin'
1755 W Addison St IL 60613,1.0,41.946742,-87.67335899999999,Chicago,IL,60613,Dunkin'
1441 W Montrose Ave IL 60613,1.0,41.961289,-87.666573,Chicago,IL,60613,Dunkin'
801 W Diversey Pkwy IL 60614,1.0,41.932452000000005,-87.649473,Chicago,IL,60614,Dunkin'
1927 W Fullerton Ave IL 60614,1.0,41.922628,-87.66901700000001,Chicago,IL,60614,Dunkin'
1982 N Clybourn Ave IL 60614,1.0,41.917279,-87.658695,Chicago,IL,60614,Dunkin'
1411 E 53rd St IL 60615,1.0,41.799186,-87.591225,Chicago,IL,60615,Dunkin'
749 W 31st St IL 60616,1.0,41.837727,-87.645923,Chicago,IL,60616,Dunkin'
2477 S Archer Ave IL 60616,1.0,41.84709,-87.646086,Chicago,IL,60616,Dunkin'
8753 S Stony Island Ave IL 60617,1.0,41.735282,-87.584897,Chicago,IL,60617,Dunkin'
3101 W Irving Park Rd IL 60618,1.0,41.953633,-87.705841,Chicago,IL,60618,Dunkin'
4010 N Western Ave IL 60618,1.0,41.954443,-87.68893299999999,Chicago,IL,60618,Dunkin'
3310 W Addison St IL 60618,1.0,41.946822999999995,-87.710718,Chicago,IL,60618,Dunkin'
3801 W Belmont Ave IL 60618,1.0,41.938941,-87.7222,Chicago,IL,60618,Dunkin'
3214 N Kimball Ave IL 60618,1.0,41.939794,-87.712901,Chicago,IL,60618,Dunkin'
3535 N Western Ave IL 60618,1.0,41.945929,-87.687742,Chicago,IL,60618,Dunkin'
814 E 87th St IL 60619,1.0,41.736928999999996,-87.603971,Chicago,IL,60619,Dunkin'
8255 S Halsted St IL 60620,1.0,41.743666,-87.643479,Chicago,IL,60620,Dunkin'
7921 South Western Avenue IL 60620,1.0,41.749451,-87.682175,Chicago,IL,60620,Dunkin'
207 W 79th St IL 60620,1.0,41.750612,-87.629828,Chicago,IL,60620,Dunkin'
120 W 87th St IL 60620,1.0,41.735194,-87.627339,Chicago,IL,60620,Dunkin'
150 W 63rd St IL 60621,1.0,41.780319,-87.629797,Chicago,IL,60621,Dunkin'
6237 South Halsted Street IL 60621,1.0,41.78092,-87.644671,Chicago,IL,60621,Dunkin'
1535 W Grand Ave IL 60622,0.8,41.890689,-87.666673,Chicago,IL,60642,Dunkin'
1234 N Halsted St IL 60622,0.8,41.904718,-87.64853199999999,Chicago,IL,60614,Dunkin'
1200 N Milwaukee Ave IL 60622,1.0,41.903507,-87.666484,Chicago,IL,60622,Dunkin'
1244 N Ashland Ave IL 60622,1.0,41.904907,-87.667835,Chicago,IL,60622,Dunkin'
2801 S Kedzie Ave IL 60623,1.0,41.840727,-87.704566,Chicago,IL,60623,Dunkin'
4821 N Kedzie Ave IL 60625,1.0,41.969389,-87.708157,Chicago,IL,60625,Dunkin'
4645 N Western Ave IL 60625,1.0,41.966275,-87.688457,Chicago,IL,60625,Dunkin'
5200 N Lincoln Ave IL 60625,1.0,41.976099,-87.692712,Chicago,IL,60625,Dunkin'
3152 W Lawrence Ave IL 60625,1.0,41.968612,-87.707646,Chicago,IL,60625,Dunkin'
7547 N Paulina St IL 60626,0.88,42.018737,-87.672101,Chicago,IL,60626,Dunkin'
1200 W Loyola Ave IL 60626,1.0,42.003161,-87.664107,Chicago,IL,60626,Dunkin'
1357 West Morse Avenue IL 60626,1.0,42.007768,-87.665398,Chicago,IL,60626,Dunkin'
1632 W Howard St IL 60626,1.0,42.0196,-87.67226099999999,Chicago,IL,60626,Dunkin'
6970 N Clark St IL 60626,1.0,42.008516,-87.674305,Chicago,IL,60626,Dunkin'
9802 S Halsted St IL 60628,1.0,41.715444,-87.643575,Chicago,IL,60628,Dunkin'
14 W 95th St IL 60628,0.87,41.721432,-87.624685,Chicago,IL,60628,Dunkin'
250 E 103rd St IL 60628,1.0,41.707549,-87.61669300000001,Chicago,IL,60628,Dunkin'
6500 S Kedzie Ave IL 60629,1.0,41.775064,-87.703401,Chicago,IL,60629,Dunkin'
5931 S Kedzie Ave IL 60629,1.0,41.785328,-87.702964,Chicago,IL,60629,Dunkin'
3712 W 62nd Pl IL 60629,1.0,41.779944,-87.716054,Chicago,IL,60629,Dunkin'
6925 S Pulaski Rd IL 60629,1.0,41.766961,-87.72209000000001,Chicago,IL,60629,Dunkin'
4612 W 59th St IL 60629,1.0,41.787774,-87.73804399999999,Chicago,IL,60629,Dunkin'
5949 W Higgins Ave IL 60630,1.0,41.972792,-87.777373,Chicago,IL,60630,Dunkin'
5205 N Nagle Ave IL 60630,1.0,41.975791,-87.78772,Chicago,IL,60630,Dunkin'
5050 N Cicero Ave IL 60630,1.0,41.973434999999995,-87.748231,Chicago,IL,60630,Dunkin'
4045 W Lawrence Ave IL 60630,1.0,41.967975,-87.72990300000001,Chicago,IL,60630,Dunkin'
742 West Higgins Road IL 60631,0.85,41.984732,-87.821752,Chicago,IL,60631,Dunkin'
742 West Higgins Road IL 60631,0.85,41.984732,-87.821752,Chicago,IL,60631,Dunkin'
7240 West Devon Avenue IL 60631,1.0,41.997678,-87.808432,Chicago,IL,60631,Dunkin'
742 Higgins Road IL 60631,0.8,41.986302,-87.834616,Park Ridge,IL,60068,Dunkin'
7156 N Harlem Ave IL 60631,1.0,42.01155,-87.806997,Chicago,IL,60631,Dunkin'
4113 South Pulaski Road IL 60632,1.0,41.818067,-87.72341800000001,Chicago,IL,60632,Dunkin'
4669 S Cicero Ave IL 60632,1.0,41.80816,-87.743113,Chicago,IL,60632,Dunkin'
3910 S Archer Ave IL 60632,1.0,41.822684,-87.69069499999999,Chicago,IL,60632,Dunkin'
4453 S Archer Ave IL 60632,1.0,41.812103,-87.70689899999999,Chicago,IL,60632,Dunkin'
4701 S Kedzie Ave IL 60632,1.0,41.807877000000005,-87.703324,Chicago,IL,60632,Dunkin'
5448 S Pulaski Rd IL 60632,1.0,41.793693,-87.72355999999999,Chicago,IL,60632,Dunkin'
4649 S Cicero Ave IL 60632,1.0,41.808159,-87.742799,Chicago,IL,60632,Dunkin'
3359 N Harlem Ave IL 60634,1.0,41.941432,-87.806403,Chicago,IL,60634,Dunkin'
6200 W Belmont Ave IL 60634,1.0,41.938651,-87.781428,Chicago,IL,60634,Dunkin'
4354 N Central Ave IL 60634,1.0,41.960336,-87.767595,Chicago,IL,60634,Dunkin'
7171 W Irving Park Rd IL 60634,1.0,41.952461,-87.806723,Chicago,IL,60634,Dunkin'
6408 W Irving Park Rd IL 60634,1.0,41.953224,-87.786916,Chicago,IL,60634,Dunkin'
6001 W Addison St IL 60634,1.0,41.945593,-87.776839,Chicago,IL,60634,Dunkin'
3039 N Central Ave IL 60634,1.0,41.936161,-87.766068,Chicago,IL,60634,Dunkin'
1614 W 59th St IL 60636,1.0,41.787459999999996,-87.665502,Chicago,IL,60636,Dunkin'
6100 S Western Ave IL 60636,1.0,41.782655,-87.684078,Chicago,IL,60636,Dunkin'
7059 S Ashland Ave IL 60636,1.0,41.765182,-87.663439,Chicago,IL,60636,Dunkin'
4957 S Central Ave IL 60638,1.0,41.802644,-87.762476,Chicago,IL,60638,Dunkin'
6738 W Archer Ave IL 60638,1.0,41.792464,-87.790658,Chicago,IL,60638,Dunkin'
5615 S Harlem Ave IL 60638,1.0,41.789666,-87.801043,Chicago,IL,60638,Dunkin'
6641 S Cicero Ave IL 60638,1.0,41.771727,-87.74169300000001,Chicago,IL,60638,Dunkin'
4644 W Diversey Ave IL 60639,1.0,41.932674,-87.743662,Chicago,IL,60639,Dunkin'
6336 W North Ave IL 60639,1.0,41.909529,-87.784774,Chicago,IL,60639,Dunkin'
2640 N Narragansett Ave IL 60639,1.0,41.928854,-87.785783,Chicago,IL,60639,Dunkin'
5959 W Diversey Ave IL 60639,1.0,41.930889,-87.77565899999999,Chicago,IL,60639,Dunkin'
5650 W Fullerton Ave IL 60639,1.0,41.924323,-87.767761,Chicago,IL,60639,Dunkin'
2337 N Cicero Ave IL 60639,1.0,41.923593,-87.74590500000001,Chicago,IL,60639,Dunkin'
5707 W North Ave IL 60639,1.0,41.909034999999996,-87.768784,Chicago,IL,60639,Dunkin'
1743 W Lawrence Ave IL 60640,1.0,41.968644,-87.673049,Chicago,IL,60640,Dunkin'
4547 N Broadway St IL 60640,1.0,41.965047999999996,-87.65687,Chicago,IL,60640,Dunkin'
4245 N Milwaukee Ave IL 60641,1.0,41.958264,-87.752012,Chicago,IL,60641,Dunkin'
5000 W Irving Park Rd IL 60641,1.0,41.953671,-87.75254,Chicago,IL,60641,Dunkin'
9800 South Western Avenue IL 60643,0.8,41.715161,-87.682296,Evergreen Park,IL,60805,Dunkin'
10401 S Western Ave IL 60643,1.0,41.704417,-87.681066,Chicago,IL,60643,Dunkin'
4800 W Lake St IL 60644,1.0,41.886881,-87.745297,Chicago,IL,60644,Dunkin'
782 N Laramie Ave IL 60644,1.0,41.894616,-87.755735,Chicago,IL,60644,Dunkin'
7578 N Western Ave IL 60645,1.0,42.019255,-87.69048199999999,Chicago,IL,60645,Dunkin'
6342 N Milwaukee Ave IL 60646,1.0,41.996308,-87.787254,Chicago,IL,60646,Dunkin'
1909 N Western Ave IL 60647,1.0,41.916709999999995,-87.687235,Chicago,IL,60647,Dunkin'
3427 W Diversey Ave IL 60647,1.0,41.931707,-87.713441,Chicago,IL,60647,Dunkin'
3309 W North Ave IL 60647,1.0,41.90972,-87.709987,Chicago,IL,60647,Dunkin'
1746 N Western Ave IL 60647,1.0,41.91356,-87.687692,Chicago,IL,60647,Dunkin'
1345 N Pulaski Rd IL 60651,1.0,41.905637,-87.725835,Chicago,IL,60651,Dunkin'
800 N Kedzie Ave IL 60651,1.0,41.896524,-87.707225,Chicago,IL,60651,Dunkin'
4747 West 79th Street IL 60652,1.0,41.749026,-87.740298,Chicago,IL,60652,Dunkin'
7905 S Cicero Ave IL 60652,1.0,41.749086,-87.741203,Chicago,IL,60652,Dunkin'
3977 W Columbus Ave IL 60652,1.0,41.735724,-87.72084100000001,Chicago,IL,60652,Dunkin'
7601 S Cicero Ave Ste 76 IL 60652,1.0,41.755323,-87.740572,Chicago,IL,60652,Dunkin'
4667 W 79th St IL 60652,1.0,41.749047999999995,-87.738327,Chicago,IL,60652,Dunkin'
3214 W 87th St IL 60652,1.0,41.735183,-87.711715,Chicago,IL,60652,Dunkin'
222 W Merchandise Mart Plaza IL 60654,1.0,41.888083,-87.636185,Chicago,IL,60654,Dunkin'
309 West Chicago Avenue IL 60654,1.0,41.89626,-87.63615,Chicago,IL,60654,Dunkin'
222 Merchandise Mart Plz IL 60654,0.9,41.888083,-87.636185,Chicago,IL,60654,Dunkin'
222 Merchandise Mart Plz Ste 203 IL 60654,0.9,41.888083,-87.636185,Chicago,IL,60654,Dunkin'
3206 West 111th Street IL 60655,1.0,41.691841,-87.701301,Chicago,IL,60655,Dunkin'
5550 N Harlem Ave IL 60656,1.0,41.982436,-87.80770799999999,Chicago,IL,60656,Dunkin'
3200 N Clark St IL 60657,1.0,41.94031,-87.65142800000001,Chicago,IL,60657,Dunkin'
3000 N Ashland Ave IL 60657,1.0,41.936365,-87.668877,Chicago,IL,60657,Dunkin'
3132 W Devon Ave IL 60659,1.0,41.997675,-87.708534,Chicago,IL,60659,Dunkin'
6254 N Western Ave IL 60659,1.0,41.99573,-87.690212,Chicago,IL,60659,Dunkin'
5723 N California Ave IL 60659,1.0,41.985696999999995,-87.698898,Chicago,IL,60659,Dunkin'
6250 N Clark St IL 60660,1.0,41.995826,-87.670598,Chicago,IL,60660,Dunkin'
6326 N Broadway St IL 60660,1.0,41.996849,-87.66063100000001,Chicago,IL,60660,Dunkin'
1954 W Peterson Ave IL 60660,1.0,41.991023999999996,-87.679259,Chicago,IL,60660,Dunkin'
1127 W Bryn Mawr Ave IL 60660,1.0,41.98333,-87.659087,Chicago,IL,60660,Dunkin'
555 W Lake St IL 60661,1.0,41.885494,-87.64197,Chicago,IL,60661,Dunkin'
117 S Clinton St IL 60661,1.0,41.879996000000006,-87.640857,Chicago,IL,60661,Dunkin'
500 W Madison St IL 60661,1.0,41.88239,-87.640472,Chicago,IL,60661,Dunkin'
547 W Jackson Blvd IL 60661,1.0,41.877722999999996,-87.641777,Chicago,IL,60661,Dunkin'
5600 Mannheim Rd IL 60666,0.5,41.916447999999995,-87.883964,Melrose Park,IL,60164,Dunkin'
10000 Bessie Coleman Dr IL 60666,0.16,41.850033,-87.650052,Amf Ohare,IL,60666,Dunkin'
[100-119] W North Ave IL 60707,0.6,41.909065999999996,-87.802699,Elmwood Park,IL,60707,Dunkin'
S Cicero Ave IL 60804,1.0,41.817941999999995,-87.74366500000001,Cicero,IL,60804,Dunkin'
2703 E Sauk Trl IL 60411,1.0,41.492045000000005,-87.554861,Sauk Village,IL,60411,Dunkin'
431 W 14th St IL 60411,1.0,41.50663,-87.661877,Chicago Heights,IL,60411,Dunkin'
1620 E Lincoln Hwy IL 60411,1.0,41.505734000000004,-87.583822,Ford Heights,IL,60411,Dunkin'
2703 E Sauk Trl IL 60411,1.0,41.492045000000005,-87.554861,Sauk Village,IL,60411,Dunkin'
431 W 14th St IL 60411,1.0,41.50663,-87.661877,Chicago Heights,IL,60411,Dunkin'
1620 E Lincoln Hwy IL 60411,1.0,41.505734000000004,-87.583822,Ford Heights,IL,60411,Dunkin'
5737 West Roosevelt Road IL 60804,1.0,41.865394,-87.76803699999999,Cicero,IL,60804,Dunkin'
3146 S Cicero Ave IL 60804,0.69,41.835112,-87.74444,Cicero,IL,60804,Dunkin'
5600 W 16th St IL 60804,1.0,41.858204,-87.764105,Cicero,IL,60804,Dunkin'
2147 S Cicero Ave IL 60804,0.66,41.852098,-87.74399,Cicero,IL,60804,Dunkin'
5737 West Roosevelt Road IL 60804,1.0,41.865394,-87.76803699999999,Cicero,IL,60804,Dunkin'
3146 S Cicero Ave IL 60804,0.69,41.835112,-87.74444,Cicero,IL,60804,Dunkin'
5600 W 16th St IL 60804,1.0,41.858204,-87.764105,Cicero,IL,60804,Dunkin'
2147 S Cicero Ave IL 60804,0.66,41.852098,-87.74399,Cicero,IL,60804,Dunkin'
5500 S La Grange Rd IL 60525,1.0,41.790039,-87.869105,Countryside,IL,60525,Dunkin'
9644 W 58th St IL 60525,1.0,41.785415,-87.860667,Countryside,IL,60525,Dunkin'
5500 S La Grange Rd IL 60525,1.0,41.790039,-87.869105,Countryside,IL,60525,Dunkin'
9644 W 58th St IL 60525,1.0,41.785415,-87.860667,Countryside,IL,60525,Dunkin'
450 North Il Route 31 IL 60012,0.7,42.265578999999995,-88.143578,Wauconda,IL,60084,Dunkin'
4817 Northwest Highway IL 60014,0.22,42.243772,-88.323986,Crystal Lake,IL,60014,Dunkin'
450 North Il Route 31 IL 60012,0.7,42.265578999999995,-88.143578,Wauconda,IL,60084,Dunkin'
4817 Northwest Highway IL 60014,0.22,42.243772,-88.323986,Crystal Lake,IL,60014,Dunkin'
2120 Miner St IL 60016,1.0,42.039541,-87.87212099999999,Des Plaines,IL,60016,Dunkin'
850 Elmhurst Rd IL 60016,1.0,42.036696,-87.94084000000001,Des Plaines,IL,60016,Dunkin'
782 W Oakton St IL 60018,1.0,42.023132000000004,-87.939081,Des Plaines,IL,60018,Dunkin'
9781 W Higgins Rd IL 60018,1.0,41.993728999999995,-87.870274,Rosemont,IL,60018,Dunkin'
1080 E Oakton St IL 60018,1.0,42.02415,-87.896473,Des Plaines,IL,60018,Dunkin'
1926 S River Rd IL 60018,1.0,42.017841,-87.874921,Des Plaines,IL,60018,Dunkin'
2120 Miner St IL 60016,1.0,42.039541,-87.87212099999999,Des Plaines,IL,60016,Dunkin'
850 Elmhurst Rd IL 60016,1.0,42.036696,-87.94084000000001,Des Plaines,IL,60016,Dunkin'
782 W Oakton St IL 60018,1.0,42.023132000000004,-87.939081,Des Plaines,IL,60018,Dunkin'
9781 W Higgins Rd IL 60018,1.0,41.993728999999995,-87.870274,Rosemont,IL,60018,Dunkin'
1080 E Oakton St IL 60018,1.0,42.02415,-87.896473,Des Plaines,IL,60018,Dunkin'
1926 S River Rd IL 60018,1.0,42.017841,-87.874921,Des Plaines,IL,60018,Dunkin'
250 W Sibley Blvd IL 60419,1.0,41.622796,-87.622458,Dolton,IL,60419,Dunkin'
1136 E Sibley Blvd IL 60419,1.0,41.622969,-87.589598,Dolton,IL,60419,Dunkin'
250 W Sibley Blvd IL 60419,1.0,41.622796,-87.622458,Dolton,IL,60419,Dunkin'
1136 E Sibley Blvd IL 60419,1.0,41.622969,-87.589598,Dolton,IL,60419,Dunkin'
1931 Ogden Ave IL 60515,1.0,41.807501,-88.033209,Downers Grove,IL,60515,Dunkin'
522 Ogden Ave IL 60515,1.0,41.809819,-87.999103,Downers Grove,IL,60515,Dunkin'
6310 Woodward Avenue IL 60516,1.0,41.772377,-88.031944,Downers Grove,IL,60516,Dunkin'
1200 75th St IL 60516,1.0,41.75105,-88.025233,Downers Grove,IL,60516,Dunkin'
1931 Ogden Ave IL 60515,1.0,41.807501,-88.033209,Downers Grove,IL,60515,Dunkin'
522 Ogden Ave IL 60515,1.0,41.809819,-87.999103,Downers Grove,IL,60515,Dunkin'
6310 Woodward Avenue IL 60516,1.0,41.772377,-88.031944,Downers Grove,IL,60516,Dunkin'
1200 75th St IL 60516,1.0,41.75105,-88.025233,Downers Grove,IL,60516,Dunkin'
780 North Main Street IL 60119,1.0,41.900898,-88.472904,Elburn,IL,60119,Dunkin'
780 North Main Street IL 60119,1.0,41.900898,-88.472904,Elburn,IL,60119,Dunkin'
780 North Main Street IL 60119,1.0,41.900898,-88.472904,Elburn,IL,60119,Dunkin'
780 North Main Street IL 60119,1.0,41.900898,-88.472904,Elburn,IL,60119,Dunkin'
1137 Dundee Avenue IL 60120,1.0,42.058089,-88.266465,Elgin,IL,60120,Dunkin'
95 Clock Tower Plz IL 60120,1.0,42.029725,-88.278008,Elgin,IL,60120,Dunkin'
505 Dundee Ave IL 60120,1.0,42.046490999999996,-88.275299,Elgin,IL,60120,Dunkin'
812 E Chicago St IL 60120,1.0,42.035765999999995,-88.25953100000001,Elgin,IL,60120,Dunkin'
1730 N State St IL 60123,1.0,42.066601,-88.291698,Elgin,IL,60123,Dunkin'
80 Tyler Creek Plz IL 60123,1.0,42.059644,-88.31503199999999,Elgin,IL,60123,Dunkin'
1500 Larkin Ave IL 60123,1.0,42.034909000000006,-88.314624,Elgin,IL,60123,Dunkin'
263 S Randall Rd IL 60123,1.0,42.026419,-88.338105,Elgin,IL,60123,Dunkin'
318 S Mclean Blvd IL 60123,0.89,42.025084,-88.312352,Elgin,IL,60123,Dunkin'
1137 Dundee Avenue IL 60120,1.0,42.058089,-88.266465,Elgin,IL,60120,Dunkin'
95 Clock Tower Plz IL 60120,1.0,42.029725,-88.278008,Elgin,IL,60120,Dunkin'
505 Dundee Ave IL 60120,1.0,42.046490999999996,-88.275299,Elgin,IL,60120,Dunkin'
812 E Chicago St IL 60120,1.0,42.035765999999995,-88.25953100000001,Elgin,IL,60120,Dunkin'
1730 N State St IL 60123,1.0,42.066601,-88.291698,Elgin,IL,60123,Dunkin'
80 Tyler Creek Plz IL 60123,1.0,42.059644,-88.31503199999999,Elgin,IL,60123,Dunkin'
1500 Larkin Ave IL 60123,1.0,42.034909000000006,-88.314624,Elgin,IL,60123,Dunkin'
263 S Randall Rd IL 60123,1.0,42.026419,-88.338105,Elgin,IL,60123,Dunkin'
318 S Mclean Blvd IL 60123,0.89,42.025084,-88.312352,Elgin,IL,60123,Dunkin'
700 E Higgins Rd IL 60007,1.0,42.041854,-88.061776,Elk Grove Village,IL,60007,Dunkin'
674 Meacham Road IL 60007,1.0,42.005769,-88.046272,Elk Grove Village,IL,60007,Dunkin'
801 Meacham Rd IL 60007,1.0,42.001975,-88.043366,Elk Grove Village,IL,60007,Dunkin'
850 Elmhurst Rd IL 60007,1.0,42.013537,-87.94111099999999,Elk Grove Village,IL,60007,Dunkin'
1103 Nerge Rd IL 60007,1.0,41.993587,-88.027477,Elk Grove Village,IL,60007,Dunkin'
50 Biesterfield Rd IL 60007,1.0,42.003853,-88.005499,Elk Grove Village,IL,60007,Dunkin'
700 E Higgins Rd IL 60007,1.0,42.041854,-88.061776,Elk Grove Village,IL,60007,Dunkin'
674 Meacham Road IL 60007,1.0,42.005769,-88.046272,Elk Grove Village,IL,60007,Dunkin'
801 Meacham Rd IL 60007,1.0,42.001975,-88.043366,Elk Grove Village,IL,60007,Dunkin'
850 Elmhurst Rd IL 60007,1.0,42.013537,-87.94111099999999,Elk Grove Village,IL,60007,Dunkin'
1103 Nerge Rd IL 60007,1.0,41.993587,-88.027477,Elk Grove Village,IL,60007,Dunkin'
50 Biesterfield Rd IL 60007,1.0,42.003853,-88.005499,Elk Grove Village,IL,60007,Dunkin'
506 W North Ave IL 60126,1.0,41.9057,-87.959289,Elmhurst,IL,60126,Dunkin'
936 S York St IL 60126,1.0,41.870492999999996,-87.934606,Elmhurst,IL,60126,Dunkin'
506 W North Ave IL 60126,1.0,41.9057,-87.959289,Elmhurst,IL,60126,Dunkin'
936 S York St IL 60126,1.0,41.870492999999996,-87.934606,Elmhurst,IL,60126,Dunkin'
1612 Benson Ave IL 60201,1.0,42.047835,-87.683686,Evanston,IL,60201,Dunkin'
2658 Green Bay Rd IL 60201,1.0,42.066018,-87.700487,Evanston,IL,60201,Dunkin'
1728 Sherman Ave IL 60201,1.0,42.049512,-87.682057,Evanston,IL,60201,Dunkin'
2494 Oakton Street IL 60202,1.0,42.025824,-87.708301,Evanston,IL,60202,Dunkin'
1900 Dempster St IL 60202,1.0,42.040628000000005,-87.699621,Evanston,IL,60202,Dunkin'
101 Asbury Ave IL 60202,1.0,42.020084000000004,-87.689927,Evanston,IL,60202,Dunkin'
1612 Benson Ave IL 60201,1.0,42.047835,-87.683686,Evanston,IL,60201,Dunkin'
2658 Green Bay Rd IL 60201,1.0,42.066018,-87.700487,Evanston,IL,60201,Dunkin'
1728 Sherman Ave IL 60201,1.0,42.049512,-87.682057,Evanston,IL,60201,Dunkin'
2494 Oakton Street IL 60202,1.0,42.025824,-87.708301,Evanston,IL,60202,Dunkin'
1900 Dempster St IL 60202,1.0,42.040628000000005,-87.699621,Evanston,IL,60202,Dunkin'
101 Asbury Ave IL 60202,1.0,42.020084000000004,-87.689927,Evanston,IL,60202,Dunkin'
2755 W 87th St IL 60805,1.0,41.735003999999996,-87.691888,Evergreen Park,IL,60805,Dunkin'
9800 S Western Ave IL 60805,1.0,41.715161,-87.682296,Evergreen Park,IL,60805,Dunkin'
3332 W 95th St IL 60805,1.0,41.721052,-87.705667,Evergreen Park,IL,60805,Dunkin'
2755 W 87th St IL 60805,1.0,41.735003999999996,-87.691888,Evergreen Park,IL,60805,Dunkin'
9800 S Western Ave IL 60805,1.0,41.715161,-87.682296,Evergreen Park,IL,60805,Dunkin'
3332 W 95th St IL 60805,1.0,41.721052,-87.705667,Evergreen Park,IL,60805,Dunkin'
6008 N Illinois St IL 62208,1.0,38.587736,-89.98404599999999,Fairview Heights,IL,62208,Dunkin'
2057 Lincoln Highway IL 62208,0.6,38.592855,-89.976559,Fairview Heights,IL,62208,Dunkin'
2057 Lincoln Highway IL 62208,0.6,38.592855,-89.976559,Fairview Heights,IL,62208,Dunkin'
6008 N Illinois St IL 62208,1.0,38.587736,-89.98404599999999,Fairview Heights,IL,62208,Dunkin'
2057 Lincoln Highway IL 62208,0.6,38.592855,-89.976559,Fairview Heights,IL,62208,Dunkin'
2057 Lincoln Highway IL 62208,0.6,38.592855,-89.976559,Fairview Heights,IL,62208,Dunkin'
530 Crescent Boulevard IL 60137,1.0,41.876636,-88.066129,Glen Ellyn,IL,60137,Dunkin'
22w251 North Ave IL 60137,1.0,41.902978999999995,-88.058904,Glen Ellyn,IL,60137,Dunkin'
651 Roosevelt Rd IL 60137,1.0,41.859101,-88.060232,Glen Ellyn,IL,60137,Dunkin'
530 Crescent Boulevard IL 60137,1.0,41.876636,-88.066129,Glen Ellyn,IL,60137,Dunkin'
22w251 North Ave IL 60137,1.0,41.902978999999995,-88.058904,Glen Ellyn,IL,60137,Dunkin'
651 Roosevelt Rd IL 60137,1.0,41.859101,-88.060232,Glen Ellyn,IL,60137,Dunkin'
980 Harlem Avenue IL 60025,1.0,42.072666999999996,-87.806569,Glenview,IL,60025,Dunkin'
1410 Waukegan Road IL 60025,1.0,42.080588,-87.799277,Glenview,IL,60025,Dunkin'
9721 Milwaukee Avenue IL 60025,1.0,42.058443,-87.841255,Glenview,IL,60025,Dunkin'
1750 Milwaukee Ave IL 60025,1.0,42.086464,-87.870475,Glenview,IL,60025,Dunkin'
1208 Waukegan Rd IL 60025,1.0,42.076438,-87.799181,Glenview,IL,60025,Dunkin'
980 Harlem Avenue IL 60025,1.0,42.072666999999996,-87.806569,Glenview,IL,60025,Dunkin'
1410 Waukegan Road IL 60025,1.0,42.080588,-87.799277,Glenview,IL,60025,Dunkin'
9721 Milwaukee Avenue IL 60025,1.0,42.058443,-87.841255,Glenview,IL,60025,Dunkin'
1750 Milwaukee Ave IL 60025,1.0,42.086464,-87.870475,Glenview,IL,60025,Dunkin'
1208 Waukegan Rd IL 60025,1.0,42.076438,-87.799181,Glenview,IL,60025,Dunkin'
7450 Barrington Rd IL 60133,1.0,42.006842,-88.145268,Hanover Park,IL,60133,Dunkin'
1511 Irving Park Rd IL 60133,0.9,42.004397,-88.141278,Schaumburg,IL,60133,Dunkin'
7450 Barrington Rd IL 60133,1.0,42.006842,-88.145268,Hanover Park,IL,60133,Dunkin'
1511 Irving Park Rd IL 60133,0.9,42.004397,-88.141278,Schaumburg,IL,60133,Dunkin'
7847 W 95th St IL 60457,1.0,41.718225,-87.815026,Hickory Hills,IL,60457,Dunkin'
8601 W 95th St IL 60457,1.0,41.718034,-87.833123,Hickory Hills,IL,60457,Dunkin'
7847 W 95th St IL 60457,1.0,41.718225,-87.815026,Hickory Hills,IL,60457,Dunkin'
8601 W 95th St IL 60457,1.0,41.718034,-87.833123,Hickory Hills,IL,60457,Dunkin'
1996 2nd Street IL 60035,1.0,42.188525,-87.803312,Highland Park,IL,60035,Dunkin'
1990 Skokie Valley Rd IL 60035,1.0,42.188584000000006,-87.825936,Highland Park,IL,60035,Dunkin'
1996 2nd Street IL 60035,1.0,42.188525,-87.803312,Highland Park,IL,60035,Dunkin'
1990 Skokie Valley Rd IL 60035,1.0,42.188584000000006,-87.825936,Highland Park,IL,60035,Dunkin'
2089 Barrington Road IL 60169,1.0,42.060094,-88.14451,Hoffman Estates,IL,60169,Dunkin'
1165 Barrington Rd IL 60194,1.0,42.044278999999996,-88.144514,Schaumburg,IL,60194,Dunkin'
2089 Barrington Road IL 60169,1.0,42.060094,-88.14451,Hoffman Estates,IL,60169,Dunkin'
1165 Barrington Rd IL 60194,1.0,42.044278999999996,-88.144514,Schaumburg,IL,60194,Dunkin'
15060 S Bell Rd IL 60491,1.0,41.615072,-87.931473,Homer Glen,IL,60491,Dunkin'
14135 S Bell Rd IL 60491,1.0,41.631313,-87.93055799999999,Homer Glen,IL,60491,Dunkin'
15060 S Bell Rd IL 60491,1.0,41.615072,-87.931473,Homer Glen,IL,60491,Dunkin'
14135 S Bell Rd IL 60491,1.0,41.631313,-87.93055799999999,Homer Glen,IL,60491,Dunkin'
17579 Halsted St IL 60430,1.0,41.569815999999996,-87.635745,Homewood,IL,60430,Dunkin'
2353 183rd St IL 60430,1.0,41.557065,-87.672926,Homewood,IL,60430,Dunkin'
17579 Halsted St IL 60430,1.0,41.569815999999996,-87.635745,Homewood,IL,60430,Dunkin'
2353 183rd St IL 60430,1.0,41.557065,-87.672926,Homewood,IL,60430,Dunkin'
9800 Illinois 47 IL 60142,1.0,42.225613,-88.422327,Huntley,IL,60142,Dunkin'
12090 Princeton Dr IL 60142,1.0,42.152684,-88.433727,Huntley,IL,60142,Dunkin'
9800 Illinois 47 IL 60142,1.0,42.225613,-88.422327,Huntley,IL,60142,Dunkin'
12090 Princeton Dr IL 60142,1.0,42.152684,-88.433727,Huntley,IL,60142,Dunkin'
1350 Houbolt Rd IL 60431,1.0,41.497128000000004,-88.167855,Joliet,IL,60431,Dunkin'
334 Collins St IL 60432,1.0,41.53131,-88.072041,Joliet,IL,60432,Dunkin'
2959 W Jefferson St IL 60435,1.0,41.522589,-88.155108,Joliet,IL,60435,Dunkin'
3011 Plainfield Rd IL 60435,1.0,41.579654,-88.16094,Joliet,IL,60435,Dunkin'
20 S Larkin Ave IL 60436,1.0,41.521597,-88.124266,Joliet,IL,60436,Dunkin'
1350 Houbolt Rd IL 60431,1.0,41.497128000000004,-88.167855,Joliet,IL,60431,Dunkin'
334 Collins St IL 60432,1.0,41.53131,-88.072041,Joliet,IL,60432,Dunkin'
2959 W Jefferson St IL 60435,1.0,41.522589,-88.155108,Joliet,IL,60435,Dunkin'
3011 Plainfield Rd IL 60435,1.0,41.579654,-88.16094,Joliet,IL,60435,Dunkin'
20 S Larkin Ave IL 60436,1.0,41.521597,-88.124266,Joliet,IL,60436,Dunkin'
W 79th St IL 60458,0.6,41.747302000000005,-87.829351,Justice,IL,60458,Dunkin'
8031 W 79th St IL 60458,1.0,41.747465000000005,-87.81979100000001,Justice,IL,60458,Dunkin'
W 79th St IL 60458,0.6,41.747302000000005,-87.829351,Justice,IL,60458,Dunkin'
8031 W 79th St IL 60458,1.0,41.747465000000005,-87.81979100000001,Justice,IL,60458,Dunkin'
8147 Joliet Rd IL 60525,1.0,41.802834999999995,-87.824833,Mc Cook,IL,60525,Dunkin'
S La Grange Rd IL 60525,1.0,41.791385,-87.868874,La Grange,IL,60525,Dunkin'
8147 Joliet Rd IL 60525,1.0,41.802834999999995,-87.824833,Mc Cook,IL,60525,Dunkin'
S La Grange Rd IL 60525,1.0,41.791385,-87.868874,La Grange,IL,60525,Dunkin'
12371 Derby Rd IL 60439,1.0,41.664128000000005,-87.963482,Lemont,IL,60439,Dunkin'
1106 State St IL 60439,1.0,41.66057,-88.001274,Lemont,IL,60439,Dunkin'
12371 Derby Rd IL 60439,1.0,41.664128000000005,-87.963482,Lemont,IL,60439,Dunkin'
1106 State St IL 60439,1.0,41.66057,-88.001274,Lemont,IL,60439,Dunkin'
121 North Milwaukee Avenue IL 60048,1.0,42.28368,-87.953761,Libertyville,IL,60048,Dunkin'
210 Peterson Rd IL 60048,1.0,42.306651,-87.96498000000001,Libertyville,IL,60048,Dunkin'
1179 W Park Ave IL 60048,1.0,42.281058,-87.972708,Libertyville,IL,60048,Dunkin'
121 North Milwaukee Avenue IL 60048,1.0,42.28368,-87.953761,Libertyville,IL,60048,Dunkin'
210 Peterson Rd IL 60048,1.0,42.306651,-87.96498000000001,Libertyville,IL,60048,Dunkin'
1179 W Park Ave IL 60048,1.0,42.281058,-87.972708,Libertyville,IL,60048,Dunkin'
6801 N Cicero Ave IL 60712,1.0,42.004828,-87.74754300000001,Lincolnwood,IL,60712,Dunkin'
3946 W Devon Ave IL 60712,1.0,41.997401,-87.727703,Lincolnwood,IL,60712,Dunkin'
6599 N Lincoln Ave IL 60712,1.0,42.000584,-87.723387,Lincolnwood,IL,60712,Dunkin'
3910 W Touhy Ave IL 60712,1.0,42.011964,-87.726736,Lincolnwood,IL,60712,Dunkin'
6801 N Cicero Ave IL 60712,1.0,42.004828,-87.74754300000001,Lincolnwood,IL,60712,Dunkin'
3946 W Devon Ave IL 60712,1.0,41.997401,-87.727703,Lincolnwood,IL,60712,Dunkin'
6599 N Lincoln Ave IL 60712,1.0,42.000584,-87.723387,Lincolnwood,IL,60712,Dunkin'
3910 W Touhy Ave IL 60712,1.0,42.011964,-87.726736,Lincolnwood,IL,60712,Dunkin'
819 Ogden Ave IL 60532,1.0,41.801621999999995,-88.067998,Lisle,IL,60532,Dunkin'
4300 Lincoln Avenue IL 60532,1.0,41.807261,-88.077119,Lisle,IL,60532,Dunkin'
1109 Maple Ave IL 60532,1.0,41.786827,-88.072458,Lisle,IL,60532,Dunkin'
819 Ogden Ave IL 60532,1.0,41.801621999999995,-88.067998,Lisle,IL,60532,Dunkin'
4300 Lincoln Avenue IL 60532,1.0,41.807261,-88.077119,Lisle,IL,60532,Dunkin'
1109 Maple Ave IL 60532,1.0,41.786827,-88.072458,Lisle,IL,60532,Dunkin'
84 Yorktown Shopping Center IL 60148,0.22,41.869828999999996,-88.00386400000001,Lombard,IL,60148,Dunkin'
1 E Saint Charles Rd IL 60148,1.0,41.887064,-88.017957,Lombard,IL,60148,Dunkin'
1160 S Main St IL 60148,1.0,41.860901,-88.017873,Lombard,IL,60148,Dunkin'
84 Yorktown Shopping Center IL 60148,0.22,41.869828999999996,-88.00386400000001,Lombard,IL,60148,Dunkin'
1 E Saint Charles Rd IL 60148,1.0,41.887064,-88.017957,Lombard,IL,60148,Dunkin'
1160 S Main St IL 60148,1.0,41.860901,-88.017873,Lombard,IL,60148,Dunkin'
4632 Lincoln Highway IL 60443,1.0,41.506316,-87.728362,Matteson,IL,60443,Dunkin'
200 Lincoln Mall Dr IL 60443,1.0,41.504785999999996,-87.72579499999999,Matteson,IL,60443,Dunkin'
4632 Lincoln Highway IL 60443,1.0,41.506316,-87.728362,Matteson,IL,60443,Dunkin'
200 Lincoln Mall Dr IL 60443,1.0,41.504785999999996,-87.72579499999999,Matteson,IL,60443,Dunkin'
4502 W Elm St IL 60050,1.0,42.347881,-88.285599,McHenry,IL,60050,Dunkin'
3523 Diamond Drive IL 60051,0.22,42.355462,-88.228663,McHenry,IL,60051,Dunkin'
4502 W Elm St IL 60050,1.0,42.347881,-88.285599,McHenry,IL,60050,Dunkin'
3523 Diamond Drive IL 60051,0.22,42.355462,-88.228663,McHenry,IL,60051,Dunkin'
8490 W North Ave IL 60160,1.0,41.90907,-87.839275,Melrose Park,IL,60160,Dunkin'
2033 N Mannheim Rd IL 60160,1.0,41.911862,-87.883777,Melrose Park,IL,60160,Dunkin'
1901 N Mannheim Rd IL 60160,0.9,41.907718,-87.883928,Melrose Park,IL,60160,Dunkin'
912 Winston Dr IL 60160,1.0,41.902583,-87.846568,Melrose Park,IL,60160,Dunkin'
148 W North Ave IL 60164,1.0,41.907354,-87.91140899999999,Northlake,IL,60164,Dunkin'
148 W North Ave IL 60164,1.0,41.907354,-87.91140899999999,Northlake,IL,60164,Dunkin'
8490 W North Ave IL 60160,1.0,41.90907,-87.839275,Melrose Park,IL,60160,Dunkin'
2033 N Mannheim Rd IL 60160,1.0,41.911862,-87.883777,Melrose Park,IL,60160,Dunkin'
1901 N Mannheim Rd IL 60160,0.9,41.907718,-87.883928,Melrose Park,IL,60160,Dunkin'
912 Winston Dr IL 60160,1.0,41.902583,-87.846568,Melrose Park,IL,60160,Dunkin'
148 W North Ave IL 60164,1.0,41.907354,-87.91140899999999,Northlake,IL,60164,Dunkin'
148 W North Ave IL 60164,1.0,41.907354,-87.91140899999999,Northlake,IL,60164,Dunkin'
5443 127th St IL 60445,0.9,41.661065,-87.75439300000001,Midlothian,IL,60445,Dunkin'
5443 127th St IL 60445,0.9,41.661065,-87.75439300000001,Midlothian,IL,60445,Dunkin'
14631 Pulaski Rd IL 60445,1.0,41.626822,-87.717618,Midlothian,IL,60445,Dunkin'
5443 127th St IL 60445,0.9,41.661065,-87.75439300000001,Midlothian,IL,60445,Dunkin'
5443 127th St IL 60445,0.9,41.661065,-87.75439300000001,Midlothian,IL,60445,Dunkin'
14631 Pulaski Rd IL 60445,1.0,41.626822,-87.717618,Midlothian,IL,60445,Dunkin'
8801 West 191st Street IL 60448,0.87,41.543091,-87.839078,Mokena,IL,60448,Dunkin'
18700 S Wolf Rd IL 60448,1.0,41.549195000000005,-87.890801,Mokena,IL,60448,Dunkin'
9000 W 192nd St IL 60448,1.0,41.541678000000005,-87.83623100000001,Mokena,IL,60448,Dunkin'
11212 W Lincoln Hwy IL 60448,1.0,41.504465,-87.89107299999999,Mokena,IL,60448,Dunkin'
8801 West 191st Street IL 60448,0.87,41.543091,-87.839078,Mokena,IL,60448,Dunkin'
18700 S Wolf Rd IL 60448,1.0,41.549195000000005,-87.890801,Mokena,IL,60448,Dunkin'
9000 W 192nd St IL 60448,1.0,41.541678000000005,-87.83623100000001,Mokena,IL,60448,Dunkin'
11212 W Lincoln Hwy IL 60448,1.0,41.504465,-87.89107299999999,Mokena,IL,60448,Dunkin'
197 U.S. 6 IL 60450,1.0,41.387256,-88.41778000000001,Morris,IL,60450,Dunkin'
1359 Division St IL 60450,1.0,41.37058,-88.422151,Morris,IL,60450,Dunkin'
209-101 U.S. 6 IL 60450,0.87,41.37334,-88.422078,Morris,IL,60450,Dunkin'
197 U.S. 6 IL 60450,1.0,41.387256,-88.41778000000001,Morris,IL,60450,Dunkin'
1359 Division St IL 60450,1.0,41.37058,-88.422151,Morris,IL,60450,Dunkin'
209-101 U.S. 6 IL 60450,0.87,41.37334,-88.422078,Morris,IL,60450,Dunkin'
820 E Rand Rd IL 60056,1.0,42.070857000000004,-87.925685,Mount Prospect,IL,60056,Dunkin'
820 E Rand Rd IL 60056,1.0,42.070857000000004,-87.925685,Mount Prospect,IL,60056,Dunkin'
1301 N Wolf Rd IL 60056,0.6,42.107372999999995,-87.907223,Prospect Heights,IL,60070,Dunkin'
1001 S Busse Rd IL 60056,1.0,42.047756,-87.95971800000001,Mount Prospect,IL,60056,Dunkin'
1001 S Busse Rd IL 60056,1.0,42.047756,-87.95971800000001,Mount Prospect,IL,60056,Dunkin'
820 E Rand Rd IL 60056,1.0,42.070857000000004,-87.925685,Mount Prospect,IL,60056,Dunkin'
820 E Rand Rd IL 60056,1.0,42.070857000000004,-87.925685,Mount Prospect,IL,60056,Dunkin'
1301 N Wolf Rd IL 60056,0.6,42.107372999999995,-87.907223,Prospect Heights,IL,60070,Dunkin'
1001 S Busse Rd IL 60056,1.0,42.047756,-87.95971800000001,Mount Prospect,IL,60056,Dunkin'
1001 S Busse Rd IL 60056,1.0,42.047756,-87.95971800000001,Mount Prospect,IL,60056,Dunkin'
722 Illinois 83 IL 60060,0.6,42.253112,-88.020123,Mundelein,IL,60060,Dunkin'
346 N Lake St IL 60060,1.0,42.269415,-88.004301,Mundelein,IL,60060,Dunkin'
722 Illinois 83 IL 60060,0.6,42.253112,-88.020123,Mundelein,IL,60060,Dunkin'
346 N Lake St IL 60060,1.0,42.269415,-88.004301,Mundelein,IL,60060,Dunkin'
1580 W Ogden Ave IL 60540,1.0,41.76696,-88.184268,Naperville,IL,60540,Dunkin'
702 South Washington Street IL 60540,1.0,41.765477000000004,-88.148481,Naperville,IL,60540,Dunkin'
606 S State Route 59 IL 60540,1.0,41.761924,-88.205901,Naperville,IL,60540,Dunkin'
1201 S Naper Blvd IL 60540,1.0,41.752393,-88.115818,Naperville,IL,60540,Dunkin'
1991 Brookdale Rd IL 60563,1.0,41.792742,-88.204784,Naperville,IL,60563,Dunkin'
1780 North Aurora Road IL 60563,1.0,41.780607,-88.20477199999999,Naperville,IL,60563,Dunkin'
811 E Ogden Ave IL 60563,1.0,41.787698999999996,-88.134897,Naperville,IL,60563,Dunkin'
4003 Plainfield Naperville Rd IL 60564,1.0,41.696175,-88.16745,Naperville,IL,60564,Dunkin'
3108 State Route 59 IL 60564,1.0,41.708964,-88.204093,Naperville,IL,60564,Dunkin'
2035 S Washington St IL 60565,1.0,41.730714,-88.13045799999999,Naperville,IL,60565,Dunkin'
1580 W Ogden Ave IL 60540,1.0,41.76696,-88.184268,Naperville,IL,60540,Dunkin'
702 South Washington Street IL 60540,1.0,41.765477000000004,-88.148481,Naperville,IL,60540,Dunkin'
606 S State Route 59 IL 60540,1.0,41.761924,-88.205901,Naperville,IL,60540,Dunkin'
1201 S Naper Blvd IL 60540,1.0,41.752393,-88.115818,Naperville,IL,60540,Dunkin'
1991 Brookdale Rd IL 60563,1.0,41.792742,-88.204784,Naperville,IL,60563,Dunkin'
1780 North Aurora Road IL 60563,1.0,41.780607,-88.20477199999999,Naperville,IL,60563,Dunkin'
811 E Ogden Ave IL 60563,1.0,41.787698999999996,-88.134897,Naperville,IL,60563,Dunkin'
4003 Plainfield Naperville Rd IL 60564,1.0,41.696175,-88.16745,Naperville,IL,60564,Dunkin'
3108 State Route 59 IL 60564,1.0,41.708964,-88.204093,Naperville,IL,60564,Dunkin'
2035 S Washington St IL 60565,1.0,41.730714,-88.13045799999999,Naperville,IL,60565,Dunkin'
7525 N Harlem Ave IL 60714,1.0,42.017961,-87.80631600000001,Niles,IL,60714,Dunkin'
7235 N Caldwell Ave IL 60714,1.0,42.013095,-87.78944399999999,Niles,IL,60714,Dunkin'
9721 N Milwaukee Ave IL 60714,0.66,42.056549,-87.840956,Niles,IL,60714,Dunkin'
7039 W Dempster St IL 60714,0.8,42.040355,-87.80283299999999,Niles,IL,60714,Dunkin'
7525 N Harlem Ave IL 60714,1.0,42.017961,-87.80631600000001,Niles,IL,60714,Dunkin'
7235 N Caldwell Ave IL 60714,1.0,42.013095,-87.78944399999999,Niles,IL,60714,Dunkin'
9721 N Milwaukee Ave IL 60714,0.66,42.056549,-87.840956,Niles,IL,60714,Dunkin'
7039 W Dempster St IL 60714,0.8,42.040355,-87.80283299999999,Niles,IL,60714,Dunkin'
5050 N Cumberland Ave Ste 8843 IL 60706,1.0,41.971178,-87.837402,Norridge,IL,60706,Dunkin'
7801 W Lawrence Ave IL 60706,1.0,41.967057000000004,-87.821899,Norridge,IL,60706,Dunkin'
5050 N Cumberland Ave Ste 8843 IL 60706,1.0,41.971178,-87.837402,Norridge,IL,60706,Dunkin'
7801 W Lawrence Ave IL 60706,1.0,41.967057000000004,-87.821899,Norridge,IL,60706,Dunkin'
257 Genesis Way IL 60542,0.87,41.800471,-88.375896,North Aurora,IL,60542,Dunkin'
407 S Lincolnway IL 60542,1.0,41.790776,-88.321564,North Aurora,IL,60542,Dunkin'
257 Genesis Way IL 60542,0.87,41.800471,-88.375896,North Aurora,IL,60542,Dunkin'
407 S Lincolnway IL 60542,1.0,41.790776,-88.321564,North Aurora,IL,60542,Dunkin'
3369 Buckley Rd IL 60064,0.8,42.308859000000005,-87.87471500000001,Libertyville,IL,60048,Dunkin'
2829 Martin Luther King Jr Dr IL 60064,1.0,42.319108,-87.867432,North Chicago,IL,60064,Dunkin'
3369 Buckley Rd IL 60064,0.8,42.308859000000005,-87.87471500000001,Libertyville,IL,60048,Dunkin'
2829 Martin Luther King Jr Dr IL 60064,1.0,42.319108,-87.867432,North Chicago,IL,60064,Dunkin'
1945 Willow Rd IL 60062,1.0,42.105243,-87.828389,Northbrook,IL,60062,Dunkin'
2847 Dundee Rd IL 60062,1.0,42.137879999999996,-87.84994499999999,Northbrook,IL,60062,Dunkin'
1945 Willow Rd IL 60062,1.0,42.105243,-87.828389,Northbrook,IL,60062,Dunkin'
2847 Dundee Rd IL 60062,1.0,42.137879999999996,-87.84994499999999,Northbrook,IL,60062,Dunkin'
4152 W 167th St IL 60452,1.0,41.586556,-87.717223,Oak Forest,IL,60452,Dunkin'
5160 159th St IL 60452,1.0,41.602953,-87.745288,Oak Forest,IL,60452,Dunkin'
4152 W 167th St IL 60452,1.0,41.586556,-87.717223,Oak Forest,IL,60452,Dunkin'
5160 159th St IL 60452,1.0,41.602953,-87.745288,Oak Forest,IL,60452,Dunkin'
5116 museum Drive IL 60453,0.9,41.719634,-87.748013,Oak Lawn,IL,60453,Dunkin'
6408 W 95th St IL 60453,1.0,41.719742,-87.780124,Oak Lawn,IL,60453,Dunkin'
10301 Central Avenue IL 60453,1.0,41.705402,-87.759793,Oak Lawn,IL,60453,Dunkin'
9304 S Cicero Ave IL 60453,1.0,41.723376,-87.741447,Oak Lawn,IL,60453,Dunkin'
5116 museum Drive IL 60453,0.9,41.719634,-87.748013,Oak Lawn,IL,60453,Dunkin'
6408 W 95th St IL 60453,1.0,41.719742,-87.780124,Oak Lawn,IL,60453,Dunkin'
10301 Central Avenue IL 60453,1.0,41.705402,-87.759793,Oak Lawn,IL,60453,Dunkin'
9304 S Cicero Ave IL 60453,1.0,41.723376,-87.741447,Oak Lawn,IL,60453,Dunkin'
7117 West North Avenue IL 60302,1.0,41.908504,-87.80505600000001,Oak Park,IL,60302,Dunkin'
6820 Roosevelt Rd IL 60304,1.0,41.865287,-87.794612,Oak Park,IL,60304,Dunkin'
7117 West North Avenue IL 60302,1.0,41.908504,-87.80505600000001,Oak Park,IL,60302,Dunkin'
6820 Roosevelt Rd IL 60304,1.0,41.865287,-87.794612,Oak Park,IL,60304,Dunkin'
17521 East Roosevelt Road IL 60181,0.33,41.875378999999995,-87.97643000000001,Villa Park,IL,60181,Dunkin'
17w422 22nd St IL 60181,0.69,41.845994,-87.98258299999999,Villa Park,IL,60181,Dunkin'
17521 East Roosevelt Road IL 60181,0.33,41.875378999999995,-87.97643000000001,Villa Park,IL,60181,Dunkin'
17w422 22nd St IL 60181,0.69,41.845994,-87.98258299999999,Villa Park,IL,60181,Dunkin'
3252 Vollmer Rd IL 60461,1.0,41.527332,-87.695854,Olympia Fields,IL,60461,Dunkin'
2520 Lincoln Hwy IL 60461,1.0,41.505759000000005,-87.678622,Olympia Fields,IL,60461,Dunkin'
3252 Vollmer Rd IL 60461,1.0,41.527332,-87.695854,Olympia Fields,IL,60461,Dunkin'
2520 Lincoln Hwy IL 60461,1.0,41.505759000000005,-87.678622,Olympia Fields,IL,60461,Dunkin'
14461 S La Grange Rd IL 60462,0.22,41.625307,-87.83293,Orland Park,IL,60462,Dunkin'
15609 S Harlem Ave IL 60462,1.0,41.607159,-87.794152,Orland Park,IL,60462,Dunkin'
8940 W 159th St IL 60462,0.68,41.602157,-87.837936,Orland Park,IL,60462,Dunkin'
11309 West 143rd Street IL 60467,1.0,41.629529,-87.897226,Orland Park,IL,60467,Dunkin'
11289 W 143rd St IL 60467,1.0,41.629529,-87.897215,Orland Park,IL,60467,Dunkin'
14461 S La Grange Rd IL 60462,0.22,41.625307,-87.83293,Orland Park,IL,60462,Dunkin'
15609 S Harlem Ave IL 60462,1.0,41.607159,-87.794152,Orland Park,IL,60462,Dunkin'
8940 W 159th St IL 60462,0.68,41.602157,-87.837936,Orland Park,IL,60462,Dunkin'
11309 West 143rd Street IL 60467,1.0,41.629529,-87.897226,Orland Park,IL,60467,Dunkin'
11289 W 143rd St IL 60467,1.0,41.629529,-87.897215,Orland Park,IL,60467,Dunkin'
2420 U.S. 34 IL 60543,1.0,41.704088,-88.306552,Oswego,IL,60543,Dunkin'
4032 Us-34 IL 60543,1.0,41.687661999999996,-88.338477,Oswego,IL,60543,Dunkin'
2420 U.S. 34 IL 60543,1.0,41.704088,-88.306552,Oswego,IL,60543,Dunkin'
4032 Us-34 IL 60543,1.0,41.687661999999996,-88.338477,Oswego,IL,60543,Dunkin'
231 West Northwest Highway IL 60067,0.22,42.101977000000005,-88.05580400000001,Palatine,IL,60067,Dunkin'
801 E Dundee Rd IL 60074,1.0,42.138743,-88.023748,Palatine,IL,60074,Dunkin'
231 West Northwest Highway IL 60067,0.22,42.101977000000005,-88.05580400000001,Palatine,IL,60067,Dunkin'
801 E Dundee Rd IL 60074,1.0,42.138743,-88.023748,Palatine,IL,60074,Dunkin'
13029 South La Grange Road IL 60464,1.0,41.653352000000005,-87.853142,Palos Park,IL,60464,Dunkin'
11901 S 80th Ave IL 60464,1.0,41.674515,-87.815659,Palos Park,IL,60464,Dunkin'
13029 South La Grange Road IL 60464,1.0,41.653352000000005,-87.853142,Palos Park,IL,60464,Dunkin'
11901 S 80th Ave IL 60464,1.0,41.674515,-87.815659,Palos Park,IL,60464,Dunkin'
1129 Touhy Avenue IL 60068,0.9,42.010602,-87.840464,Park Ridge,IL,60068,Dunkin'
2606 West Dempster Street IL 60068,0.8,42.04,-87.859473,Park Ridge,IL,60068,Dunkin'
1129 Touhy Avenue IL 60068,0.9,42.010602,-87.840464,Park Ridge,IL,60068,Dunkin'
2606 West Dempster Street IL 60068,0.8,42.04,-87.859473,Park Ridge,IL,60068,Dunkin'
1600 N Knoxville Ave IL 61603,1.0,40.706548,-89.59358,Peoria,IL,61603,Dunkin'
613 N Western Ave IL 61604,1.0,40.695267,-89.623329,Peoria,IL,61604,Dunkin'
3428 N University St IL 61604,1.0,40.729884999999996,-89.612398,Peoria,IL,61604,Dunkin'
5205 N Karen Ct IL 61615,1.0,40.751128,-89.63861700000001,Peoria,IL,61615,Dunkin'
4525 N Sterling Ave IL 61615,1.0,40.743491,-89.632189,Peoria,IL,61615,Dunkin'
1600 N Knoxville Ave IL 61603,1.0,40.706548,-89.59358,Peoria,IL,61603,Dunkin'
613 N Western Ave IL 61604,1.0,40.695267,-89.623329,Peoria,IL,61604,Dunkin'
3428 N University St IL 61604,1.0,40.729884999999996,-89.612398,Peoria,IL,61604,Dunkin'
5205 N Karen Ct IL 61615,1.0,40.751128,-89.63861700000001,Peoria,IL,61615,Dunkin'
4525 N Sterling Ave IL 61615,1.0,40.743491,-89.632189,Peoria,IL,61615,Dunkin'
13313 S Route 59 IL 60585,1.0,41.640964000000004,-88.202412,Plainfield,IL,60585,Dunkin'
12690 S Route 59 IL 60585,1.0,41.653511,-88.206542,Plainfield,IL,60585,Dunkin'
11900 S Route 59 IL 60585,1.0,41.66568,-88.204865,Plainfield,IL,60585,Dunkin'
13313 S Route 59 IL 60585,1.0,41.640964000000004,-88.202412,Plainfield,IL,60585,Dunkin'
12690 S Route 59 IL 60585,1.0,41.653511,-88.206542,Plainfield,IL,60585,Dunkin'
11900 S Route 59 IL 60585,1.0,41.66568,-88.204865,Plainfield,IL,60585,Dunkin'
9259 W Cermak Rd IL 60546,1.0,41.849257,-87.854105,Riverside,IL,60546,Dunkin'
8360 W Cermak Rd IL 60546,0.9,41.849724,-87.831137,Riverside,IL,60546,Dunkin'
7501 W Cermak Rd IL 60546,1.0,41.85044,-87.80807800000001,Riverside,IL,60546,Dunkin'
9259 W Cermak Rd IL 60546,1.0,41.849257,-87.854105,Riverside,IL,60546,Dunkin'
8360 W Cermak Rd IL 60546,0.9,41.849724,-87.831137,Riverside,IL,60546,Dunkin'
7501 W Cermak Rd IL 60546,1.0,41.85044,-87.80807800000001,Riverside,IL,60546,Dunkin'
2542 S Alpine Rd IL 61108,1.0,42.237263,-89.028906,Rockford,IL,61108,Dunkin'
7370 East State Street IL 61108,1.0,42.270236,-88.972615,Rockford,IL,61108,Dunkin'
3511 E State St IL 61108,1.0,42.265729,-89.041363,Rockford,IL,61108,Dunkin'
2542 S Alpine Rd IL 61108,1.0,42.237263,-89.028906,Rockford,IL,61108,Dunkin'
7370 East State Street IL 61108,1.0,42.270236,-88.972615,Rockford,IL,61108,Dunkin'
3511 E State St IL 61108,1.0,42.265729,-89.041363,Rockford,IL,61108,Dunkin'
W Algonquin Rd IL 60005,1.0,42.060608,-88.017323,Arlington Heights,IL,60005,Dunkin'
1300 Hicks Road IL 60008,1.0,42.096002,-88.033501,Rolling Meadows,IL,60008,Dunkin'
3350 Kirchoff Rd IL 60008,1.0,42.079232,-88.02171700000001,Rolling Meadows,IL,60008,Dunkin'
2230 Algonquin Rd IL 60008,1.0,42.059057,-88.009578,Rolling Meadows,IL,60008,Dunkin'
1450 Golf Rd IL 60008,1.0,42.051792999999996,-87.998758,Rolling Meadows,IL,60008,Dunkin'
W Algonquin Rd IL 60005,1.0,42.060608,-88.017323,Arlington Heights,IL,60005,Dunkin'
1300 Hicks Road IL 60008,1.0,42.096002,-88.033501,Rolling Meadows,IL,60008,Dunkin'
3350 Kirchoff Rd IL 60008,1.0,42.079232,-88.02171700000001,Rolling Meadows,IL,60008,Dunkin'
2230 Algonquin Rd IL 60008,1.0,42.059057,-88.009578,Rolling Meadows,IL,60008,Dunkin'
1450 Golf Rd IL 60008,1.0,42.051792999999996,-87.998758,Rolling Meadows,IL,60008,Dunkin'
649 N Independence Blvd IL 60446,1.0,41.653079,-88.08012,Romeoville,IL,60446,Dunkin'
420 South Weber Road IL 60446,1.0,41.607414,-88.126788,Romeoville,IL,60446,Dunkin'
659 N Independence Blvd IL 60446,1.0,41.654247,-88.079832,Romeoville,IL,60446,Dunkin'
649 N Independence Blvd IL 60446,1.0,41.653079,-88.08012,Romeoville,IL,60446,Dunkin'
420 South Weber Road IL 60446,1.0,41.607414,-88.126788,Romeoville,IL,60446,Dunkin'
659 N Independence Blvd IL 60446,1.0,41.654247,-88.079832,Romeoville,IL,60446,Dunkin'
1550 Lake Street IL 60172,0.7,41.972387,-88.118613,Roselle,IL,60172,Dunkin'
641 North Roselle Road IL 60172,1.0,41.997025,-88.08001800000001,Roselle,IL,60172,Dunkin'
253 E Irving Park Rd IL 60172,0.84,41.983399,-88.074471,Roselle,IL,60172,Dunkin'
1550 Lake Street IL 60172,0.7,41.972387,-88.118613,Roselle,IL,60172,Dunkin'
641 North Roselle Road IL 60172,1.0,41.997025,-88.08001800000001,Roselle,IL,60172,Dunkin'
253 E Irving Park Rd IL 60172,0.84,41.983399,-88.074471,Roselle,IL,60172,Dunkin'
9781 W Higgins Rd IL 60018,1.0,41.993728999999995,-87.870274,Rosemont,IL,60018,Dunkin'
5801 N River Rd IL 60018,1.0,41.984164,-87.860275,Rosemont,IL,60018,Dunkin'
9781 W Higgins Rd IL 60018,1.0,41.993728999999995,-87.870274,Rosemont,IL,60018,Dunkin'
5801 N River Rd IL 60018,1.0,41.984164,-87.860275,Rosemont,IL,60018,Dunkin'
369 East Rollins Road IL 60073,1.0,42.378541999999996,-88.07354000000001,Round Lake Beach,IL,60073,Dunkin'
2592 North Illinois 83 IL 60073,0.9,42.359774,-88.033425,Grayslake,IL,60030,Dunkin'
706 E Rollins Rd IL 60073,1.0,42.379585999999996,-88.067136,Round Lake Beach,IL,60073,Dunkin'
369 East Rollins Road IL 60073,1.0,42.378541999999996,-88.07354000000001,Round Lake Beach,IL,60073,Dunkin'
2592 North Illinois 83 IL 60073,0.9,42.359774,-88.033425,Grayslake,IL,60030,Dunkin'
706 E Rollins Rd IL 60073,1.0,42.379585999999996,-88.067136,Round Lake Beach,IL,60073,Dunkin'
1440 North Meacham Road IL 60173,1.0,42.055679999999995,-88.045254,Schaumburg,IL,60173,Dunkin'
1440 North Meacham Road IL 60173,1.0,42.055679999999995,-88.045254,Schaumburg,IL,60173,Dunkin'
3 Woodfield Mall IL 60173,1.0,42.049960999999996,-88.03836899999999,Schaumburg,IL,60173,Dunkin'
2716 Sutton Lane IL 60194,0.65,42.072823,-88.190605,Hoffman Estates,IL,60192,Dunkin'
2716 Sutton Lane IL 60194,0.65,42.072823,-88.190605,Hoffman Estates,IL,60192,Dunkin'
2716 Sutton Lane IL 60194,0.65,42.072823,-88.190605,Hoffman Estates,IL,60192,Dunkin'
893 E Schaumburg Rd IL 60194,1.0,42.027801000000004,-88.059383,Schaumburg,IL,60194,Dunkin'
2716 Sutton Lane IL 60194,0.65,42.072823,-88.190605,Hoffman Estates,IL,60192,Dunkin'
2263 W Schaumburg Rd IL 60194,1.0,42.024819,-88.1367,Schaumburg,IL,60194,Dunkin'
477 W Golf Rd IL 60195,1.0,42.048403,-88.091044,Schaumburg,IL,60195,Dunkin'
1440 North Meacham Road IL 60173,1.0,42.055679999999995,-88.045254,Schaumburg,IL,60173,Dunkin'
1440 North Meacham Road IL 60173,1.0,42.055679999999995,-88.045254,Schaumburg,IL,60173,Dunkin'
3 Woodfield Mall IL 60173,1.0,42.049960999999996,-88.03836899999999,Schaumburg,IL,60173,Dunkin'
2716 Sutton Lane IL 60194,0.65,42.072823,-88.190605,Hoffman Estates,IL,60192,Dunkin'
2716 Sutton Lane IL 60194,0.65,42.072823,-88.190605,Hoffman Estates,IL,60192,Dunkin'
2716 Sutton Lane IL 60194,0.65,42.072823,-88.190605,Hoffman Estates,IL,60192,Dunkin'
893 E Schaumburg Rd IL 60194,1.0,42.027801000000004,-88.059383,Schaumburg,IL,60194,Dunkin'
2716 Sutton Lane IL 60194,0.65,42.072823,-88.190605,Hoffman Estates,IL,60192,Dunkin'
2263 W Schaumburg Rd IL 60194,1.0,42.024819,-88.1367,Schaumburg,IL,60194,Dunkin'
477 W Golf Rd IL 60195,1.0,42.048403,-88.091044,Schaumburg,IL,60195,Dunkin'
4740 River Rd IL 60176,1.0,41.965736,-87.86171,Schiller Park,IL,60176,Dunkin'
4121 Mannheim Road IL 60176,1.0,41.95302,-87.885526,Schiller Park,IL,60176,Dunkin'
9280 Irving Park Rd IL 60176,1.0,41.95422,-87.859394,Schiller Park,IL,60176,Dunkin'
4740 River Rd IL 60176,1.0,41.965736,-87.86171,Schiller Park,IL,60176,Dunkin'
4121 Mannheim Road IL 60176,1.0,41.95302,-87.885526,Schiller Park,IL,60176,Dunkin'
9280 Irving Park Rd IL 60176,1.0,41.95422,-87.859394,Schiller Park,IL,60176,Dunkin'
1401 Illinois 59 IL 60431,0.6,41.529011,-88.198799,Joliet,IL,60431,Dunkin'
955 Brook Forest Ave IL 60431,1.0,41.53869,-88.199472,Joliet,IL,60431,Dunkin'
1401 Illinois 59 IL 60431,0.6,41.529011,-88.198799,Joliet,IL,60431,Dunkin'
955 Brook Forest Ave IL 60431,1.0,41.53869,-88.199472,Joliet,IL,60431,Dunkin'
3900 Dempster St IL 60076,1.0,42.041046,-87.725611,Skokie,IL,60076,Dunkin'
4445 Golf Road IL 60076,1.0,42.0551,-87.7375,Skokie,IL,60076,Dunkin'
8408 Skokie Boulevard IL 60077,1.0,42.034488,-87.74741800000001,Skokie,IL,60077,Dunkin'
5005 West Dempster Street IL 60077,1.0,42.040649,-87.751932,Skokie,IL,60077,Dunkin'
8800 Gross Point Road IL 60077,1.0,42.041329,-87.756763,Skokie,IL,60077,Dunkin'
5150 Touhy Ave IL 60077,1.0,42.012240999999996,-87.757456,Skokie,IL,60077,Dunkin'
3900 Dempster St IL 60076,1.0,42.041046,-87.725611,Skokie,IL,60076,Dunkin'
4445 Golf Road IL 60076,1.0,42.0551,-87.7375,Skokie,IL,60076,Dunkin'
8408 Skokie Boulevard IL 60077,1.0,42.034488,-87.74741800000001,Skokie,IL,60077,Dunkin'
5005 West Dempster Street IL 60077,1.0,42.040649,-87.751932,Skokie,IL,60077,Dunkin'
8800 Gross Point Road IL 60077,1.0,42.041329,-87.756763,Skokie,IL,60077,Dunkin'
5150 Touhy Ave IL 60077,1.0,42.012240999999996,-87.757456,Skokie,IL,60077,Dunkin'
102 Chatham Road IL 62704,1.0,39.801365000000004,-89.68691899999999,Springfield,IL,62704,Dunkin'
800 East Carpenter Street IL 62769,0.9,39.807123,-89.64493399999999,Springfield,IL,62702,Dunkin'
102 Chatham Road IL 62704,1.0,39.801365000000004,-89.68691899999999,Springfield,IL,62704,Dunkin'
800 East Carpenter Street IL 62769,0.9,39.807123,-89.64493399999999,Springfield,IL,62702,Dunkin'
6034 S Archer Rd IL 60501,1.0,41.781569,-87.81258299999999,Summit Argo,IL,60501,Dunkin'
6144 S Harlem Ave IL 60501,1.0,41.779684,-87.801321,Summit Argo,IL,60501,Dunkin'
6144 S Harlem Ave IL 60501,1.0,41.779684,-87.801321,Summit Argo,IL,60501,Dunkin'
6034 S Archer Rd IL 60501,1.0,41.781569,-87.81258299999999,Summit Argo,IL,60501,Dunkin'
6144 S Harlem Ave IL 60501,1.0,41.779684,-87.801321,Summit Argo,IL,60501,Dunkin'
6144 S Harlem Ave IL 60501,1.0,41.779684,-87.801321,Summit Argo,IL,60501,Dunkin'
7935 171st Street IL 60477,1.0,41.579279,-87.81214200000001,Tinley Park,IL,60477,Dunkin'
9510 179th St IL 60477,1.0,41.565738,-87.849859,Tinley Park,IL,60477,Dunkin'
7935 171st Street IL 60477,1.0,41.579279,-87.81214200000001,Tinley Park,IL,60477,Dunkin'
9510 179th St IL 60477,1.0,41.565738,-87.849859,Tinley Park,IL,60477,Dunkin'
298 West North Avenue IL 60181,0.84,41.906833,-87.985741,Villa Park,IL,60181,Dunkin'
1 E Saint Charles Rd IL 60181,1.0,41.889424,-87.978739,Villa Park,IL,60181,Dunkin'
411 West North Avenue IL 60181,0.68,41.904821999999996,-87.968383,Villa Park,IL,60181,Dunkin'
415 W Saint Charles Rd IL 60181,1.0,41.889616,-87.987912,Villa Park,IL,60181,Dunkin'
298 West North Avenue IL 60181,0.84,41.906833,-87.985741,Villa Park,IL,60181,Dunkin'
1 E Saint Charles Rd IL 60181,1.0,41.889424,-87.978739,Villa Park,IL,60181,Dunkin'
411 West North Avenue IL 60181,0.68,41.904821999999996,-87.968383,Villa Park,IL,60181,Dunkin'
415 W Saint Charles Rd IL 60181,1.0,41.889616,-87.987912,Villa Park,IL,60181,Dunkin'
1800 North Lewis Avenue IL 60085,1.0,42.384531,-87.85591600000001,Waukegan,IL,60085,Dunkin'
1750 N Sheridan Rd IL 60085,1.0,42.384153000000005,-87.832665,Waukegan,IL,60085,Dunkin'
21 South Green Bay Road IL 60085,1.0,42.359015,-87.873352,Waukegan,IL,60085,Dunkin'
1609 Grand Ave IL 60085,1.0,42.369965,-87.85186800000001,Waukegan,IL,60085,Dunkin'
3925 Fountain Square Pl IL 60085,1.0,42.342009999999995,-87.896789,Waukegan,IL,60085,Dunkin'
2900 Belvidere Rd IL 60085,1.0,42.349758,-87.873239,Waukegan,IL,60085,Dunkin'
38947 N Green Bay Rd IL 60087,1.0,42.427997,-87.87609300000001,Beach Park,IL,60087,Dunkin'
1800 North Lewis Avenue IL 60085,1.0,42.384531,-87.85591600000001,Waukegan,IL,60085,Dunkin'
1750 N Sheridan Rd IL 60085,1.0,42.384153000000005,-87.832665,Waukegan,IL,60085,Dunkin'
21 South Green Bay Road IL 60085,1.0,42.359015,-87.873352,Waukegan,IL,60085,Dunkin'
1609 Grand Ave IL 60085,1.0,42.369965,-87.85186800000001,Waukegan,IL,60085,Dunkin'
3925 Fountain Square Pl IL 60085,1.0,42.342009999999995,-87.896789,Waukegan,IL,60085,Dunkin'
2900 Belvidere Rd IL 60085,1.0,42.349758,-87.873239,Waukegan,IL,60085,Dunkin'
38947 N Green Bay Rd IL 60087,1.0,42.427997,-87.87609300000001,Beach Park,IL,60087,Dunkin'
110 W Roosevelt Rd IL 60185,1.0,41.860633,-88.19006999999999,West Chicago,IL,60185,Dunkin'
330 S Neltnor Blvd IL 60185,1.0,41.881227,-88.19500500000001,West Chicago,IL,60185,Dunkin'
1491 W Roosevelt Rd IL 60185,1.0,41.874144,-88.229465,West Chicago,IL,60185,Dunkin'
185 W North Ave IL 60185,1.0,41.912952000000004,-88.195044,West Chicago,IL,60185,Dunkin'
110 W Roosevelt Rd IL 60185,1.0,41.860633,-88.19006999999999,West Chicago,IL,60185,Dunkin'
330 S Neltnor Blvd IL 60185,1.0,41.881227,-88.19500500000001,West Chicago,IL,60185,Dunkin'
1491 W Roosevelt Rd IL 60185,1.0,41.874144,-88.229465,West Chicago,IL,60185,Dunkin'
185 W North Ave IL 60185,1.0,41.912952000000004,-88.195044,West Chicago,IL,60185,Dunkin'
11204 31st Street IL 60154,1.0,41.833723,-87.900933,Westchester,IL,60154,Dunkin'
1005 South Mannheim Road IL 60154,1.0,41.865551,-87.882599,Westchester,IL,60154,Dunkin'
1901 S Mannheim Rd IL 60154,1.0,41.852299,-87.881866,Westchester,IL,60154,Dunkin'
11204 31st Street IL 60154,1.0,41.833723,-87.900933,Westchester,IL,60154,Dunkin'
1005 South Mannheim Road IL 60154,1.0,41.865551,-87.882599,Westchester,IL,60154,Dunkin'
1901 S Mannheim Rd IL 60154,1.0,41.852299,-87.881866,Westchester,IL,60154,Dunkin'
19 W 63rd St IL 60559,1.0,41.773231,-87.975697,Westmont,IL,60559,Dunkin'
15 E Ogden Ave IL 60559,1.0,41.809606,-87.974476,Westmont,IL,60559,Dunkin'
19 W 63rd St IL 60559,1.0,41.773231,-87.975697,Westmont,IL,60559,Dunkin'
15 E Ogden Ave IL 60559,1.0,41.809606,-87.974476,Westmont,IL,60559,Dunkin'
600 South County Farm Road IL 60187,1.0,41.858644,-88.142776,Wheaton,IL,60187,Dunkin'
956 East Roosevelt Road IL 60187,1.0,41.858824,-88.093538,Wheaton,IL,60187,Dunkin'
1815 N Main St IL 60187,1.0,41.883454,-88.106131,Wheaton,IL,60187,Dunkin'
15 Danada Sq E IL 60187,0.9,41.832617,-88.101692,Wheaton,IL,60187,Dunkin'
600 South County Farm Road IL 60187,1.0,41.858644,-88.142776,Wheaton,IL,60187,Dunkin'
956 East Roosevelt Road IL 60187,1.0,41.858824,-88.093538,Wheaton,IL,60187,Dunkin'
1815 N Main St IL 60187,1.0,41.883454,-88.106131,Wheaton,IL,60187,Dunkin'
15 Danada Sq E IL 60187,0.9,41.832617,-88.101692,Wheaton,IL,60187,Dunkin'
215 East Dundee Road IL 60090,0.88,42.139477,-87.910445,Wheeling,IL,60090,Dunkin'
215 East Dundee Road IL 60090,0.88,42.139477,-87.910445,Wheeling,IL,60090,Dunkin'
215 East Dundee Road IL 60090,0.88,42.139477,-87.910445,Wheeling,IL,60090,Dunkin'
215 East Dundee Road IL 60090,0.88,42.139477,-87.910445,Wheeling,IL,60090,Dunkin'
3207 Lake Avenue IL 60091,1.0,42.078978,-87.75489300000001,Wilmette,IL,60091,Dunkin'
3207 Lake Ave IL 60091,1.0,42.078978,-87.75489300000001,Wilmette,IL,60091,Dunkin'
3207 Lake Avenue IL 60091,1.0,42.078978,-87.75489300000001,Wilmette,IL,60091,Dunkin'
3207 Lake Ave IL 60091,1.0,42.078978,-87.75489300000001,Wilmette,IL,60091,Dunkin'
1920 87th Street IL 60517,0.9,41.727895000000004,-88.026472,Woodridge,IL,60517,Dunkin'
6820 Route 53 IL 60517,1.0,41.763477,-88.066553,Woodridge,IL,60517,Dunkin'
1920 87th Street IL 60517,0.9,41.727895000000004,-88.026472,Woodridge,IL,60517,Dunkin'
6820 Route 53 IL 60517,1.0,41.763477,-88.066553,Woodridge,IL,60517,Dunkin'
339 S Eastwood Dr IL 60098,0.89,42.311934,-88.433145,Woodstock,IL,60098,Dunkin'
335 S Eastwood Dr IL 60098,1.0,42.311934,-88.433145,Woodstock,IL,60098,Dunkin'
339 S Eastwood Dr IL 60098,0.89,42.311934,-88.433145,Woodstock,IL,60098,Dunkin'
335 S Eastwood Dr IL 60098,1.0,42.311934,-88.433145,Woodstock,IL,60098,Dunkin'
11501 S Harlem Ave IL 60482,1.0,41.682778000000006,-87.797175,Worth,IL,60482,Dunkin'
10662 S Harlem Ave IL 60482,1.0,41.697618,-87.797904,Worth,IL,60482,Dunkin'
6707 W 111th St IL 60482,1.0,41.690083,-87.786212,Worth,IL,60482,Dunkin'
11501 S Harlem Ave IL 60482,1.0,41.682778000000006,-87.797175,Worth,IL,60482,Dunkin'
10662 S Harlem Ave IL 60482,1.0,41.697618,-87.797904,Worth,IL,60482,Dunkin'
6707 W 111th St IL 60482,1.0,41.690083,-87.786212,Worth,IL,60482,Dunkin'
